{"version": 0.6, "generator": "Overpass API 0.7.61.5 4133829e", "osm3s": {"timestamp_osm_base": "2024-02-21T13:04:00Z", "copyright": "The data included in this document is from www.openstreetmap.org. The data is made available under ODbL."}, "elements": [{"type": "node", "id": 973261733, "lat": 17.502037, "lon": 78.5394064, "tags": {"amenity": "car_rental", "name": "Yapral"}}, {"type": "node", "id": 976475895, "lat": 17.500603, "lon": 78.538341, "tags": {"amenity": "post_box", "drive_through": "no", "name": "Yapral Post Office", "note": "Limited service", "source": "JPAntages 1:/19/2014"}}, {"type": "node", "id": 2446514657, "lat": 17.4901921, "lon": 78.5405458, "tags": {"amenity": "place_of_worship", "name": "Sai Baba Temple", "religion": "hindu"}}, {"type": "node", "id": 2446514664, "lat": 17.4899839, "lon": 78.5406549, "tags": {"amenity": "post_office", "name": "Post office"}}, {"type": "node", "id": 2446514668, "lat": 17.4889982, "lon": 78.5403347, "tags": {"amenity": "restaurant"}}, {"type": "node", "id": 2531833869, "lat": 17.4831415, "lon": 78.5554178}, {"type": "node", "id": 2531833871, "lat": 17.4833396, "lon": 78.55547}, {"type": "node", "id": 2531833873, "lat": 17.4834343, "lon": 78.5549979}, {"type": "node", "id": 2531833874, "lat": 17.4832373, "lon": 78.5549443}, {"type": "node", "id": 2629340371, "lat": 17.5018459, "lon": 78.5389541, "tags": {"addr:city": "Yapral", "addr:country": "IN", "addr:province": "Secunderabad", "addr:state": "Andra Pradesh", "addr:street": "Yapral-Ammuguda road", "amenity": "fuel", "name": "HP Petrol Pump", "note": "Major intersection", "source": "JPantages 1/19/3014"}}, {"type": "node", "id": 2630309964, "lat": 17.501725, "lon": 78.550842, "tags": {"amenity": "cafe", "atm": "no", "cuisine": "fried_food", "drive_through": "no", "name": "Coffee Food & Art", "note": "Good music and tastefully designed ala Coffee cup in SAINIKPURI", "operator": "Sherman & Sherman", "outdoor_seating": "yes"}}, {"type": "node", "id": 2653175510, "lat": 17.4807281, "lon": 78.5594102, "tags": {"addr:city": "Secundarabad", "addr:housenumber": "24", "addr:postcode": "500062", "addr:street": "Arul Colony, E C I L", "amenity": "school", "name": "St. Theresa High School", "phone": "+91 40 2712 4329"}}, {"type": "node", "id": 2697624155, "lat": 17.4822519, "lon": 78.559006, "tags": {"addr:postcode": "500062", "amenity": "pharmacy", "operator": "Hetero Medical Shop"}}, {"type": "node", "id": 2705352497, "lat": 17.4803419, "lon": 78.5590583, "tags": {"amenity": "place_of_worship", "name": "st.john the baptist church", "religion": "christian"}}, {"type": "node", "id": 2798876579, "lat": 17.4811606, "lon": 78.5344923, "tags": {"amenity": "bank", "brand:wikidata": "Q1340361", "brand:wikipedia": "en:State Bank of India", "name": "State Bank of India", "short_name": "SBI", "website": "https://www.sbi.co.in"}}, {"type": "node", "id": 2798876582, "lat": 17.4822038, "lon": 78.5366354}, {"type": "node", "id": 2798876584, "lat": 17.4822677, "lon": 78.5368043}, {"type": "node", "id": 2798876585, "lat": 17.4823233, "lon": 78.5365888}, {"type": "node", "id": 2798876586, "lat": 17.4824094, "lon": 78.5367635}, {"type": "node", "id": 3387296810, "lat": 17.4824476, "lon": 78.5527351}, {"type": "node", "id": 3387296811, "lat": 17.48284, "lon": 78.5528812}, {"type": "node", "id": 3387296812, "lat": 17.4827799, "lon": 78.5530589}, {"type": "node", "id": 3387296813, "lat": 17.4823875, "lon": 78.5529129}, {"type": "node", "id": 3387301337, "lat": 17.4822362, "lon": 78.5533402}, {"type": "node", "id": 3387301338, "lat": 17.4824863, "lon": 78.5534588}, {"type": "node", "id": 3387301339, "lat": 17.4824196, "lon": 78.5536134}, {"type": "node", "id": 3387301340, "lat": 17.4821695, "lon": 78.5534948}, {"type": "node", "id": 3388783469, "lat": 17.4815671, "lon": 78.5363894, "tags": {"amenity": "clinic", "name": "sai krishna dental centre"}}, {"type": "node", "id": 3392156911, "lat": 17.4828696, "lon": 78.5519325, "tags": {"amenity": "fuel", "name": "Bharat Petroleum"}}, {"type": "node", "id": 3614615257, "lat": 17.4902709, "lon": 78.5415138}, {"type": "node", "id": 3614631299, "lat": 17.4904077, "lon": 78.5415233}, {"type": "node", "id": 3614631308, "lat": 17.4904185, "lon": 78.5413525}, {"type": "node", "id": 3614996460, "lat": 17.480727, "lon": 78.5338367}, {"type": "node", "id": 3614996481, "lat": 17.4807879, "lon": 78.5339465}, {"type": "node", "id": 3614996601, "lat": 17.4808375, "lon": 78.5337693}, {"type": "node", "id": 3614996623, "lat": 17.4808984, "lon": 78.5338791}, {"type": "node", "id": 3615027991, "lat": 17.49712, "lon": 78.5422322}, {"type": "node", "id": 3615027994, "lat": 17.4971338, "lon": 78.5422579}, {"type": "node", "id": 3615028000, "lat": 17.4971654, "lon": 78.5422969}, {"type": "node", "id": 3615028009, "lat": 17.4972279, "lon": 78.5423921}, {"type": "node", "id": 3615028014, "lat": 17.4971402, "lon": 78.5425188}, {"type": "node", "id": 3615028024, "lat": 17.4974667, "lon": 78.5424131}, {"type": "node", "id": 3615028025, "lat": 17.4974771, "lon": 78.5422103}, {"type": "node", "id": 3616690930, "lat": 17.4870339, "lon": 78.5369839}, {"type": "node", "id": 3616690937, "lat": 17.4872851, "lon": 78.5365863}, {"type": "node", "id": 3616690963, "lat": 17.4872538, "lon": 78.5371157}, {"type": "node", "id": 3616690974, "lat": 17.4874959, "lon": 78.5367195}, {"type": "node", "id": 3616809514, "lat": 17.4880847, "lon": 78.5540394}, {"type": "node", "id": 3616809518, "lat": 17.4881109, "lon": 78.5538383}, {"type": "node", "id": 3616809547, "lat": 17.4882142, "lon": 78.5540469}, {"type": "node", "id": 3616809548, "lat": 17.4882193, "lon": 78.5538407}, {"type": "node", "id": 3617122663, "lat": 17.4837659, "lon": 78.5525463}, {"type": "node", "id": 3617122670, "lat": 17.4837808, "lon": 78.5524135}, {"type": "node", "id": 3617122715, "lat": 17.4838894, "lon": 78.5525616}, {"type": "node", "id": 3617122723, "lat": 17.4839043, "lon": 78.5524287}, {"type": "node", "id": 3630750996, "lat": 17.4901994, "lon": 78.5411657}, {"type": "node", "id": 3630751004, "lat": 17.4902933, "lon": 78.5411722}, {"type": "node", "id": 3914033044, "lat": 17.5074316, "lon": 78.5331562}, {"type": "node", "id": 3914033045, "lat": 17.5075389, "lon": 78.5331935}, {"type": "node", "id": 3914033046, "lat": 17.5075244, "lon": 78.5332394}, {"type": "node", "id": 3914033047, "lat": 17.5075597, "lon": 78.5332517}, {"type": "node", "id": 3914033048, "lat": 17.5075432, "lon": 78.5333038}, {"type": "node", "id": 3914033049, "lat": 17.5075063, "lon": 78.5332909}, {"type": "node", "id": 3914033050, "lat": 17.507491, "lon": 78.5333393}, {"type": "node", "id": 3914033051, "lat": 17.5073836, "lon": 78.5333019}, {"type": "node", "id": 3914033052, "lat": 17.5073981, "lon": 78.5332562}, {"type": "node", "id": 3914033053, "lat": 17.5073714, "lon": 78.5332469}, {"type": "node", "id": 3914033054, "lat": 17.5073911, "lon": 78.5331848}, {"type": "node", "id": 3914033055, "lat": 17.5074194, "lon": 78.5331947}, {"type": "node", "id": 4709578069, "lat": 17.4904302, "lon": 78.5473244, "tags": {"amenity": "bank", "brand": "SBI", "brand:wikidata": "Q1340361", "brand:wikipedia": "en:State Bank of India", "name": "State Bank of India", "short_name": "SBI"}}, {"type": "node", "id": 5350186098, "lat": 17.4835477, "lon": 78.5574853, "tags": {"amenity": "restaurant", "description": "interesting variations on South Indian breakfast items", "name": "Grannies Millets and Grains"}}, {"type": "node", "id": 5439849773, "lat": 17.4814044, "lon": 78.5543219, "tags": {"amenity": "smoking_area", "name": "Sharadha (karur vysya kamaan)"}}, {"type": "node", "id": 5464848598, "lat": 17.5067372, "lon": 78.5550126, "tags": {"amenity": "school", "name": "Indus Universal School"}}, {"type": "node", "id": 5465091377, "lat": 17.4998062, "lon": 78.5464957, "tags": {"addr:postcode": "500087", "amenity": "school", "name": "St.Pauls Model School"}}, {"type": "node", "id": 5465091378, "lat": 17.4984949, "lon": 78.5465725, "tags": {"addr:postcode": "500087", "amenity": "car_wash", "name": "Jet Car Wash", "payment:cash": "yes"}}, {"type": "node", "id": 5468970937, "lat": 17.4892854, "lon": 78.5506044}, {"type": "node", "id": 5468970938, "lat": 17.4892559, "lon": 78.5506059}, {"type": "node", "id": 5468970939, "lat": 17.4892825, "lon": 78.5505454}, {"type": "node", "id": 5468970940, "lat": 17.4892594, "lon": 78.5506784}, {"type": "node", "id": 5468970941, "lat": 17.4891233, "lon": 78.5506857}, {"type": "node", "id": 5468970942, "lat": 17.4891169, "lon": 78.5505543}, {"type": "node", "id": 5468970944, "lat": 17.4830296, "lon": 78.5523621, "tags": {"amenity": "bank", "name": "State Bank of India"}}, {"type": "node", "id": 5468970945, "lat": 17.4830423, "lon": 78.5520429, "tags": {"amenity": "bank", "brand": "Canara Bank", "brand:pa": "\u0a15\u0a47\u0a28\u0a30\u0a3e \u0a2c\u0a48\u0a02\u0a15", "brand:ur": "\u06a9\u06cc\u0646\u0631\u0627 \u0628\u06cc\u0646\u06a9", "brand:wikidata": "Q2003777", "brand:wikipedia": "en:Canara Bank", "brand:wikipedia:pa": "\u0a15\u0a47\u0a28\u0a30\u0a3e \u0a2c\u0a48\u0a02\u0a15", "name": "Canara Bank", "name:pa": "\u0a15\u0a47\u0a28\u0a30\u0a3e \u0a2c\u0a48\u0a02\u0a15", "name:ur": "\u06a9\u06cc\u0646\u0631\u0627 \u0628\u06cc\u0646\u06a9"}}, {"type": "node", "id": 5491752371, "lat": 17.4902825, "lon": 78.5413431}, {"type": "node", "id": 5491752372, "lat": 17.4901946, "lon": 78.5412415}, {"type": "node", "id": 5491752373, "lat": 17.4901971, "lon": 78.5412417}, {"type": "node", "id": 5491752374, "lat": 17.4901804, "lon": 78.5415076}, {"type": "node", "id": 5491759462, "lat": 17.4972813, "lon": 78.5422254}, {"type": "node", "id": 5491759463, "lat": 17.4972864, "lon": 78.5422081}, {"type": "node", "id": 5491759464, "lat": 17.4972308, "lon": 78.5423575}, {"type": "node", "id": 5491759465, "lat": 17.4972375, "lon": 78.5424155}, {"type": "node", "id": 5491759466, "lat": 17.4972455, "lon": 78.5426297}, {"type": "node", "id": 5569790345, "lat": 17.4896945, "lon": 78.5384964, "tags": {"amenity": "food_court", "image": "https://b.zmtcdn.com/data/pictures/1/18596081/c54655a5ba0f3b392a5a8c676e894d8a.jpg?resize=1351%3A1013&crop=1200%3A464%3B49%2C313", "internet_access": "yes", "internet_access:fee": "no", "name": "Crunchie Munchie", "opening_hours": "Mo-Su 10:00-21:30", "operator": "Michaels", "phone": "+91 9000084372", "smoking": "no", "wheelchair": "yes"}}, {"type": "node", "id": 5571207495, "lat": 17.5016943, "lon": 78.546481, "tags": {"amenity": "fountain", "name": "Wate Fountain"}}, {"type": "node", "id": 5572458226, "lat": 17.50185, "lon": 78.5388069, "tags": {"amenity": "atm", "name": "Bank of baroda"}}, {"type": "node", "id": 5572458227, "lat": 17.501827, "lon": 78.5387928, "tags": {"amenity": "atm", "name": "Andhra Bank"}}, {"type": "node", "id": 5572458228, "lat": 17.5022075, "lon": 78.5391851, "tags": {"amenity": "atm", "name": "HDFC Bank"}}, {"type": "node", "id": 5572458229, "lat": 17.5030446, "lon": 78.5370038, "tags": {"amenity": "bank", "atm": "yes", "name": "Andhra Bank", "operator": "Government", "wheelchair": "yes"}}, {"type": "node", "id": 5572458230, "lat": 17.5021732, "lon": 78.5388904, "tags": {"amenity": "bank", "atm": "yes", "name": "ICICI Bank", "wheelchair": "yes"}}, {"type": "node", "id": 5572466095, "lat": 17.5022798, "lon": 78.5424232, "tags": {"amenity": "car_wash", "name": "Jet Car Wash"}}, {"type": "node", "id": 5572466625, "lat": 17.501322, "lon": 78.5385841, "tags": {"amenity": "place_of_worship", "building": "yes", "name": "Naga Devtha Temple", "religion": "hindu", "wheelchair": "yes"}}, {"type": "node", "id": 5572466626, "lat": 17.5017934, "lon": 78.542278, "tags": {"amenity": "place_of_worship", "building": "yes", "name": "Naga Devtha Temple", "religion": "hindu", "wheelchair": "yes"}}, {"type": "node", "id": 5586527843, "lat": 17.4897559, "lon": 78.5519651, "tags": {"amenity": "place_of_worship", "name": "Venkateshwara Swamy Templa", "religion": "hindu", "wheelchair": "yes"}}, {"type": "node", "id": 6482100116, "lat": 17.4878467, "lon": 78.5647274, "tags": {"addr:district": "Hyderabad", "addr:full": "1-1-211, Sai Priya Colony, Beside Old Municipal Kapra Office, Kapra", "addr:postcode": "500062", "addr:state": "Telangana", "amenity": "hospital", "contact:phone": "040-64621340", "name": "New Life Line Multi Specialty Hospital", "source": "OpenGovernmentData"}}, {"type": "node", "id": 6485435755, "lat": 17.4837017, "lon": 78.5373142, "tags": {"addr:district": "Hyderabad", "addr:full": "Plot No: 610, Defence Colony, Neredmet 'X' Roads, Secunderabad", "addr:postcode": "500094", "addr:state": "Telangana", "amenity": "hospital", "name": "Meda Hospital Pvt. Ltd", "source": "OpenGovernmentData"}}, {"type": "node", "id": 6486059355, "lat": 17.4810002, "lon": 78.5334009, "tags": {"addr:district": "Hyderabad", "addr:full": "35-601/1, G K Colony, Sainikpuri", "addr:postcode": "500094", "addr:state": "Telangana", "amenity": "hospital", "name": "Rishab Eye Centre", "source": "OpenGovernmentData"}}, {"type": "node", "id": 6487033522, "lat": 17.4812995, "lon": 78.5563056, "tags": {"addr:district": "Hyderabad", "addr:full": "Plot No.4, Thyagaraya Nagar, Dr. A.S. Rao Nagar, Secunderabad", "addr:postcode": "500062", "addr:state": "Telangana", "amenity": "hospital", "contact:email": "geetanjali_ivf@yahoo.com", "name": "Geetanjali Test Tube Baby Centre", "phone": "040-27127676", "source": "OpenGovernmentData", "website": "https://www.geetanjaliivf.com"}}, {"type": "node", "id": 6487647064, "lat": 17.4825166, "lon": 78.5510686, "tags": {"addr:district": "Hyderabad", "addr:full": "Sainikpuri, Secunderabad", "addr:postcode": "500094", "addr:state": "Telangana", "amenity": "hospital", "name": "Bhavan's Sarada Devi Hospital", "source": "OpenGovernmentData"}}, {"type": "node", "id": 6496852838, "lat": 17.4825173, "lon": 78.5374282, "tags": {"addr:district": "Hyderabad", "addr:full": "Sajini plaza, 1st floor, 37-90/2, defence colony, Neredmet 'X' Roads, secunderabad", "addr:postcode": "500094", "addr:state": "Telangana", "amenity": "hospital", "email": "universaldentalhyd@yahoo.com", "health_facility:type": "Implantology;Correction of Irregular Teeth Braces ;Gum Surgery;Advance Root Canal Therapy;Fixed Partial Dentures;Veneering;Dental Lasers", "healthcare:speciality": "Cosmetic Dentistry; Dentistry; Orthodontics", "medical_system": "Allopathic", "name": "Universal Superspeciality Dental Hospital", "operator:type": "private", "phone": "040 27111100;040 27111101", "source": "OpenGovernmentData", "website": "https://universaldentalhospital.com/"}}, {"type": "node", "id": 6496903933, "lat": 17.4804514, "lon": 78.5561165, "tags": {"addr:district": "Hyderabad", "addr:full": "MIG, B-10, Dr. A.S. Rao Nagar Road, ECIL Main Road", "addr:postcode": "500062", "addr:state": "Telangana", "amenity": "hospital", "name": "Dr. A S Rao Nagar Nursing Home", "phone": "040 27122230", "source": "OpenGovernmentData"}}, {"type": "node", "id": 6497360893, "lat": 17.4938323, "lon": 78.5398865, "tags": {"addr:district": "Hyderabad", "addr:full": "250, Opp Kandiguda Church, Hastinapuri Colony, Sainikpuri", "addr:postcode": "500094", "addr:state": "Telangana", "amenity": "hospital", "name": "Srinivasa Hospital", "source": "OpenGovernmentData"}}, {"type": "node", "id": 6503394122, "lat": 17.4820222, "lon": 78.5525036, "tags": {"addr:district": "Hyderabad", "addr:full": "Beside ICICI Bank, Sainikpuri, A.S. Rao Nagar", "addr:state": "Telangana", "amenity": "hospital", "contact:mobile": "097018 88488", "email": "asraonagar@ankurahospital.com", "healthcare:speciality": "Neonatology;Pediatric Critical Care;Paediatric Emergency;Paediatric Surgery;Pediatric Dentistry;Paediatric Neurology;Paediatric Cardiology;Paediatric Endocrinology", "medical_system": "Allopathic", "name": "Ankura Children's Hospital", "operator:type": "private", "phone": "040 49699999", "source": "OpenGovernmentData", "website": "https://ankurahospital.com"}}, {"type": "node", "id": 6505671806, "lat": 17.4811326, "lon": 78.5541297, "tags": {"addr:district": "Hyderabad", "addr:full": "205, Bhanu Enclave, Near City Union Bank, Dr. A. S. Rao Nagar", "addr:postcode": "500062", "addr:state": "Telangana", "amenity": "hospital", "fax": "27127919", "name": "Prema Eye Care Centre", "source": "OpenGovernmentData"}}, {"type": "node", "id": 6528301302, "lat": 17.5130968, "lon": 78.5541491, "tags": {"addr:district": "Hyderabad", "addr:full": "Main Road, Balaji Nagar", "addr:postcode": "500087", "addr:state": "Telangana", "amenity": "hospital", "emergency": "yes", "healthcare:speciality": "gynaecology;surgery;general;dermatology", "name": "Meenakshi Mother and Child Hospital"}}, {"type": "node", "id": 6531328860, "lat": 17.5019044, "lon": 78.5405564, "tags": {"addr:district": "Hyderabad", "addr:full": "Near Sai Baba Temple, Bapuji Nagar Colony, Yapral", "addr:postcode": "500087", "addr:state": "Telangana", "amenity": "hospital", "fixme": "Please verify the accurate position of the hospital as I have mapped the facility based on the address provided in Open Government Data", "name": "Jain Multi Speciality Hospital", "source": "OpenGovernmentData"}}, {"type": "node", "id": 6548823374, "lat": 17.4832707, "lon": 78.5523789, "tags": {"addr:city": "Hyderabad", "addr:full": "Plot No:. 42, 43, 45 &46, VIJAYAPURI COLONY, Opp CANARA BANK SAINIKPURI, NEAR PETROL PUMP, DR A S RAO NAGAR", "addr:postcode": "500062", "addr:state": "Telangana", "amenity": "hospital", "contact:phone": "040 27140022", "name": "MAYFLOWER HOSPITAL FOR WOMEN & CHILDREN", "operator:type": "private", "source": "OpenGovernmentData"}}, {"type": "node", "id": 6562454569, "lat": 17.483593, "lon": 78.5580665, "tags": {"addr:district": "Hyderabad", "addr:full": "H.No. 19-66/11, Prashanth Nagar, Hi Tension Road, Dr. A.S. Rao Nagar, Kapra", "addr:postcode": "500062", "addr:state": "Telangana", "amenity": "hospital", "name": "Asha Hospital", "source": "OpenGovernmentData"}}, {"type": "node", "id": 6639594098, "lat": 17.5007949, "lon": 78.5381619, "tags": {"addr:district": "Medchal Malkajgiri", "addr:place": "Nagadevatha Temple", "addr:state": "Telangana", "addr:street": "Yapral chourastha", "addr:subdistrict": "Malkajgiri", "amenity": "health_post", "healthcare": "yes", "name": "SubCentre Yapral", "operational_status": "operational", "operator:type": "government", "source": "OpenDataTelangana"}}, {"type": "node", "id": 6656722755, "lat": 17.486278, "lon": 78.5555828, "tags": {"addr:district": "Medchal Malkajgiri", "addr:place": "Youth Association Building", "addr:state": "Telangana", "addr:street": "Netaji Nagar Colony", "addr:subdistrict": "Keesara", "amenity": "health_post", "healthcare": "yes", "name": "SubCentre Ayodhya Nagar (Urban)", "operational_status": "operational", "operator:type": "government"}}, {"type": "node", "id": 6656722757, "lat": 17.4800561, "lon": 78.5524097, "tags": {"addr:district": "Medchal Malkajgiri", "addr:place": "As Rao Nagar", "addr:state": "Telangana", "addr:street": "As Rao Nagar", "addr:subdistrict": "Keesara", "amenity": "health_post", "healthcare": "yes", "name": "SubCentre A S Rao Nagar (Urban)", "operational_status": "operational", "operator:type": "government", "source": "OpenDataTelangana"}}, {"type": "node", "id": 6779857188, "lat": 17.5130121, "lon": 78.5527025, "tags": {"addr:city": "Hyderabad", "addr:housenumber": "22-55", "addr:postcode": "500087", "addr:street": "balaji nagar main road", "amenity": "place_of_worship", "denomination": "hindhu", "ele": "55", "name": "Hanuman Temple", "religion": "hindu", "service_times": "08-10"}}, {"type": "node", "id": 6779923314, "lat": 17.5139277, "lon": 78.5495517, "tags": {"amenity": "parking", "historic": "city_gate", "park_ride": "yes"}}, {"type": "node", "id": 6779945608, "lat": 17.5129269, "lon": 78.5548941, "tags": {"addr:city": "Hyderabad", "addr:housenumber": "66-01/22", "addr:postcode": "500087", "addr:street": "balaji nagar main road", "amenity": "restaurant", "cuisine": "coffee_shop;pizza", "name": "raghavendra tiifin  center", "opening_hours": "Mo-Su 10:00-22:00", "phone": "9854422111"}}, {"type": "node", "id": 6801239690, "lat": 17.4822669, "lon": 78.5365102, "tags": {"addr:city": "Hyderabad", "addr:postcode": "500056", "addr:street": "neredmet cross roads,defence colony", "amenity": "fuel", "brand": "Bharat Petroleum", "brand:wikidata": "Q854826", "brand:wikipedia": "en:Bharat Petroleum", "name": "Bharat Petroleum"}}, {"type": "node", "id": 6811749163, "lat": 17.512371, "lon": 78.557713, "tags": {"addr:district": "Medchal Malkajgiri", "addr:full": "Balaji Nagar Road, Sainikpuri, Secunderabad", "addr:postcode": "500094", "addr:state": "Telangana", "amenity": "hospital", "contact:phone": "040 65143144", "name": "Sri Balaji Nagar Nursing Home", "source": "OpenGovernmentData"}}, {"type": "node", "id": 6811749169, "lat": 17.513357, "lon": 78.556607, "tags": {"addr:district": "Medchal Malkajgiri", "addr:full": "Sai Kamman Road, Near Shivalayam, Vishwa Karma Colony, Balaji Nagar, Secunderabad", "addr:postcode": "500094", "addr:state": "Telangana", "amenity": "hospital", "name": "Aditya Hospital", "source": "OpenGovernmentData"}}, {"type": "node", "id": 6822126625, "lat": 17.512415, "lon": 78.557516, "tags": {"amenity": "pharmacy", "name": "Sree Rajarajeshwara Medical And General Store", "source": "survey"}}, {"type": "node", "id": 7143792159, "lat": 17.4843375, "lon": 78.534164}, {"type": "node", "id": 7143792160, "lat": 17.4844705, "lon": 78.5339896}, {"type": "node", "id": 7143792161, "lat": 17.4843784, "lon": 78.5339199}, {"type": "node", "id": 7143792162, "lat": 17.484294, "lon": 78.5340822}, {"type": "node", "id": 7143792163, "lat": 17.48423, "lon": 78.5340594}, {"type": "node", "id": 7143792164, "lat": 17.4842825, "lon": 78.5339333}, {"type": "node", "id": 7143792165, "lat": 17.4843183, "lon": 78.5339481}, {"type": "node", "id": 7143792166, "lat": 17.4843707, "lon": 78.5338515}, {"type": "node", "id": 7143792167, "lat": 17.4842607, "lon": 78.5337871}, {"type": "node", "id": 7143792168, "lat": 17.4842889, "lon": 78.5336986}, {"type": "node", "id": 7143792169, "lat": 17.4844987, "lon": 78.5337469}, {"type": "node", "id": 7143792170, "lat": 17.4845703, "lon": 78.5337616}, {"type": "node", "id": 7143792171, "lat": 17.4845984, "lon": 78.5337}, {"type": "node", "id": 7143792172, "lat": 17.4846112, "lon": 78.5335471}, {"type": "node", "id": 7143792173, "lat": 17.484523, "lon": 78.53324}, {"type": "node", "id": 7143792174, "lat": 17.48445, "lon": 78.5331702}, {"type": "node", "id": 7143792175, "lat": 17.4842377, "lon": 78.5330455}, {"type": "node", "id": 7143792176, "lat": 17.4842057, "lon": 78.5330629}, {"type": "node", "id": 7143792177, "lat": 17.4841622, "lon": 78.5330428}, {"type": "node", "id": 7143792178, "lat": 17.4841431, "lon": 78.5330603}, {"type": "node", "id": 7143792179, "lat": 17.4840151, "lon": 78.5330455}, {"type": "node", "id": 7143792180, "lat": 17.4839218, "lon": 78.5331367}, {"type": "node", "id": 7143792181, "lat": 17.4838412, "lon": 78.5332426}, {"type": "node", "id": 7143792182, "lat": 17.4838514, "lon": 78.5332815}, {"type": "node", "id": 7143792183, "lat": 17.4838552, "lon": 78.5335484}, {"type": "node", "id": 7143792184, "lat": 17.483726, "lon": 78.5335578}, {"type": "node", "id": 7143811385, "lat": 17.4837248, "lon": 78.5335994}, {"type": "node", "id": 7143811386, "lat": 17.4839486, "lon": 78.5341358}, {"type": "node", "id": 7143811387, "lat": 17.4839793, "lon": 78.5343812}, {"type": "node", "id": 7143811388, "lat": 17.48412, "lon": 78.5343987}, {"type": "node", "id": 7143811389, "lat": 17.4842774, "lon": 78.534455}, {"type": "node", "id": 7143811390, "lat": 17.4844462, "lon": 78.5344885}, {"type": "node", "id": 7143811391, "lat": 17.4845306, "lon": 78.5343303}, {"type": "node", "id": 7797145617, "lat": 17.4816252, "lon": 78.5377166}, {"type": "node", "id": 7797145618, "lat": 17.4816222, "lon": 78.5378322}, {"type": "node", "id": 7797145619, "lat": 17.4818269, "lon": 78.5378381}, {"type": "node", "id": 7797145620, "lat": 17.4818299, "lon": 78.5377224}, {"type": "node", "id": 7797145621, "lat": 17.4816227, "lon": 78.537813, "tags": {"entrance": "yes"}}, {"type": "node", "id": 8231011730, "lat": 17.5149626, "lon": 78.5558279, "tags": {"amenity": "school", "grades": "1-10", "name": "holy zion"}}, {"type": "node", "id": 8233139515, "lat": 17.5105344, "lon": 78.5574257, "tags": {"amenity": "place_of_worship", "name": "Mahankali", "religion": "hindu"}}, {"type": "node", "id": 8233139516, "lat": 17.5106049, "lon": 78.5573729}, {"type": "node", "id": 8233144017, "lat": 17.5106202, "lon": 78.5575045}, {"type": "node", "id": 8233144018, "lat": 17.5105935, "lon": 78.5575079}, {"type": "node", "id": 8233144019, "lat": 17.5105958, "lon": 78.5575387}, {"type": "node", "id": 8233144020, "lat": 17.5105419, "lon": 78.5575446}, {"type": "node", "id": 8233144021, "lat": 17.5105401, "lon": 78.5575134}, {"type": "node", "id": 8233144022, "lat": 17.5105047, "lon": 78.557517}, {"type": "node", "id": 8233144023, "lat": 17.5104864, "lon": 78.5573867}, {"type": "node", "id": 8233762235, "lat": 17.5132996, "lon": 78.5562873, "tags": {"amenity": "place_of_worship", "name": "shivalayam", "religion": "hindu"}}, {"type": "node", "id": 8763276400, "lat": 17.4867461, "lon": 78.5540117, "tags": {"addr:district": "Medchal", "addr:full": "Nethaji Nagar, Rukminipuri Colony, Kapra, Secunderabad", "addr:postcode": "500094", "addr:state": "Telangana", "amenity": "hospital", "name": "Nandini Hospital", "source": "Local Knowledge"}}, {"type": "node", "id": 8990513772, "lat": 17.4814935, "lon": 78.5552246, "tags": {"amenity": "fast_food", "brand": "KFC", "brand:pa": "\u0a15\u0a47\u0a10\u0a2b\u0a38\u0a40", "brand:ur": "\u06a9\u06cc\u0646\u0679\u06a9\u06cc \u0641\u0631\u0627\u0626\u06cc\u0688 \u0686\u06a9\u0646", "brand:wikidata": "Q524757", "brand:wikipedia": "en:KFC", "brand:wikipedia:pa": "\u0a15\u0a47\u0a10\u0a2b\u0a38\u0a40", "brand:wikipedia:ur": "\u06a9\u06cc\u0646\u0679\u06a9\u06cc \u0641\u0631\u0627\u0626\u06cc\u0688 \u0686\u06a9\u0646", "cuisine": "fast_food", "name": "KFC", "name:pa": "\u0a15\u0a47\u0a10\u0a2b\u0a38\u0a40", "name:ur": "\u06a9\u06cc\u0646\u0679\u06a9\u06cc \u0641\u0631\u0627\u0626\u06cc\u0688 \u0686\u06a9\u0646"}}, {"type": "node", "id": 8990527620, "lat": 17.482523, "lon": 78.5514232, "tags": {"amenity": "restaurant", "name": "Joint-Al-Mandi"}}, {"type": "node", "id": 9665686855, "lat": 17.4888787, "lon": 78.5345511}, {"type": "node", "id": 9665686856, "lat": 17.4882772, "lon": 78.5344059}, {"type": "node", "id": 9665686857, "lat": 17.4881817, "lon": 78.5347838}, {"type": "node", "id": 9665686858, "lat": 17.4888071, "lon": 78.5349015}, {"type": "node", "id": 9665686859, "lat": 17.4906545, "lon": 78.5349465}, {"type": "node", "id": 9665686860, "lat": 17.4904755, "lon": 78.5346687}, {"type": "node", "id": 9665686861, "lat": 17.4901461, "lon": 78.5344435}, {"type": "node", "id": 9665686862, "lat": 17.4900029, "lon": 78.5343734}, {"type": "node", "id": 9665686863, "lat": 17.4898239, "lon": 78.5347763}, {"type": "node", "id": 9665686864, "lat": 17.4897618, "lon": 78.5350917}, {"type": "node", "id": 9665686865, "lat": 17.4903347, "lon": 78.5351993}, {"type": "node", "id": 9665686866, "lat": 17.490466, "lon": 78.5350791}, {"type": "node", "id": 9665686867, "lat": 17.4907118, "lon": 78.5350116}, {"type": "node", "id": 9665686868, "lat": 17.4913586, "lon": 78.5345361}, {"type": "node", "id": 9665686869, "lat": 17.4913849, "lon": 78.5344435}, {"type": "node", "id": 9665686870, "lat": 17.4911223, "lon": 78.5343609}, {"type": "node", "id": 9665686871, "lat": 17.4909839, "lon": 78.5347663}, {"type": "node", "id": 9665686872, "lat": 17.4909171, "lon": 78.534964}, {"type": "node", "id": 9665686873, "lat": 17.4910078, "lon": 78.534964}, {"type": "node", "id": 9665686874, "lat": 17.4909958, "lon": 78.5350491}, {"type": "node", "id": 9665686875, "lat": 17.4913157, "lon": 78.5348764}, {"type": "node", "id": 9665686876, "lat": 17.4912369, "lon": 78.5348239}, {"type": "node", "id": 9665686877, "lat": 17.4911309, "lon": 78.5337961}, {"type": "node", "id": 9665686878, "lat": 17.49078, "lon": 78.5336416}, {"type": "node", "id": 9665686879, "lat": 17.4906346, "lon": 78.5340054}, {"type": "node", "id": 9665686880, "lat": 17.4910107, "lon": 78.5341355}, {"type": "node", "id": 9665686881, "lat": 17.4919394, "lon": 78.5344913}, {"type": "node", "id": 9665686882, "lat": 17.4917959, "lon": 78.5346274}, {"type": "node", "id": 9665686883, "lat": 17.4915206, "lon": 78.5344648}, {"type": "node", "id": 9665686884, "lat": 17.4915846, "lon": 78.5343022}, {"type": "node", "id": 9732460760, "lat": 17.4846053, "lon": 78.5526357, "tags": {"amenity": "restaurant", "name": "Ram Ki Bandi"}}, {"type": "node", "id": 10988865689, "lat": 17.4924778, "lon": 78.536082, "tags": {"addr:district": "Medchal Malkajgiri", "addr:place": "Nirmal Nagr", "addr:state": "Telangana", "addr:street": "NIRMAL NAGAR", "addr:subdistrict": "Malkajgiri", "amenity": "health_post", "healthcare": "yes", "name": "SubCenter Nirmalnagar (Urban)", "operational_status": "operational", "operator:type": "government", "source": "OpenDataTelangana"}}, {"type": "node", "id": 11024035120, "lat": 17.4797627, "lon": 78.5532744, "tags": {"addr:district": "Medchal Malkajgiri", "addr:place": "A. S. Rao Nagar, Secunderabad, Telangana", "addr:state": "Telangana", "addr:street": "Swamik Nagar,", "amenity": "health_post", "healthcare": "yes", "name": "Huda Park at AS Rao Nagar (Basti Dawakhana)", "operational_status": "operational", "operator:type": "government", "source": "OpenDataTelangana"}}, {"type": "node", "id": 11024070602, "lat": 17.4803363, "lon": 78.5629012, "tags": {"addr:district": "Medchal Malkajgiri", "addr:place": "Gandhi Nagar", "addr:state": "Telangana", "addr:street": "Gandhi Nagar", "addr:subdistrict": "Keesara", "amenity": "health_post", "healthcare": "yes", "name": "SubCentre Gandhi Nagar (Urban)", "operational_status": "operational", "operator:type": "government", "source": "OpenDataTelangana"}}, {"type": "node", "id": 11024073584, "lat": 17.4829816, "lon": 78.5604791, "tags": {"addr:district": "Medchal Malkajgiri", "addr:place": "Kapra", "addr:state": "Telangana", "addr:street": "Sri Ram Nagar, CH, Kapra", "amenity": "health_post", "healthcare": "yes", "name": "Sai Ram Nagar, CH, Kapra (Basthi Dawakhana)", "operational_status": "operational", "operator:type": "government", "source": "OpenDataTelangana"}}, {"type": "node", "id": 11024108124, "lat": 17.4845805, "lon": 78.5677935, "tags": {"addr:district": "Medchal Malkajgiri", "addr:place": "Kukatpally, Hyderabad, Telangana", "addr:state": "Telangana", "addr:street": "Phase IV, K P H B Phase 4,", "amenity": "health_post", "healthcare": "yes", "name": "KPBH, 4th Phase CH, Kukatpally (Basti Dawakhana)", "operational_status": "operational", "operator:type": "government", "source": "OpenDataTelangana"}}, {"type": "node", "id": 11039692829, "lat": 17.5113638, "lon": 78.5598944, "tags": {"addr:district": "Medchal Malkajgiri", "addr:place": "Zphs Back Side", "addr:state": "Telangana", "addr:street": "BALAJI NAGAR BUS STOP", "addr:subdistrict": "Shamirpet", "amenity": "clinic", "healthcare": "clinic", "name": "Primary Health Centre Jawaharnagar", "operational_status": "operational", "operator:type": "government", "source": "OpenDataTelangana"}}, {"type": "node", "id": 11147497891, "lat": 17.4847906, "lon": 78.5609159, "tags": {"amenity": "toilets"}}, {"type": "node", "id": 11147530967, "lat": 17.4859772, "lon": 78.5525889, "tags": {"amenity": "toilets"}}, {"type": "node", "id": 11147615797, "lat": 17.4828356, "lon": 78.5519765, "tags": {"amenity": "toilets"}}, {"type": "node", "id": 11209446969, "lat": 17.5034555, "lon": 78.543643}, {"type": "node", "id": 11209446970, "lat": 17.5035388, "lon": 78.5435072}, {"type": "node", "id": 11209446971, "lat": 17.5038251, "lon": 78.5433868}, {"type": "node", "id": 11209446972, "lat": 17.5039036, "lon": 78.5433896}, {"type": "node", "id": 11209446973, "lat": 17.5039751, "lon": 78.5433152}, {"type": "node", "id": 11209446974, "lat": 17.5040662, "lon": 78.5433002}, {"type": "node", "id": 11209446975, "lat": 17.504258, "lon": 78.5433509}, {"type": "node", "id": 11209446976, "lat": 17.5042049, "lon": 78.5436399}, {"type": "node", "id": 11209446977, "lat": 17.504521, "lon": 78.5437408}, {"type": "node", "id": 11209446978, "lat": 17.5044154, "lon": 78.5441334}, {"type": "node", "id": 11209446979, "lat": 17.5043557, "lon": 78.5444339}, {"type": "node", "id": 11209446980, "lat": 17.5043067, "lon": 78.544714}, {"type": "node", "id": 11209446981, "lat": 17.5041865, "lon": 78.5447032}, {"type": "node", "id": 11209446982, "lat": 17.5039935, "lon": 78.5446212}, {"type": "node", "id": 11209446983, "lat": 17.5038482, "lon": 78.5445508}, {"type": "node", "id": 11209446984, "lat": 17.5036666, "lon": 78.5445517}, {"type": "node", "id": 11209446985, "lat": 17.5036652, "lon": 78.5444924}, {"type": "node", "id": 11209446986, "lat": 17.5035068, "lon": 78.5444744}, {"type": "node", "id": 11209446987, "lat": 17.5035141, "lon": 78.5443376}, {"type": "node", "id": 11209446988, "lat": 17.503491, "lon": 78.5442575}, {"type": "node", "id": 11209446989, "lat": 17.5033537, "lon": 78.5442556}, {"type": "node", "id": 11343121738, "lat": 17.4952063, "lon": 78.544394, "tags": {"addr:city": "Hyderabad", "addr:district": "Medchal-Malkajgiri", "addr:housenumber": "Plot 138", "addr:postcode": "500094", "addr:street": "H. T. Line Road", "air_conditioning": "yes", "amenity": "cafe", "cuisine": "pizza;chinese;burger", "delivery": "yes", "internet_access": "yes", "internet_access:fee": "customers", "name": "Jack & Jill", "opening_hours": "Mo-Su 10:00-21:00", "outdoor_seating": "yes", "phone": "+917989490170"}}, {"type": "way", "id": 246103772, "nodes": [2531833874, 2531833869, 2531833871, 2531833873, 2531833874], "tags": {"amenity": "cinema", "name": "Sarada Theatre"}}, {"type": "way", "id": 275253252, "nodes": [2798876582, 2798876585, 2798876586, 2798876584, 2798876582], "tags": {"amenity": "fuel", "name": "Neredmet Petrol Station"}}, {"type": "way", "id": 331629090, "nodes": [3387301337, 3387301338, 3387301339, 3387301340, 3387301337], "tags": {"amenity": "restaurant", "building": "yes", "delivery": "yes", "name": "swagath grand", "smoking": "no", "takeaway": "yes"}}, {"type": "way", "id": 331629144, "nodes": [3387296810, 3387296811, 3387296812, 3387296813, 3387296810], "tags": {"addr:district": "Hyderabad", "addr:full": "Plot No. A-2 & B-17, Rukminipuri Colony, Dr. A S Rao Nagar Main Road", "addr:postcode": "500062", "addr:state": "Telangana", "amenity": "hospital", "fax": "+91 9032920000; 040-27141079", "name": "Poulomi Hospital", "source": "OpenGovernmentData", "website": "https://poulomihospital.com"}}, {"type": "way", "id": 356012351, "nodes": [3614996601, 3614996623, 3614996481, 3614996460, 3614996601], "tags": {"amenity": "place_of_worship", "building": "yes", "religion": "christian"}}, {"type": "way", "id": 356019229, "nodes": [3615028025, 3615028024, 5491759466, 3615028014, 5491759465, 3615028009, 5491759464, 3615028000, 3615027994, 3615027991, 5491759462, 5491759463, 3615028025], "tags": {"amenity": "place_of_worship", "building": "yes", "name": "Vijaya Ganapathi Temple", "religion": "hindu"}}, {"type": "way", "id": 356157633, "nodes": [3616690937, 3616690974, 3616690963, 3616690930, 3616690937], "tags": {"addr:city": "Secunderabad", "addr:postcode": "500094", "addr:street": "Defence Colony, Sainikpuri", "amenity": "place_of_worship", "building": "yes", "name": "Ramalayam Temple", "religion": "hindu"}}, {"type": "way", "id": 356178819, "nodes": [3616809518, 3616809548, 3616809547, 3616809514, 3616809518], "tags": {"amenity": "place_of_worship", "building": "yes", "name": "Ramalayam", "religion": "hindu"}}, {"type": "way", "id": 356233372, "nodes": [3617122723, 3617122715, 3617122663, 3617122670, 3617122723], "tags": {"amenity": "bank", "building": "yes"}}, {"type": "way", "id": 358041796, "nodes": [3614615257, 5491752374, 5491752373, 5491752372, 3630750996, 3630751004, 5491752371, 3614631308, 3614631299, 3614615257], "tags": {"amenity": "place_of_worship", "building": "yes", "name": "Sai Baba Temple, Defence Colony", "religion": "hindu"}}, {"type": "way", "id": 388183460, "nodes": [3914033044, 3914033045, 3914033046, 3914033047, 3914033048, 3914033049, 3914033050, 3914033051, 3914033052, 3914033053, 3914033054, 3914033055, 3914033044], "tags": {"amenity": "community_centre", "building": "yes"}}, {"type": "way", "id": 568468273, "nodes": [5468970942, 5468970939, 5468970937, 5468970938, 5468970940, 5468970941, 5468970942], "tags": {"amenity": "restaurant", "building": "yes", "delivery": "yes", "name": "Amogha Tiffin Center", "takeaway": "yes"}}, {"type": "way", "id": 764682260, "nodes": [7143811391, 7143811390, 7143811389, 7143811388, 7143811387, 7143811386, 7143811385, 7143792184, 7143792183, 7143792182, 7143792181, 7143792180, 7143792179, 7143792178, 7143792177, 7143792176, 7143792175, 7143792174, 7143792173, 7143792172, 7143792171, 7143792170, 7143792169, 7143792168, 7143792167, 7143792166, 7143792165, 7143792164, 7143792163, 7143792162, 7143792161, 7143792160, 7143792159, 7143811391], "tags": {"amenity": "grave_yard"}}, {"type": "way", "id": 835332844, "nodes": [7797145617, 7797145621, 7797145618, 7797145619, 7797145620, 7797145617], "tags": {"amenity": "place_of_worship", "building": "yes", "denomination": "hindu", "name": "Hanuman Temple", "religion": "hindu"}}, {"type": "way", "id": 885381175, "nodes": [8233139516, 8233144017, 8233144018, 8233144019, 8233144020, 8233144021, 8233144022, 8233144023, 8233139516], "tags": {"amenity": "place_of_worship", "building": "yes", "religion": "hindu"}}, {"type": "way", "id": 1051807910, "nodes": [9665686855, 9665686856, 9665686857, 9665686858, 9665686855], "tags": {"amenity": "parking"}}, {"type": "way", "id": 1051807911, "nodes": [9665686859, 9665686860, 9665686861, 9665686862, 9665686863, 9665686864, 9665686865, 9665686866, 9665686867, 9665686859], "tags": {"amenity": "parking"}}, {"type": "way", "id": 1051807912, "nodes": [9665686868, 9665686869, 9665686870, 9665686871, 9665686872, 9665686873, 9665686874, 9665686875, 9665686876, 9665686868], "tags": {"amenity": "parking"}}, {"type": "way", "id": 1051807913, "nodes": [9665686877, 9665686878, 9665686879, 9665686880, 9665686877], "tags": {"amenity": "school", "name": "Auditorium"}}, {"type": "way", "id": 1051807914, "nodes": [9665686881, 9665686882, 9665686883, 9665686884, 9665686881], "tags": {"amenity": "school", "name": "Auditorium"}}, {"type": "way", "id": 1209946952, "nodes": [11209446969, 11209446970, 11209446971, 11209446972, 11209446973, 11209446974, 11209446975, 11209446976, 11209446977, 11209446978, 11209446979, 11209446980, 11209446981, 11209446982, 11209446983, 11209446984, 11209446985, 11209446986, 11209446987, 11209446988, 11209446989, 11209446969], "tags": {"amenity": "place_of_worship", "building": "yes", "layer": "-1", "name": "Mallana Temple Yapral", "religion": "hindu"}}]}