{"version": 0.6, "generator": "Overpass API 0.7.61.5 4133829e", "osm3s": {"timestamp_osm_base": "2024-02-21T13:05:00Z", "copyright": "The data included in this document is from www.openstreetmap.org. The data is made available under ODbL."}, "elements": [{"type": "node", "id": 645054629, "lat": 17.4712745, "lon": 78.4959058}, {"type": "node", "id": 645054630, "lat": 17.4709741, "lon": 78.4988536}, {"type": "node", "id": 645054634, "lat": 17.4722001, "lon": 78.4989631}, {"type": "node", "id": 645054637, "lat": 17.4735716, "lon": 78.4967432}, {"type": "node", "id": 649056266, "lat": 17.4541644, "lon": 78.4981718, "tags": {"amenity": "restaurant", "cuisine": "ice_cream", "name": "Icecream Club"}}, {"type": "node", "id": 649056291, "lat": 17.4850231, "lon": 78.4968743, "tags": {"amenity": "fuel", "description": "Indian Oil Petrol Station", "name": "M.B.R Fuel Point", "place": "kanajiguda"}}, {"type": "node", "id": 854940934, "lat": 17.4622124, "lon": 78.4909058, "tags": {"bus": "yes", "departures_board": "no", "highway": "bus_stop", "name": "Diamond Point", "public_transport": "platform", "shelter": "no"}}, {"type": "node", "id": 854940945, "lat": 17.4645715, "lon": 78.4835136, "tags": {"amenity": "atm", "cash_in": "no", "drive_through": "no", "operator": "State Bank"}}, {"type": "node", "id": 854940949, "lat": 17.46429, "lon": 78.4836316, "tags": {"amenity": "bank", "atm": "yes", "brand": "Kotak Mahindra Bank", "brand:wikidata": "Q2040404", "brand:wikipedia": "en:Kotak Mahindra Bank", "drive_through": "no", "name": "Kotak Mahindra Bank"}}, {"type": "node", "id": 854940986, "lat": 17.4864864, "lon": 78.4819776}, {"type": "node", "id": 854940987, "lat": 17.4857501, "lon": 78.4819847}, {"type": "node", "id": 854940995, "lat": 17.485592, "lon": 78.4836119}, {"type": "node", "id": 854940997, "lat": 17.4855637, "lon": 78.4836967}, {"type": "node", "id": 854940998, "lat": 17.4854939, "lon": 78.4841631}, {"type": "node", "id": 854941001, "lat": 17.4855085, "lon": 78.4846116}, {"type": "node", "id": 854941003, "lat": 17.4868655, "lon": 78.4845994}, {"type": "node", "id": 854941004, "lat": 17.4868808, "lon": 78.484549, "tags": {"barrier": "gate"}}, {"type": "node", "id": 854941006, "lat": 17.4869613, "lon": 78.4836182}, {"type": "node", "id": 854941008, "lat": 17.4870982, "lon": 78.4832749}, {"type": "node", "id": 854960921, "lat": 17.4623762, "lon": 78.4909487, "tags": {"amenity": "cafe", "internet_access": "no", "name": "Diamond Point Hotel", "outdoor_seating": "no"}}, {"type": "node", "id": 886369453, "lat": 17.4637168, "lon": 78.49157, "tags": {"amenity": "bank", "atm": "no", "brand": "SBI", "brand:wikidata": "Q1340361", "brand:wikipedia": "en:State Bank of India", "name": "State Bank of India", "short_name": "SBI"}}, {"type": "node", "id": 886369461, "lat": 17.4637987, "lon": 78.4916451, "tags": {"amenity": "bank", "atm": "yes", "brand": "ICICI Bank", "brand:wikidata": "Q1653258", "brand:wikipedia": "en:ICICI Bank", "name": "ICICI Bank", "name:en": "ICICI Bank", "short_name": "ICICI", "website": "https://www.icicibank.com"}}, {"type": "node", "id": 886393924, "lat": 17.4644966, "lon": 78.491992}, {"type": "node", "id": 886393925, "lat": 17.4645689, "lon": 78.490715}, {"type": "node", "id": 886393928, "lat": 17.4650422, "lon": 78.4907139}, {"type": "node", "id": 886393930, "lat": 17.465053, "lon": 78.492091}, {"type": "node", "id": 886401086, "lat": 17.4578019, "lon": 78.4843602, "tags": {"amenity": "place_of_worship", "religion": "muslim"}}, {"type": "node", "id": 886404629, "lat": 17.4567886, "lon": 78.4844353, "tags": {"amenity": "atm", "operator": "ICICI Bank"}}, {"type": "node", "id": 894004597, "lat": 17.4647222, "lon": 78.4832453, "tags": {"amenity": "pharmacy", "dispensing": "yes", "drive_through": "no", "healthcare": "pharmacy", "name": "Balaji Pharmacy"}}, {"type": "node", "id": 902311398, "lat": 17.4556983, "lon": 78.4984034, "tags": {"addr:street": "Vikrampuri", "amenity": "hospital", "emergency": "yes", "name": "Oxygen Hospital"}}, {"type": "node", "id": 928699174, "lat": 17.4550905, "lon": 78.4855131, "tags": {"amenity": "fuel", "brand": "Indian Oil", "brand:wikidata": "Q1289348", "brand:wikipedia": "en:Indian Oil Corporation", "operator": "Indian Oil Corporation"}}, {"type": "node", "id": 928699178, "lat": 17.455822, "lon": 78.4849223, "tags": {"amenity": "restaurant", "cuisine": "indian", "name": "Pakwaan"}}, {"type": "node", "id": 928700783, "lat": 17.4684922, "lon": 78.481253, "tags": {"amenity": "fuel", "brand": "Indian Oil", "brand:wikidata": "Q1289348", "brand:wikipedia": "en:Indian Oil Corporation", "name": "Indian Oil", "operator": "Indian Oil Corporation", "self_service": "no"}}, {"type": "node", "id": 1050786517, "lat": 17.4648512, "lon": 78.472566, "tags": {"amenity": "police", "name": "Bowenpally Police Station"}}, {"type": "node", "id": 1050786518, "lat": 17.4664325, "lon": 78.4733729, "tags": {"amenity": "pharmacy"}}, {"type": "node", "id": 1050786520, "lat": 17.4693193, "lon": 78.4778376, "tags": {"amenity": "hospital"}}, {"type": "node", "id": 1050786523, "lat": 17.4691965, "lon": 78.4783955, "tags": {"amenity": "fuel", "operator": "Hindustan Petroleum"}}, {"type": "node", "id": 1050786528, "lat": 17.4626876, "lon": 78.4626885, "tags": {"amenity": "bank", "atm": "yes", "brand": "SBI", "brand:wikidata": "Q1340361", "brand:wikipedia": "en:State Bank of India", "name": "State Bank of India", "name:te": "\u0c38\u0c4d\u0c1f\u0c47\u0c1f\u0c4d \u0c2c\u0c3e\u0c02\u0c15\u0c4d \u0c12\u0c2b\u0c4d \u0c07\u0c02\u0c21\u0c3f\u0c2f\u0c3e", "short_name": "SBI"}}, {"type": "node", "id": 1050786530, "lat": 17.4619098, "lon": 78.4694048, "tags": {"amenity": "fuel", "diesel": "yes", "name": "fuel", "operator": "Hindustan Petroleum"}}, {"type": "node", "id": 1050786533, "lat": 17.462401, "lon": 78.4714432, "tags": {"amenity": "place_of_worship", "religion": "muslim"}}, {"type": "node", "id": 1050787303, "lat": 17.4612957, "lon": 78.4669157}, {"type": "node", "id": 1050787304, "lat": 17.4598424, "lon": 78.4688254}, {"type": "node", "id": 1050787305, "lat": 17.4601085, "lon": 78.4693618}, {"type": "node", "id": 1050787307, "lat": 17.4614799, "lon": 78.4694906}, {"type": "node", "id": 1050787308, "lat": 17.461784, "lon": 78.4691078}, {"type": "node", "id": 1050803657, "lat": 17.4639733, "lon": 78.4750757, "tags": {"amenity": "place_of_worship", "name": "nallapochamma temple", "religion": "hindu"}}, {"type": "node", "id": 1050804128, "lat": 17.4653846, "lon": 78.4805318, "tags": {"amenity": "place_of_worship", "religion": "hindu"}}, {"type": "node", "id": 1050823708, "lat": 17.4617149, "lon": 78.4980263, "tags": {"amenity": "place_of_worship", "religion": "muslim"}}, {"type": "node", "id": 1050823712, "lat": 17.4605765, "lon": 78.4984986, "tags": {"amenity": "place_of_worship", "religion": "muslim"}}, {"type": "node", "id": 1050823722, "lat": 17.4621141, "lon": 78.4911598, "tags": {"amenity": "pharmacy", "dispensing": "yes", "drive_through": "no", "healthcare": "pharmacy", "name": "Sri Madhu Medicals"}}, {"type": "node", "id": 1050823729, "lat": 17.4623392, "lon": 78.4907843, "tags": {"air_conditioning": "yes", "amenity": "bank", "atm": "no", "brand": "Union Bank of India", "brand:wikidata": "Q2004078", "brand:wikipedia": "en:Union Bank of India", "drive_through": "no", "name": "Union Bank of India"}}, {"type": "node", "id": 1050823743, "lat": 17.4622983, "lon": 78.4922542, "tags": {"amenity": "clinic", "healthcare": "clinic"}}, {"type": "node", "id": 1050823750, "lat": 17.4619298, "lon": 78.4945931, "tags": {"amenity": "school", "name": "Butterflies"}}, {"type": "node", "id": 1050823758, "lat": 17.4615819, "lon": 78.4960307, "tags": {"amenity": "place_of_worship", "name": "Hanuman Temple", "name:te": "\u0c39\u0c28\u0c41\u0c2e\u0c3e\u0c28\u0c4d \u0c17\u0c41\u0c21\u0c3f", "religion": "hindu"}}, {"type": "node", "id": 1050823766, "lat": 17.4617866, "lon": 78.4968247, "tags": {"amenity": "school", "name": "Gunrock Enclave High School", "name:te": "\u0c17\u0c28\u0c4d \u0c30\u0c3e\u0c15\u0c4d \u0c0e\u0c28\u0c15\u0c4d\u0c32\u0c47\u0c35\u0c4d \u0c39\u0c48 \u0c38\u0c4d\u0c15\u0c42\u0c32\u0c4d"}}, {"type": "node", "id": 1050823780, "lat": 17.4623019, "lon": 78.4900832, "tags": {"amenity": "atm", "brand": "Axis Bank", "brand:wikidata": "Q2003549", "brand:wikipedia": "en:Axis Bank", "cash_in": "no", "currency:INR": "yes", "name": "Axis Bank", "operator": "Axis Bank", "operator:wikidata": "Q2003549", "operator:wikipedia": "en:Axis Bank"}}, {"type": "node", "id": 1050823784, "lat": 17.4627691, "lon": 78.4911169, "tags": {"amenity": "atm", "cash_in": "no", "currency:INR": "yes", "drive_through": "no", "name": "State Bank of India", "operator": "State Bank"}}, {"type": "node", "id": 1050823786, "lat": 17.4622503, "lon": 78.491334, "tags": {"amenity": "pharmacy", "dispensing": "yes", "drive_through": "no", "healthcare": "pharmacy", "name": "Sai Dutta Health Needs"}}, {"type": "node", "id": 1050823788, "lat": 17.4622742, "lon": 78.4919959, "tags": {"amenity": "pharmacy", "dispensing": "yes", "drive_through": "no", "healthcare": "pharmacy", "name": "Priya Homeo Pharmacy"}}, {"type": "node", "id": 1050827321, "lat": 17.4642489, "lon": 78.4841974, "tags": {"amenity": "pharmacy", "dispensing": "yes", "drive_through": "no", "healthcare": "pharmacy", "name": "Srinivasa Medicals"}}, {"type": "node", "id": 1050856274, "lat": 17.4634786, "lon": 78.4736466, "tags": {"amenity": "fuel", "diesel": "yes", "fuel:octane_100": "yes", "name": "HP fuel station", "operator": "Hindustan Petroleum", "source": "self"}}, {"type": "node", "id": 1066040554, "lat": 17.4608187, "lon": 78.4908297, "tags": {"amenity": "doctors", "healthcare": "doctor", "name": "Ortho Care Centre"}}, {"type": "node", "id": 1066040577, "lat": 17.4619332, "lon": 78.4910979, "tags": {"amenity": "school", "name": "Sunflower School"}}, {"type": "node", "id": 1066040581, "lat": 17.4632406, "lon": 78.4913979, "tags": {"amenity": "pharmacy", "dispensing": "yes", "healthcare": "pharmacy", "name": "Tirumala Medicals"}}, {"type": "node", "id": 1066056667, "lat": 17.4617954, "lon": 78.4895222}, {"type": "node", "id": 1066056668, "lat": 17.4612096, "lon": 78.4893333}, {"type": "node", "id": 1066056669, "lat": 17.4610491, "lon": 78.4900519}, {"type": "node", "id": 1066056671, "lat": 17.4611924, "lon": 78.490127}, {"type": "node", "id": 1066056672, "lat": 17.4610798, "lon": 78.4906741}, {"type": "node", "id": 1066056675, "lat": 17.4621237, "lon": 78.4901699}, {"type": "node", "id": 1142653958, "lat": 17.4634888, "lon": 78.4734427, "tags": {"addr:housename": "Vijaya Vardhan Complex", "addr:housenumber": "Plot no 1", "addr:postcode": "500011", "addr:street": "Krishna Reddy Nagar", "alt_name": "Gulf Restaurant", "amenity": "restaurant", "cuisine": "indian", "int_name": "Gulf Restaurant", "name": "Gulf Restaurant", "old_name": "Gulf Restaurant"}}, {"type": "node", "id": 1142705252, "lat": 17.4660997, "lon": 78.4727373, "tags": {"amenity": "post_office", "name": "Bowenpally Post office", "operator": "Indian postal service", "ref": "Bowenpally"}}, {"type": "node", "id": 1242158833, "lat": 17.4614538, "lon": 78.4743709, "tags": {"amenity": "atm", "operator": "Union Bank of India (UBI)"}}, {"type": "node", "id": 1242158840, "lat": 17.4627059, "lon": 78.475642, "tags": {"addr:city": "New bowenpally", "addr:postcode": "500011", "addr:street": "Seven temples road", "amenity": "place_of_worship", "name": "Seven temples", "religion": "hindu"}}, {"type": "node", "id": 1242158849, "lat": 17.463425, "lon": 78.473676, "tags": {"amenity": "atm", "check_date": "2021-06-13", "operator": "State Bank of India (SBI)"}}, {"type": "node", "id": 1280010581, "lat": 17.4642845, "lon": 78.4834609, "tags": {"amenity": "fast_food", "cuisine": "regional", "diet:vegetarian": "only", "drive_through": "no", "name": "Mahaveera Tiffin Centre"}}, {"type": "node", "id": 1280016556, "lat": 17.4654025, "lon": 78.4800275}, {"type": "node", "id": 1280016557, "lat": 17.4652899, "lon": 78.4799444}, {"type": "node", "id": 1280016558, "lat": 17.4654127, "lon": 78.479998}, {"type": "node", "id": 1280016559, "lat": 17.4654716, "lon": 78.4800651}, {"type": "node", "id": 1280016560, "lat": 17.4652208, "lon": 78.4800731}, {"type": "node", "id": 1280016561, "lat": 17.4654179, "lon": 78.4801858}, {"type": "node", "id": 1306268400, "lat": 17.4838565, "lon": 78.4982157, "tags": {"amenity": "atm", "brand": "Canara Bank", "brand:pa": "\u0a15\u0a47\u0a28\u0a30\u0a3e \u0a2c\u0a48\u0a02\u0a15", "brand:ur": "\u06a9\u06cc\u0646\u0631\u0627 \u0628\u06cc\u0646\u06a9", "brand:wikidata": "Q2003777", "brand:wikipedia": "en:Canara Bank", "brand:wikipedia:pa": "\u0a15\u0a47\u0a28\u0a30\u0a3e \u0a2c\u0a48\u0a02\u0a15", "name": "Canara Bank", "name:pa": "\u0a15\u0a47\u0a28\u0a30\u0a3e \u0a2c\u0a48\u0a02\u0a15", "name:ur": "\u06a9\u06cc\u0646\u0631\u0627 \u0628\u06cc\u0646\u06a9"}}, {"type": "node", "id": 1306268402, "lat": 17.483877, "lon": 78.4986341, "tags": {"amenity": "atm"}}, {"type": "node", "id": 1306288565, "lat": 17.4837927, "lon": 78.4982954, "tags": {"addr:street": "Kanajiguda", "amenity": "telephone"}}, {"type": "node", "id": 1306289182, "lat": 17.483744, "lon": 78.498359, "tags": {"addr:street": "Kanajiguda", "amenity": "pharmacy"}}, {"type": "node", "id": 1332279003, "lat": 17.4847615, "lon": 78.4972581, "tags": {"addr:housename": "Enjoy Cafe", "addr:postcode": "500015", "addr:street": "Kanajiguda", "amenity": "restaurant", "name": "Enjoy Cafe"}}, {"type": "node", "id": 1333758087, "lat": 17.4748797, "lon": 78.4987109, "tags": {"amenity": "place_of_worship", "name": "Temple", "religion": "hindu"}}, {"type": "node", "id": 1370770547, "lat": 17.4562165, "lon": 78.4626283, "tags": {"amenity": "post_office", "name": "Old Airport Post Office"}}, {"type": "node", "id": 1866942754, "lat": 17.4543463, "lon": 78.4892836, "tags": {"amenity": "veterinary"}}, {"type": "node", "id": 1866942817, "lat": 17.4572336, "lon": 78.4895573}, {"type": "node", "id": 1866942818, "lat": 17.4573601, "lon": 78.4890919}, {"type": "node", "id": 1866942819, "lat": 17.4581458, "lon": 78.4897216}, {"type": "node", "id": 1866942820, "lat": 17.4582547, "lon": 78.4893358}, {"type": "node", "id": 1866944231, "lat": 17.4570126, "lon": 78.4872314}, {"type": "node", "id": 1866944232, "lat": 17.45721, "lon": 78.4864407}, {"type": "node", "id": 1866944233, "lat": 17.4575683, "lon": 78.4874521}, {"type": "node", "id": 1866944234, "lat": 17.4574198, "lon": 78.4865239}, {"type": "node", "id": 1945541992, "lat": 17.4687132, "lon": 78.4770453}, {"type": "node", "id": 1945541994, "lat": 17.468561, "lon": 78.4769952}, {"type": "node", "id": 1945541999, "lat": 17.4686771, "lon": 78.477166}, {"type": "node", "id": 1945542000, "lat": 17.4685249, "lon": 78.4771158}, {"type": "node", "id": 1947410130, "lat": 17.4554659, "lon": 78.4982977, "tags": {"amenity": "pharmacy", "brand": "Apollo Pharmacy", "brand:wikidata": "Q62562612", "healthcare": "pharmacy", "name": "Apollo Pharmacy", "source": "survey"}}, {"type": "node", "id": 3010555002, "lat": 17.4564567, "lon": 78.4987648, "tags": {"amenity": "bank", "atm": "yes", "brand": "HDFC Bank", "brand:wikidata": "Q631047", "brand:wikipedia": "en:HDFC Bank", "name": "HDFC Bank", "short_name": "HDFC", "website": "https://www.hdfcbank.com"}}, {"type": "node", "id": 3010587655, "lat": 17.4621741, "lon": 78.4913844, "tags": {"amenity": "cafe", "cuisine": "regional", "name": "Mother India", "outdoor_seating": "no"}}, {"type": "node", "id": 3010602312, "lat": 17.462785, "lon": 78.4891198}, {"type": "node", "id": 3010602313, "lat": 17.4626479, "lon": 78.4890956}, {"type": "node", "id": 3010602314, "lat": 17.4626571, "lon": 78.4890587}, {"type": "node", "id": 3010602315, "lat": 17.4626102, "lon": 78.4890438}, {"type": "node", "id": 3010602316, "lat": 17.4625633, "lon": 78.4892092}, {"type": "node", "id": 3010602317, "lat": 17.4627637, "lon": 78.4892509}, {"type": "node", "id": 3148642943, "lat": 17.4614137, "lon": 78.4676138}, {"type": "node", "id": 3166299618, "lat": 17.469245, "lon": 78.4948947, "tags": {"amenity": "marketplace", "name": "Bowenpally Market Jn"}}, {"type": "node", "id": 3598267888, "lat": 17.4631717, "lon": 78.4904751, "tags": {"amenity": "hospital", "emergency": "no", "name": "Janapareddy Hospital"}}, {"type": "node", "id": 3598270753, "lat": 17.471568, "lon": 78.4957554}, {"type": "node", "id": 3614343336, "lat": 17.4664211, "lon": 78.4934222}, {"type": "node", "id": 3614343360, "lat": 17.4664535, "lon": 78.4932932}, {"type": "node", "id": 3614343435, "lat": 17.4667495, "lon": 78.4936124}, {"type": "node", "id": 3614343467, "lat": 17.4668503, "lon": 78.4936458}, {"type": "node", "id": 3614343488, "lat": 17.4669071, "lon": 78.4934171}, {"type": "node", "id": 3614774687, "lat": 17.4685801, "lon": 78.4895471}, {"type": "node", "id": 3614774696, "lat": 17.468604, "lon": 78.4894077}, {"type": "node", "id": 3614774839, "lat": 17.4688871, "lon": 78.4896576}, {"type": "node", "id": 3614774844, "lat": 17.4688958, "lon": 78.4896067}, {"type": "node", "id": 3614774894, "lat": 17.4690011, "lon": 78.4896791}, {"type": "node", "id": 3614774908, "lat": 17.4690338, "lon": 78.4894888}, {"type": "node", "id": 3615033895, "lat": 17.4654566, "lon": 78.4721669}, {"type": "node", "id": 3615033930, "lat": 17.46559, "lon": 78.4722307}, {"type": "node", "id": 3615033945, "lat": 17.4655656, "lon": 78.4719467}, {"type": "node", "id": 3615033959, "lat": 17.4656852, "lon": 78.4720095}, {"type": "node", "id": 3615034149, "lat": 17.4663447, "lon": 78.4711942}, {"type": "node", "id": 3615034165, "lat": 17.466378, "lon": 78.4711262}, {"type": "node", "id": 3615034686, "lat": 17.4668419, "lon": 78.4714618}, {"type": "node", "id": 3615034900, "lat": 17.4668752, "lon": 78.4713939}, {"type": "node", "id": 3616812760, "lat": 17.4612185, "lon": 78.4924248}, {"type": "node", "id": 3616812790, "lat": 17.4613027, "lon": 78.4923217}, {"type": "node", "id": 3616812823, "lat": 17.4613548, "lon": 78.492547}, {"type": "node", "id": 3616812873, "lat": 17.4614389, "lon": 78.492444}, {"type": "node", "id": 3616908445, "lat": 17.4628219, "lon": 78.4768151}, {"type": "node", "id": 3616908446, "lat": 17.4628262, "lon": 78.4766659}, {"type": "node", "id": 3616908454, "lat": 17.4628557, "lon": 78.4768811}, {"type": "node", "id": 3616908455, "lat": 17.4628576, "lon": 78.4768162}, {"type": "node", "id": 3616908465, "lat": 17.4629064, "lon": 78.4768827}, {"type": "node", "id": 3616908467, "lat": 17.4629083, "lon": 78.4768155}, {"type": "node", "id": 3616908475, "lat": 17.462939, "lon": 78.4768165}, {"type": "node", "id": 3616908476, "lat": 17.4629433, "lon": 78.4766697}, {"type": "node", "id": 3617235975, "lat": 17.4714219, "lon": 78.4757257}, {"type": "node", "id": 3617235980, "lat": 17.4714786, "lon": 78.4757566}, {"type": "node", "id": 3617235985, "lat": 17.4715249, "lon": 78.4755175}, {"type": "node", "id": 3617235990, "lat": 17.4715816, "lon": 78.4755484}, {"type": "node", "id": 3617414879, "lat": 17.459562, "lon": 78.4909261}, {"type": "node", "id": 3617414881, "lat": 17.4595739, "lon": 78.4907788}, {"type": "node", "id": 3617415308, "lat": 17.4597374, "lon": 78.4909418}, {"type": "node", "id": 3617415313, "lat": 17.4597493, "lon": 78.4907944}, {"type": "node", "id": 3617415505, "lat": 17.4605308, "lon": 78.4931817}, {"type": "node", "id": 3617415507, "lat": 17.4605916, "lon": 78.493077}, {"type": "node", "id": 3617415510, "lat": 17.4606736, "lon": 78.4932727}, {"type": "node", "id": 3617415514, "lat": 17.4607343, "lon": 78.4931679}, {"type": "node", "id": 3617415557, "lat": 17.4615678, "lon": 78.4913858}, {"type": "node", "id": 3617415559, "lat": 17.4616494, "lon": 78.4912881}, {"type": "node", "id": 3617415560, "lat": 17.4617554, "lon": 78.4915579}, {"type": "node", "id": 3617415561, "lat": 17.461837, "lon": 78.4914602}, {"type": "node", "id": 3618839259, "lat": 17.4566372, "lon": 78.4921113}, {"type": "node", "id": 3618839266, "lat": 17.4567099, "lon": 78.4917838}, {"type": "node", "id": 3618839273, "lat": 17.4567404, "lon": 78.4920571}, {"type": "node", "id": 3618839281, "lat": 17.4567791, "lon": 78.4918887}, {"type": "node", "id": 3618839288, "lat": 17.4568012, "lon": 78.4921501}, {"type": "node", "id": 3618839292, "lat": 17.4568173, "lon": 78.4920753}, {"type": "node", "id": 3618839514, "lat": 17.4569807, "lon": 78.4919345}, {"type": "node", "id": 3618839517, "lat": 17.4569983, "lon": 78.4918493}, {"type": "node", "id": 3618921749, "lat": 17.4598446, "lon": 78.475517}, {"type": "node", "id": 3618921752, "lat": 17.4599003, "lon": 78.4753353}, {"type": "node", "id": 3618921758, "lat": 17.4599787, "lon": 78.4755584}, {"type": "node", "id": 3618921765, "lat": 17.460065, "lon": 78.4754088}, {"type": "node", "id": 3619000062, "lat": 17.4887567, "lon": 78.498393}, {"type": "node", "id": 3619000067, "lat": 17.4887991, "lon": 78.4982913}, {"type": "node", "id": 3619000068, "lat": 17.4888084, "lon": 78.4984166}, {"type": "node", "id": 3619000075, "lat": 17.4888508, "lon": 78.4983149}, {"type": "node", "id": 3619015971, "lat": 17.4627558, "lon": 78.4742329}, {"type": "node", "id": 3619015989, "lat": 17.4628289, "lon": 78.4741479}, {"type": "node", "id": 3619015992, "lat": 17.4628605, "lon": 78.4743321}, {"type": "node", "id": 3619016015, "lat": 17.4629337, "lon": 78.4742471}, {"type": "node", "id": 3619028596, "lat": 17.4577351, "lon": 78.4933616}, {"type": "node", "id": 3619028599, "lat": 17.457753, "lon": 78.4931264}, {"type": "node", "id": 3619028602, "lat": 17.4578386, "lon": 78.4933702}, {"type": "node", "id": 3619028604, "lat": 17.4578564, "lon": 78.493135}, {"type": "node", "id": 3619028713, "lat": 17.4603555, "lon": 78.4910528}, {"type": "node", "id": 3619028716, "lat": 17.460415, "lon": 78.4907409}, {"type": "node", "id": 3619028730, "lat": 17.4605141, "lon": 78.4910861}, {"type": "node", "id": 3619028734, "lat": 17.4605736, "lon": 78.4907742}, {"type": "node", "id": 3624694434, "lat": 17.4554642, "lon": 78.4829116}, {"type": "node", "id": 3624694435, "lat": 17.4554655, "lon": 78.4828256}, {"type": "node", "id": 3624694438, "lat": 17.4554706, "lon": 78.4829127}, {"type": "node", "id": 3624694442, "lat": 17.4554867, "lon": 78.4830002}, {"type": "node", "id": 3624694444, "lat": 17.455488, "lon": 78.482913}, {"type": "node", "id": 3624694461, "lat": 17.4555641, "lon": 78.4828434}, {"type": "node", "id": 3624694465, "lat": 17.4555724, "lon": 78.4829936}, {"type": "node", "id": 3652375258, "lat": 17.4603828, "lon": 78.4985692}, {"type": "node", "id": 3652375262, "lat": 17.4604008, "lon": 78.4985206}, {"type": "node", "id": 3652375263, "lat": 17.4604062, "lon": 78.4985858}, {"type": "node", "id": 3652375265, "lat": 17.4604111, "lon": 78.4986113}, {"type": "node", "id": 3652375266, "lat": 17.4604147, "lon": 78.4985233}, {"type": "node", "id": 3652375267, "lat": 17.460426, "lon": 78.498627}, {"type": "node", "id": 3652375271, "lat": 17.46044, "lon": 78.4986788}, {"type": "node", "id": 3652375275, "lat": 17.4604807, "lon": 78.4984272}, {"type": "node", "id": 3652375283, "lat": 17.4605478, "lon": 78.4986823}, {"type": "node", "id": 3652375285, "lat": 17.4605692, "lon": 78.4986309}, {"type": "node", "id": 3652375290, "lat": 17.4606033, "lon": 78.4985883}, {"type": "node", "id": 3652375294, "lat": 17.460614, "lon": 78.4985277}, {"type": "node", "id": 3652375302, "lat": 17.4606518, "lon": 78.4985306}, {"type": "node", "id": 3652375304, "lat": 17.4606596, "lon": 78.4984364}, {"type": "node", "id": 3653673971, "lat": 17.4668247, "lon": 78.4939188}, {"type": "node", "id": 3653673972, "lat": 17.466846, "lon": 78.4938779}, {"type": "node", "id": 3653673973, "lat": 17.4669355, "lon": 78.4940164}, {"type": "node", "id": 3653673974, "lat": 17.4669772, "lon": 78.4939502}, {"type": "node", "id": 3655195479, "lat": 17.4615499, "lon": 78.4968415}, {"type": "node", "id": 3655195480, "lat": 17.4615543, "lon": 78.4967815}, {"type": "node", "id": 3655195507, "lat": 17.4616906, "lon": 78.4968528}, {"type": "node", "id": 3655195510, "lat": 17.461695, "lon": 78.4967928}, {"type": "node", "id": 3655195764, "lat": 17.4640004, "lon": 78.491744}, {"type": "node", "id": 3655195768, "lat": 17.4640161, "lon": 78.4916128}, {"type": "node", "id": 3655195794, "lat": 17.464172, "lon": 78.4917776}, {"type": "node", "id": 3655195800, "lat": 17.4641929, "lon": 78.4916246}, {"type": "node", "id": 3658643016, "lat": 17.4571648, "lon": 78.4955781}, {"type": "node", "id": 3658643017, "lat": 17.4572739, "lon": 78.4955214}, {"type": "node", "id": 3658643018, "lat": 17.4572646, "lon": 78.4957888}, {"type": "node", "id": 3658643125, "lat": 17.4573737, "lon": 78.495732}, {"type": "node", "id": 3662779513, "lat": 17.456691, "lon": 78.4951964}, {"type": "node", "id": 3662779514, "lat": 17.4566799, "lon": 78.4954442}, {"type": "node", "id": 3662779515, "lat": 17.4563976, "lon": 78.4954302}, {"type": "node", "id": 3662779516, "lat": 17.4564088, "lon": 78.4951824}, {"type": "node", "id": 3774755390, "lat": 17.4644913, "lon": 78.4835988, "tags": {"amenity": "bar", "outdoor_seating": "no"}}, {"type": "node", "id": 3862449365, "lat": 17.4644816, "lon": 78.4844578, "tags": {"amenity": "dentist", "healthcare": "dentist", "name": "Chaitanya Dental"}}, {"type": "node", "id": 4301825602, "lat": 17.4643028, "lon": 78.4845441, "tags": {"amenity": "atm", "brand": "South Indian Bank", "brand:wikidata": "Q2044973", "cash_in": "no", "drive_through": "no", "name": "South Indian Bank", "operator": "South Indian Bank", "operator:wikidata": "Q2044973"}}, {"type": "node", "id": 4550299489, "lat": 17.4627894, "lon": 78.4713515, "tags": {"addr:city": "secunderabad", "addr:housenumber": "pensionlane", "addr:postcode": "500011", "addr:street": "Bowenpally", "amenity": "place_of_worship", "denomination": "sunni", "name": "khadar jhanda", "religion": "muslim", "service_times": "24/7"}}, {"type": "node", "id": 4695120289, "lat": 17.4591464, "lon": 78.494254, "tags": {"amenity": "community_centre", "internet_access": "wlan", "name": "Gunrock Enclave Community Center", "name:en": "Gunrock Enclave Community Center"}}, {"type": "node", "id": 5190765165, "lat": 17.4767199, "lon": 78.4786271}, {"type": "node", "id": 5190765166, "lat": 17.4766993, "lon": 78.4791201}, {"type": "node", "id": 5190765167, "lat": 17.4764025, "lon": 78.4790615}, {"type": "node", "id": 5190765168, "lat": 17.4764495, "lon": 78.4788736}, {"type": "node", "id": 5190765169, "lat": 17.476523, "lon": 78.4787319}, {"type": "node", "id": 5190765170, "lat": 17.4765612, "lon": 78.4785901}, {"type": "node", "id": 5190765171, "lat": 17.4755562, "lon": 78.4856905}, {"type": "node", "id": 5190765172, "lat": 17.4755345, "lon": 78.4857455}, {"type": "node", "id": 5190765173, "lat": 17.4752962, "lon": 78.4856528}, {"type": "node", "id": 5190765174, "lat": 17.4753212, "lon": 78.4856035}, {"type": "node", "id": 5220057980, "lat": 17.4566207, "lon": 78.4839582, "tags": {"amenity": "bank", "atm": "yes", "name": "ICICI Bank"}}, {"type": "node", "id": 5413546184, "lat": 17.461186, "lon": 78.4758249, "tags": {"amenity": "bank", "brand": "Andhra Bank", "brand:wikidata": "Q2003476", "brand:wikipedia": "en:Andhra Bank", "name": "Andhra Bank"}}, {"type": "node", "id": 5892276108, "lat": 17.4645869, "lon": 78.4833491, "tags": {"amenity": "pharmacy", "brand": "MedPlus", "brand:wikidata": "Q65684234", "brand:wikipedia": "en:MedPlus", "dispensing": "yes", "drive_through": "no", "healthcare": "pharmacy", "name": "MedPlus"}}, {"type": "node", "id": 5892276114, "lat": 17.4643612, "lon": 78.4838834, "tags": {"amenity": "dentist", "healthcare": "dentist", "healthcare:speciality": "orthodontics", "name": "Shubham Dental Clinic"}}, {"type": "node", "id": 5892276119, "lat": 17.4644473, "lon": 78.4834084, "tags": {"amenity": "fast_food", "cuisine": "regional", "name": "Chat"}}, {"type": "node", "id": 5892276120, "lat": 17.4645503, "lon": 78.4833679, "tags": {"amenity": "fast_food", "cuisine": "regional", "drive_through": "no"}}, {"type": "node", "id": 5892276125, "lat": 17.4655451, "lon": 78.4930072, "tags": {"amenity": "bank", "atm": "yes", "drive_through": "no", "name": "Axis Bank"}}, {"type": "node", "id": 5892276126, "lat": 17.4666031, "lon": 78.4937034, "tags": {"amenity": "pharmacy", "dispensing": "yes", "drive_through": "no", "healthcare": "pharmacy", "name": "Apollo Pharmacy"}}, {"type": "node", "id": 5892276127, "lat": 17.466772, "lon": 78.4938107, "tags": {"amenity": "ice_cream", "delivery": "yes", "name": "Ibaco", "outdoor_seating": "no", "takeaway": "yes"}}, {"type": "node", "id": 5892276130, "lat": 17.4690708, "lon": 78.4947653, "tags": {"amenity": "fast_food", "brand": "Subway", "brand:pa": "\u0a38\u0a2c\u0a35\u0a47\u0a05", "brand:ur": "\u0633\u0628 \u0648\u06d2", "brand:wikidata": "Q244457", "brand:wikipedia": "en:Subway (restaurant)", "delivery": "yes", "drive_through": "no", "name": "Subway", "name:pa": "\u0a38\u0a2c\u0a35\u0a47\u0a05", "name:ur": "\u0633\u0628 \u0648\u06d2", "outdoor_seating": "no", "smoking": "no"}}, {"type": "node", "id": 6268166118, "lat": 17.4843202, "lon": 78.497413, "tags": {"amenity": "place_of_worship", "name": "NagaDevatha Temple", "religion": "hindu"}}, {"type": "node", "id": 6484735190, "lat": 17.4691656, "lon": 78.4773293, "tags": {"addr:district": "Hyderabad", "addr:full": "1-10-314/P, Opposite Mallareddy Gardens, Thokatta Village, Bowenpally", "addr:postcode": "500011", "addr:state": "Telangana", "amenity": "hospital", "email": "doctor@dristenetralaya.com", "name": "Dristi Netralaya Hospital", "phone": "040-27950101", "source": "OpenGovernmentData", "website": "www.dristenetralaya.com"}}, {"type": "node", "id": 6485763799, "lat": 17.4767414, "lon": 78.4798486, "tags": {"addr:district": "Hyderabad", "addr:full": "8-4-123, Near Old Bowenpally Bus Stop", "addr:postcode": "500011", "addr:state": "Telangana", "amenity": "hospital", "name": "Vinciti Hospital", "source": "OpenGovernmentData"}}, {"type": "node", "id": 6486037407, "lat": 17.4595888, "lon": 78.4780213, "tags": {"addr:district": "Hyderabad", "addr:full": "Plot No. 3,Ganesh Nagar Colony,Opposite Smt. Sarojini Pulla Reddy House, Hasmathpet Road, New Bowenpally", "addr:postcode": "500011", "addr:state": "Telangana", "amenity": "hospital", "fax": "040 27957958", "name": "Cure Hospitals", "source": "OpenGovernmentData"}}, {"type": "node", "id": 6486149790, "lat": 17.4570199, "lon": 78.4784049, "tags": {"addr:district": "Hyderabad", "addr:full": "53, Bhima Shankar Complex Malani Housing Colony Thokatta", "addr:postcode": "500009", "addr:state": "Telangana", "amenity": "hospital", "name": "Raghavendra Orthopaedic and Diagnostic Centre", "source": "OpenGovernmentData"}}, {"type": "node", "id": 6493547008, "lat": 17.4593055, "lon": 78.4785913, "tags": {"addr:district": "Hyderabad", "addr:full": "13A & B, Anand Nagar Colony, Near Chinna Thokatta Bridge, New Bowenpally", "addr:postcode": "500011", "addr:state": "Telangana", "amenity": "hospital", "email": "drsguduru@hotmail.com", "name": "Chandana Hospitals", "phone": "9848027177", "source": "OpenGovernmentData", "website": "www.drsureshchandrahari.com"}}, {"type": "node", "id": 6503106727, "lat": 17.4606974, "lon": 78.4904668, "tags": {"addr:district": "Hyderabad", "addr:full": "26/A, Sikh Road, Sikh Village, Near Diamond Point, Secunderabad", "addr:postcode": "500009", "addr:state": "Telangana", "amenity": "hospital", "contact:mobile": "9246276141", "email": "admin@janapareddy.co.in", "fax": "040 40147476", "health_facility:type": "Operation Theatre;Neonatal Intensive Care Unite;Neonatal Transport Team;Pediatric Intensive Care Unite;Emergency Care;In Patient Rooms;Lab;Pharmacy;Equipment and Facilities", "healthcare:speciality": "multi specialty", "medical_system": "Allopathic", "name": "Bloom Hospitals - Unit of Janapareddy Hospitals.", "operator:type": "private", "phone": "040 40147474;040 401474745;040 401474746", "source": "OpenGovernmentData", "website": "http://www.janapareddy.co.in"}}, {"type": "node", "id": 6503384572, "lat": 17.4660729, "lon": 78.4832785, "tags": {"addr:district": "Hyderabad", "addr:full": "Plot No-2, H No-2-12-149, Breg Syed Road,Bapuji Nagar Bowenpally, Cantonment", "addr:postcode": "500009", "addr:state": "Telangana", "amenity": "hospital", "name": "Lifespring Hospital", "source": "OpenGovernmentData"}}, {"type": "node", "id": 6503410509, "lat": 17.4713934, "lon": 78.4849957, "tags": {"addr:district": "Hyderabad", "addr:full": "7-A, Panchasheela Enclave, near ICRISAT Colony Phase 2, Hashmathpet", "addr:postcode": "500009", "addr:state": "Telangana", "amenity": "hospital", "name": "SKM Multi Speciality Hospital", "source": "OpenGovernmentData"}}, {"type": "node", "id": 6504107685, "lat": 17.467585, "lon": 78.4819903, "tags": {"addr:district": "Hyderabad", "addr:full": "Plot No. 129/1, Viceroy Residency, Besides Ashok Gardens, Bapuji Nagar, Main Road, Bowenpalli", "addr:postcode": "500011", "addr:state": "Telangana", "amenity": "hospital", "name": "Pavithra Hospital", "source": "OpenGovernmentData"}}, {"type": "node", "id": 6505307085, "lat": 17.4759595, "lon": 78.4837787, "tags": {"addr:district": "Hyderabad", "addr:full": "Plot No 8, Main Road, Old Bowenpally", "addr:postcode": "500011", "addr:state": "Telangana", "amenity": "hospital", "name": "Ramya Nursing Home", "source": "OpenGovernmentData"}}, {"type": "node", "id": 6548796448, "lat": 17.469289, "lon": 78.4862155, "tags": {"addr:city": "Hyderabad", "addr:full": "Plot No:. 27 & 28, Hasmathpet Road, Bowenpally Beside Reliance Fresh Super Market", "addr:postcode": "500011", "addr:state": "Telangana", "amenity": "hospital", "contact:phone": "04042306565;64595609", "name": "KRUTI HOSPITAL ADVANCED EYE & DENTAL CARE", "operator": "Private", "source": "OpenGovernmentData"}}, {"type": "node", "id": 6549215300, "lat": 17.45558, "lon": 78.4981728, "tags": {"addr:city": "Secunderabad", "addr:full": "Plot No: 90 P&T COLONY VIKRAMPURI KARKHANA", "addr:postcode": "500009", "addr:state": "Telangana", "amenity": "hospital", "contact:phone": "4027720777", "name": "NAVJEEVAN HOSPITAL", "operator": "Private", "source": "OpenGovernmentData"}}, {"type": "node", "id": 6549219227, "lat": 17.4691425, "lon": 78.4777518, "tags": {"addr:city": "Hyderabad", "addr:full": "Plot No:.3, BAPUJI NAGAR, Opp: SAROJINI PULLA REDDY HOUSE, BOWENPALLY", "addr:postcode": "500011", "addr:state": "Telangana", "amenity": "hospital", "name": "KS MULTISPECIALTY HOSPITAL", "operator": "Private", "source": "OpenGovernmentData"}}, {"type": "node", "id": 6549381430, "lat": 17.4566496, "lon": 78.4786342, "tags": {"addr:city": "Secunderabad", "addr:full": "H.No: 53, MALANI HOUSING COLONY, NEW NEW BOWENPALLY", "addr:postcode": "500009", "addr:state": "Telangana", "amenity": "hospital", "contact:phone": "27952288;27952244", "name": "SAI GURU RAGHAVENDRA ORTHOPEADIC & MULTISPECIALITY", "operator": "Private", "source": "OpenGovernmentData"}}, {"type": "node", "id": 6583339526, "lat": 17.4652084, "lon": 78.4729998, "tags": {"amenity": "place_of_worship", "denomination": "sunni", "name": "Baba shah miskeen shah quadri dargah", "religion": "muslim"}}, {"type": "node", "id": 6656722836, "lat": 17.473415, "lon": 78.4872297, "tags": {"addr:district": "Medchal Malkajgiri", "addr:place": "Bala Nagar", "addr:state": "Telangana", "addr:street": "Harjanbasthi", "addr:subdistrict": "Balanagar", "amenity": "health_post", "healthcare": "yes", "name": "SubCentre, Hasmathpet (Urban)", "operational_status": "operational", "operator:type": "government", "source": "OpenDataTelangana"}}, {"type": "node", "id": 6779584054, "lat": 17.4800773, "lon": 78.4736715, "tags": {"amenity": "conference_centre", "internet_access": "no", "name": "M M R  Gardens", "operator": "private"}}, {"type": "node", "id": 6811749013, "lat": 17.4621913, "lon": 78.4944027, "tags": {"addr:district": "Hyderabad", "addr:full": "Transport Road, Beside Balaji Enclave, Karkhana, Secunderabad", "addr:postcode": "500009", "addr:state": "Telangana", "amenity": "clinic", "contact:mobile": "9246156010", "healthcare": "clinic", "name": "Archana Clinic", "source": "OpenGovernmentData"}}, {"type": "node", "id": 6811749022, "lat": 17.4663588, "lon": 78.4828594, "tags": {"addr:district": "Hyderabad", "addr:full": "Bapuji Nagar, Bowenpally, Secunderabad", "addr:postcode": "500011", "addr:state": "Telangana", "amenity": "clinic", "name": "Sneha Obesity Clinic", "source": "OpenGovernmentData"}}, {"type": "node", "id": 6811749032, "lat": 17.4761454, "lon": 78.48185, "tags": {"addr:district": "Hyderabad", "addr:full": "Sai Krishna Colony, beside SBI, Old Bowenpally, Secunderabad", "addr:postcode": "500011", "addr:state": "Telangana", "amenity": "clinic", "contact:mobile": "8121350035", "name": "Kalpataru Homoeopathy Clinic, Bowenpally,", "source": "OpenGovernmentData"}}, {"type": "node", "id": 6822126547, "lat": 17.466269, "lon": 78.483225, "tags": {"amenity": "school", "name": "Gowtham Model School", "source": "survey"}}, {"type": "node", "id": 6822126573, "lat": 17.4690152, "lon": 78.4785715, "tags": {"amenity": "fuel", "name": "HP Petrol Pump", "source": "survey"}}, {"type": "node", "id": 6822126613, "lat": 17.476164, "lon": 78.481723, "tags": {"amenity": "bank", "name": "State Bank of India", "source": "survey"}}, {"type": "node", "id": 6850830247, "lat": 17.45539, "lon": 78.4980702, "tags": {"amenity": "pharmacy", "name": "Health care Medical and General store", "source": "survey"}}, {"type": "node", "id": 6850830329, "lat": 17.46879, "lon": 78.478935, "tags": {"amenity": "bank", "name": "Indian Overseas Bank", "source": "survey"}}, {"type": "node", "id": 6935221548, "lat": 17.4821708, "lon": 78.4786941, "tags": {"addr:street": "Military Dairy Farm Road", "amenity": "pharmacy", "brand": "MedPlus", "brand:wikidata": "Q65684234", "brand:wikipedia": "en:MedPlus", "dispensing": "yes", "healthcare": "pharmacy", "name": "MedPlus"}}, {"type": "node", "id": 6935221549, "lat": 17.4823299, "lon": 78.480409, "tags": {"amenity": "school", "name": "SRDG SCHOOL"}}, {"type": "node", "id": 6935221553, "lat": 17.4797317, "lon": 78.4807073, "tags": {"amenity": "school", "name": "EURO PLAY SCHOOL"}}, {"type": "node", "id": 6935406168, "lat": 17.4794135, "lon": 78.4814359, "tags": {"addr:city": "SECUNDERABAD", "addr:street": "MALIKARJUNA COLONY", "amenity": "place_of_worship", "name": "POCHAMA TEMPLE", "religion": "hindu"}}, {"type": "node", "id": 6935422631, "lat": 17.4795487, "lon": 78.4785507, "tags": {"addr:city": "SECUNDERABAD", "addr:street": "VALLAB NAGAR", "amenity": "place_of_worship", "name": "KALIKA DEVI TEMPLE", "religion": "hindu"}}, {"type": "node", "id": 6935457683, "lat": 17.4800874, "lon": 78.4754095, "tags": {"addr:city": "SECUNDERABAD", "addr:street": "RR NAGAR", "amenity": "cafe", "name": "CELEBRATIONS"}}, {"type": "node", "id": 6935469225, "lat": 17.4796444, "lon": 78.4806952, "tags": {"addr:city": "SECUNDERABAD", "addr:street": "MALLIKARJUNA COLONY", "amenity": "cafe", "cuisine": "sandwich;burger", "name": "BAKE 2 BAKE"}}, {"type": "node", "id": 6935469529, "lat": 17.4779299, "lon": 78.4812086, "tags": {"addr:city": "SECUNDERABAD", "addr:street": "MALLIKARJUNA COLONY", "amenity": "bank", "brand": "State Bank of India", "brand:wikidata": "Q1340361", "brand:wikipedia": "en:State Bank of India", "name": "State Bank of India"}}, {"type": "node", "id": 6935540196, "lat": 17.4787553, "lon": 78.4816433, "tags": {"addr:city": "SECUNDERABAD", "addr:street": "MALLIKARJUNA COLONY", "amenity": "hospital", "healthcare": "hospital", "name": "SHEKAR HOSPITAL"}}, {"type": "node", "id": 6935569216, "lat": 17.4822713, "lon": 78.4806445, "tags": {"addr:city": "SECUNDERABAD", "addr:street": "RR NAGAR", "amenity": "pharmacy", "brand": "Apollo Pharmacy", "brand:wikidata": "Q62562612", "dispensing": "yes", "healthcare": "pharmacy", "name": "Apollo Pharmacy"}}, {"type": "node", "id": 7052183544, "lat": 17.463575, "lon": 78.4836747, "tags": {"amenity": "atm", "cash_in": "no", "currency:INR": "yes", "drive_through": "no", "operator": "ICICI Bank"}}, {"type": "node", "id": 7174059841, "lat": 17.4639479, "lon": 78.4835733, "tags": {"amenity": "fast_food", "cuisine": "regional", "drive_through": "no", "name": "Lassi Point"}}, {"type": "node", "id": 7182020241, "lat": 17.4718984, "lon": 78.4924051, "tags": {"amenity": "motorcycle_parking", "capacity": "1", "covered": "no"}}, {"type": "node", "id": 7321350333, "lat": 17.4651321, "lon": 78.4730714, "tags": {"addr:city": "New bowenpally", "addr:postcode": "500011", "amenity": "place_of_worship", "name": "Majid-E-Miskeen shah quadri", "religion": "muslim"}}, {"type": "node", "id": 7321373467, "lat": 17.4624834, "lon": 78.4745905, "tags": {"addr:postcode": "500011", "amenity": "fast_food", "cuisine": "fast_food", "name": "Y Royal"}}, {"type": "node", "id": 7321390329, "lat": 17.4628953, "lon": 78.4753554, "tags": {"amenity": "atm", "currency:INR": "yes", "operator": "ICICI Bank"}}, {"type": "node", "id": 7321390330, "lat": 17.462945, "lon": 78.4753384, "tags": {"amenity": "atm", "currency:INR": "yes", "operator": "Axis Bank"}}, {"type": "node", "id": 7611608250, "lat": 17.4715101, "lon": 78.4756218, "tags": {"amenity": "restaurant"}}, {"type": "node", "id": 7944684117, "lat": 17.4865453, "lon": 78.4826307}, {"type": "node", "id": 7944684118, "lat": 17.4864983, "lon": 78.4821247}, {"type": "node", "id": 7944684119, "lat": 17.4865009, "lon": 78.4825652}, {"type": "node", "id": 7944684120, "lat": 17.4869201, "lon": 78.4841703}, {"type": "node", "id": 7944684121, "lat": 17.4869334, "lon": 78.4837735}, {"type": "node", "id": 7944684122, "lat": 17.4868487, "lon": 78.4827903}, {"type": "node", "id": 7944684123, "lat": 17.4858142, "lon": 78.4835814}, {"type": "node", "id": 7969238161, "lat": 17.4709623, "lon": 78.4782064, "tags": {"amenity": "school", "name": "CMR International School"}}, {"type": "node", "id": 8107898995, "lat": 17.4623514, "lon": 78.4712232, "tags": {"addr:city": "secunderabad", "addr:housenumber": "Beside abu bakar masjid", "addr:postcode": "500011", "addr:street": "new bowenpally main road", "air_conditioning": "yes", "amenity": "restaurant", "cuisine": "chicken;kebab;indian;seafood", "delivery": "yes", "diet:non-vegetarian": "yes", "diet:vegetarian": "yes", "name": "HOTEL PM GRAND", "opening_hours": "Mo-Su 05:00-24:00", "phone": "+918008059786"}}, {"type": "node", "id": 8107927746, "lat": 17.4623573, "lon": 78.4711054, "tags": {"addr:city": "secunderabad", "addr:housenumber": "beside abu bakar masjid", "addr:postcode": "500011", "addr:street": "new bowenpally main road", "amenity": "restaurant", "cuisine": "indian;kebab;chicken", "diet:halal": "yes", "diet:meat": "yes", "diet:non-vegetarian": "yes", "level": "1", "name": "shabnam hotel", "opening_hours": "Mo-Su 10:00-22:00", "phone": "+918686324252"}}, {"type": "node", "id": 8111036420, "lat": 17.4586049, "lon": 78.4889511}, {"type": "node", "id": 8111036421, "lat": 17.4585934, "lon": 78.4889842}, {"type": "node", "id": 8111036422, "lat": 17.4585633, "lon": 78.4889711}, {"type": "node", "id": 8111036423, "lat": 17.4585736, "lon": 78.4889378}, {"type": "node", "id": 8113744331, "lat": 17.455153, "lon": 78.4855107}, {"type": "node", "id": 8113744332, "lat": 17.4550218, "lon": 78.4855586}, {"type": "node", "id": 8113744333, "lat": 17.4550446, "lon": 78.4856268}, {"type": "node", "id": 8113744334, "lat": 17.4551494, "lon": 78.4856734}, {"type": "node", "id": 8113744335, "lat": 17.4551939, "lon": 78.485657}, {"type": "node", "id": 8113744336, "lat": 17.4551674, "lon": 78.4855624}, {"type": "node", "id": 8113744337, "lat": 17.4551187, "lon": 78.4856009}, {"type": "node", "id": 8113744338, "lat": 17.4545838, "lon": 78.4857161}, {"type": "node", "id": 8113744339, "lat": 17.4545939, "lon": 78.4857665}, {"type": "node", "id": 8113744340, "lat": 17.4545167, "lon": 78.4857912}, {"type": "node", "id": 8113744341, "lat": 17.4545033, "lon": 78.4857384}, {"type": "node", "id": 8113802710, "lat": 17.454299, "lon": 78.4914448, "tags": {"amenity": "place_of_worship", "name": "Shivalaym", "religion": "hindu"}}, {"type": "node", "id": 8113802711, "lat": 17.4565399, "lon": 78.493041}, {"type": "node", "id": 8113802712, "lat": 17.4565423, "lon": 78.4931099}, {"type": "node", "id": 8113802713, "lat": 17.4563701, "lon": 78.4931151}, {"type": "node", "id": 8113802714, "lat": 17.4563743, "lon": 78.4930375}, {"type": "node", "id": 8113802715, "lat": 17.4578224, "lon": 78.4910436}, {"type": "node", "id": 8113802716, "lat": 17.4578094, "lon": 78.4911416}, {"type": "node", "id": 8113829917, "lat": 17.4576931, "lon": 78.4911353}, {"type": "node", "id": 8113829918, "lat": 17.4576981, "lon": 78.4910259}, {"type": "node", "id": 8233832520, "lat": 17.4606011, "lon": 78.4989953, "tags": {"amenity": "place_of_worship"}}, {"type": "node", "id": 8386167910, "lat": 17.4540334, "lon": 78.4987403, "tags": {"amenity": "restaurant", "cuisine": "chinese", "name": "Nanking CR"}}, {"type": "node", "id": 8386555631, "lat": 17.456534, "lon": 78.4988208, "tags": {"amenity": "restaurant", "cuisine": "chinese", "name": "Big Noodle"}}, {"type": "node", "id": 8386683581, "lat": 17.4594847, "lon": 78.4765974}, {"type": "node", "id": 8386683582, "lat": 17.4594394, "lon": 78.4766965}, {"type": "node", "id": 8386683583, "lat": 17.4593114, "lon": 78.4766376}, {"type": "node", "id": 8386683584, "lat": 17.4593606, "lon": 78.4765365}, {"type": "node", "id": 8386683599, "lat": 17.4613303, "lon": 78.4762775}, {"type": "node", "id": 8386683600, "lat": 17.4613224, "lon": 78.476333}, {"type": "node", "id": 8386683601, "lat": 17.4612371, "lon": 78.4763181}, {"type": "node", "id": 8386683602, "lat": 17.4612505, "lon": 78.4762593}, {"type": "node", "id": 8386683608, "lat": 17.4639909, "lon": 78.4750431}, {"type": "node", "id": 8386683609, "lat": 17.4640133, "lon": 78.4750921}, {"type": "node", "id": 8386683610, "lat": 17.4639591, "lon": 78.4751102}, {"type": "node", "id": 8386683611, "lat": 17.4639363, "lon": 78.4750604}, {"type": "node", "id": 8387042811, "lat": 17.4541207, "lon": 78.4983498, "tags": {"amenity": "restaurant", "name": "Zinger Hut Fried chicken"}}, {"type": "node", "id": 8387042824, "lat": 17.4560175, "lon": 78.4989182, "tags": {"amenity": "bank", "atm": "yes", "brand": "Axis Bank", "brand:wikidata": "Q2003549", "brand:wikipedia": "en:Axis Bank", "name": "Axis Bank"}}, {"type": "node", "id": 8389425001, "lat": 17.455906, "lon": 78.4835965, "tags": {"amenity": "bar", "name": "Satya Bar and Restaurant"}}, {"type": "node", "id": 8389425005, "lat": 17.4599288, "lon": 78.4772272, "tags": {"amenity": "school", "name": "Janaki Model High School"}}, {"type": "node", "id": 8739653926, "lat": 17.4621737, "lon": 78.4898698, "tags": {"air_conditioning": "yes", "amenity": "conference_centre", "name": "VHR Convention Hall"}}, {"type": "node", "id": 8759169871, "lat": 17.4753103, "lon": 78.4857756, "tags": {"addr:district": "Hyderabad", "addr:full": "Hasmathpet, Bowenpally, Secunderabad", "addr:postcode": "500009", "addr:state": "Telangana", "amenity": "hospital", "name": "SKS Hospital", "source": "Local Knowledge"}}, {"type": "node", "id": 8934966321, "lat": 17.4645624, "lon": 78.4833498, "tags": {"amenity": "atm", "cash_in": "no", "drive_through": "no", "operator": "Union Bank of India"}}, {"type": "node", "id": 8934966340, "lat": 17.4654528, "lon": 78.4828831, "tags": {"amenity": "bank", "atm": "yes", "brand": "Bank of Baroda", "brand:wikidata": "Q2003797", "brand:wikipedia": "en:Bank of Baroda", "drive_through": "no", "name": "Bank of Baroda"}}, {"type": "node", "id": 8934966342, "lat": 17.4669828, "lon": 78.482108, "tags": {"amenity": "place_of_worship", "religion": "hindu"}}, {"type": "node", "id": 9369224150, "lat": 17.464015, "lon": 78.4837276, "tags": {"amenity": "fast_food", "drive_through": "no", "name": "Kalpana Food Court"}}, {"type": "node", "id": 9369224151, "lat": 17.4640084, "lon": 78.4835299, "tags": {"amenity": "fast_food", "drive_through": "no", "name": "Sonu's Food Court"}}, {"type": "node", "id": 9918900831, "lat": 17.4676457, "lon": 78.4708684}, {"type": "node", "id": 9918900832, "lat": 17.4667732, "lon": 78.4704741}, {"type": "node", "id": 9918900833, "lat": 17.4666402, "lon": 78.4708067}, {"type": "node", "id": 9918900834, "lat": 17.4663978, "lon": 78.4709664}, {"type": "node", "id": 9918900835, "lat": 17.4663481, "lon": 78.4710668}, {"type": "node", "id": 9918900836, "lat": 17.4664202, "lon": 78.4711144}, {"type": "node", "id": 9918900837, "lat": 17.4673449, "lon": 78.4715712}, {"type": "node", "id": 9918903630, "lat": 17.4708664, "lon": 78.4794606}, {"type": "node", "id": 9918903631, "lat": 17.4708123, "lon": 78.4796272}, {"type": "node", "id": 9918903632, "lat": 17.4707016, "lon": 78.479563}, {"type": "node", "id": 9918903633, "lat": 17.470757, "lon": 78.4794273}, {"type": "node", "id": 9918903634, "lat": 17.470797, "lon": 78.4795396, "tags": {"amenity": "place_of_worship", "religion": "christian"}}, {"type": "node", "id": 9918903702, "lat": 17.4757854, "lon": 78.4739876}, {"type": "node", "id": 9918903703, "lat": 17.4755928, "lon": 78.4740114}, {"type": "node", "id": 9918903704, "lat": 17.4756041, "lon": 78.4741559}, {"type": "node", "id": 9918903705, "lat": 17.4758024, "lon": 78.474143}, {"type": "node", "id": 9918903715, "lat": 17.4767924, "lon": 78.4773439}, {"type": "node", "id": 9918903716, "lat": 17.4767701, "lon": 78.4774495}, {"type": "node", "id": 9918909817, "lat": 17.4767289, "lon": 78.4774453}, {"type": "node", "id": 9918909818, "lat": 17.4767473, "lon": 78.477335}, {"type": "node", "id": 9918909819, "lat": 17.4767734, "lon": 78.4773356}, {"type": "node", "id": 9918909845, "lat": 17.4781327, "lon": 78.4724661}, {"type": "node", "id": 9918909846, "lat": 17.4776387, "lon": 78.4725076}, {"type": "node", "id": 9918909847, "lat": 17.4776836, "lon": 78.473067}, {"type": "node", "id": 9918909848, "lat": 17.4781828, "lon": 78.4730088}, {"type": "node", "id": 9918909849, "lat": 17.4779029, "lon": 78.4727042, "tags": {"amenity": "restaurant", "name": "Colors Family Dhaba"}}, {"type": "node", "id": 9919114778, "lat": 17.470054, "lon": 78.4782916, "tags": {"amenity": "doctors", "healthcare": "doctor", "name": "People's Hospital"}}, {"type": "node", "id": 9919114781, "lat": 17.4690371, "lon": 78.4781801, "tags": {"amenity": "bicycle_repair_station"}}, {"type": "node", "id": 9919114782, "lat": 17.4709169, "lon": 78.4786955, "tags": {"amenity": "fast_food", "cuisine": "chicken"}}, {"type": "node", "id": 9924632184, "lat": 17.476399, "lon": 78.4819392, "tags": {"amenity": "restaurant", "name": "Mandi chaloo"}}, {"type": "node", "id": 9924632185, "lat": 17.4762955, "lon": 78.4826301, "tags": {"amenity": "cafe", "name": "City Cafe"}}, {"type": "node", "id": 9924632190, "lat": 17.4760747, "lon": 78.4828385, "tags": {"amenity": "bank", "brand": "State Bank of India", "brand:wikidata": "Q1340361", "name": "State Bank of India", "short_name": "SBI"}}, {"type": "node", "id": 9924632191, "lat": 17.4760297, "lon": 78.483422}, {"type": "node", "id": 9924632192, "lat": 17.4759471, "lon": 78.4834132}, {"type": "node", "id": 9924632193, "lat": 17.4759345, "lon": 78.4834802}, {"type": "node", "id": 9924632194, "lat": 17.4760182, "lon": 78.4834955}, {"type": "node", "id": 9924632195, "lat": 17.4763478, "lon": 78.4830732}, {"type": "node", "id": 9924632196, "lat": 17.4763614, "lon": 78.4830173}, {"type": "node", "id": 9924632197, "lat": 17.4762275, "lon": 78.4829844}, {"type": "node", "id": 9924632198, "lat": 17.4762149, "lon": 78.4830513}, {"type": "node", "id": 9942092780, "lat": 17.4627815, "lon": 78.4755218}, {"type": "node", "id": 9942092781, "lat": 17.4628231, "lon": 78.4756451}, {"type": "node", "id": 9942092782, "lat": 17.4627708, "lon": 78.4757822}, {"type": "node", "id": 9942092783, "lat": 17.4626829, "lon": 78.4759916}, {"type": "node", "id": 9942092784, "lat": 17.4624974, "lon": 78.4759766}, {"type": "node", "id": 9942092785, "lat": 17.4624606, "lon": 78.4756053}, {"type": "node", "id": 9942092786, "lat": 17.4625771, "lon": 78.4755367}, {"type": "node", "id": 9942092787, "lat": 17.4625997, "lon": 78.4755342}, {"type": "node", "id": 11009963473, "lat": 17.470668, "lon": 78.4934963, "tags": {"addr:district": "Medchal Malkajgiri", "addr:place": "Anjaiah Nagar, Bowinpally", "addr:state": "Telangana", "addr:street": "Anjaiah Nagar, Bowinpally", "amenity": "health_post", "healthcare": "yes", "name": "Anjaiah Nagar, Bowinpally (Vaddarabasti) (Basthi Dawakhana)", "operational_status": "operational", "operator:type": "government", "source": "OpenDataTelangana"}}, {"type": "node", "id": 11484348072, "lat": 17.4677726, "lon": 78.4736355}, {"type": "node", "id": 11484348073, "lat": 17.4679516, "lon": 78.473793}, {"type": "node", "id": 11484348074, "lat": 17.4678604, "lon": 78.473901}, {"type": "node", "id": 11484348075, "lat": 17.4676697, "lon": 78.4737098}, {"type": "node", "id": 11559043392, "lat": 17.4725029, "lon": 78.4977097}, {"type": "node", "id": 11559043393, "lat": 17.4711169, "lon": 78.4973814}, {"type": "node", "id": 11559043394, "lat": 17.4729128, "lon": 78.4978362}, {"type": "node", "id": 11559043395, "lat": 17.4716927, "lon": 78.4955999}, {"type": "way", "id": 50657342, "nodes": [645054629, 11559043393, 645054630, 645054634, 11559043392, 11559043394, 645054637, 11559043395, 3598270753, 645054629], "tags": {"amenity": "marketplace", "description": "Wholesale market", "name": "Market Yard"}}, {"type": "way", "id": 71931212, "nodes": [854940986, 854940987, 7944684123, 854940995, 854940997, 854940998, 854941001, 854941003, 854941004, 7944684120, 7944684121, 854941006, 854941008, 7944684122, 7944684117, 7944684119, 7944684118, 854940986], "tags": {"amenity": "school", "name": "St Andrews School"}}, {"type": "way", "id": 75104834, "nodes": [886393924, 886393925, 886393928, 886393930, 886393924], "tags": {"amenity": "school", "name": "Delhi Public School"}}, {"type": "way", "id": 90554385, "nodes": [1050787303, 1050787304, 1050787305, 1050787307, 1050787308, 3148642943, 1050787303], "tags": {"amenity": "school", "description": "KV Air Force Station", "name": "Kendriya Vidyalaya"}}, {"type": "way", "id": 91738249, "nodes": [1066056667, 1066056668, 1066056669, 1066056671, 1066056672, 854940934, 1066056675, 1066056667], "tags": {"air_conditioning": "yes", "amenity": "events_venue", "description": "Weddings Venue", "name": "Gayatri Gardens"}}, {"type": "way", "id": 112653544, "nodes": [1280016557, 1280016560, 1280016561, 1280016559, 1280016556, 1280016558, 1280016557], "tags": {"amenity": "school", "name": "Government School"}}, {"type": "way", "id": 176133766, "nodes": [1866942818, 1866942817, 1866942819, 1866942820, 1866942818], "tags": {"amenity": "school", "name": "Jain Vidyalay"}}, {"type": "way", "id": 176133866, "nodes": [1866944234, 1866944232, 1866944231, 1866944233, 1866944234], "tags": {"amenity": "place_of_worship", "name": "Tadbund Hanuman Temple", "religion": "hindu"}}, {"type": "way", "id": 184103815, "nodes": [1945541992, 1945541994, 1945542000, 1945541999, 1945541992], "tags": {"amenity": "place_of_worship", "name": "Hanuman Temple", "religion": "hindu"}}, {"type": "way", "id": 297208482, "nodes": [3010602312, 3010602313, 3010602314, 3010602315, 3010602316, 3010602317, 3010602312], "tags": {"amenity": "place_of_worship", "building": "yes", "name": "Grace Community Baptist Church", "religion": "christian"}}, {"type": "way", "id": 355905754, "nodes": [3614343360, 3614343488, 3614343467, 3614343435, 3614343336, 3614343360], "tags": {"addr:city": "Hyderabad", "addr:street": "Sikh Village Road", "amenity": "bank", "atm": "yes", "brand": "Punjab National Bank", "brand:wikidata": "Q2743499", "brand:wikipedia": "en:Punjab National Bank", "building": "commercial", "building:levels": "2", "drive_through": "no", "name": "Punjab National Bank"}}, {"type": "way", "id": 355979902, "nodes": [3614774696, 3614774908, 3614774894, 3614774839, 3614774844, 3614774687, 3614774696], "tags": {"addr:district": "Hyderabad", "addr:full": "Manovikas Nagar, Secunderabad, Near Delhi Public School", "addr:postcode": "500009", "addr:state": "Telangana", "addr:subdistrict": "Secunderabad", "amenity": "hospital", "building": "yes", "contact:phone": "04027753385", "health_facility:type": "Others", "healthcare": "centre", "name": "Southern Regional Centre of Ali Yavar Jung National Institute for the Hearing Handicapped (AYJNIHH)", "source": "OpenGovernmentData"}}, {"type": "way", "id": 356020523, "nodes": [3615034900, 3615034686, 3615034149, 3615034165, 3615034900], "tags": {"amenity": "school", "name": "Faizan High School"}}, {"type": "way", "id": 356020535, "nodes": [3615033959, 3615033930, 3615033895, 3615033945, 3615033959], "tags": {"amenity": "school"}}, {"type": "way", "id": 356179474, "nodes": [3616812790, 3616812873, 3616812823, 3616812760, 3616812790], "tags": {"amenity": "doctors", "building": "yes", "healthcare": "doctor", "healthcare:speciality": "general;dermatology;gynaecology", "name": "Abhinava Krishna Clinics"}}, {"type": "way", "id": 356195893, "nodes": [3616908476, 3616908475, 3616908467, 3616908465, 3616908454, 3616908455, 3616908445, 3616908446, 3616908476], "tags": {"amenity": "place_of_worship", "building": "yes", "name": "sai baba temple", "religion": "hindu"}}, {"type": "way", "id": 356250946, "nodes": [3617235990, 3617235980, 3617235975, 3617235985, 3617235990], "tags": {"amenity": "restaurant", "building": "yes", "name": "gold and crew restaurant"}}, {"type": "way", "id": 356279890, "nodes": [3617415507, 3617415514, 3617415510, 3617415505, 3617415507], "tags": {"amenity": "bank", "atm": "yes", "building": "yes", "name": "South Indian Bank"}}, {"type": "way", "id": 356279926, "nodes": [3617415313, 3617415308, 3617414879, 3617414881, 3617415313], "tags": {"addr:city": "secunderabad", "addr:postcode": "500009", "addr:street": "Wahab Nagar", "amenity": "place_of_worship", "building": "yes", "religion": "hindu"}}, {"type": "way", "id": 356280304, "nodes": [3617415559, 3617415561, 3617415560, 3617415557, 3617415559], "tags": {"amenity": "bank", "atm": "yes", "brand": "HDFC Bank", "brand:wikidata": "Q631047", "brand:wikipedia": "en:HDFC Bank", "building": "yes", "drive_through": "no", "name": "HDFC Bank", "short_name": "HDFC", "website": "https://www.hdfcbank.com"}}, {"type": "way", "id": 356418532, "nodes": [3618839517, 3618839514, 3618839281, 3618839273, 3618839292, 3618839288, 3618839259, 3618839266, 3618839517], "tags": {"amenity": "school", "building": "yes", "grades": "1-10", "name": "Mudfort School", "operator": "Government", "operator:type": "government"}}, {"type": "way", "id": 356432348, "nodes": [3618921765, 3618921758, 3618921749, 3618921752, 3618921765], "tags": {"amenity": "bar", "building": "yes", "name": "nakshatra bar"}}, {"type": "way", "id": 356449083, "nodes": [3619000075, 3619000068, 3619000062, 3619000067, 3619000075], "tags": {"amenity": "place_of_worship", "building": "yes", "name": "Shivalayam Temple"}}, {"type": "way", "id": 356451668, "nodes": [3619016015, 3619015992, 3619015971, 3619015989, 3619016015], "tags": {"amenity": "bank", "brand": "Union Bank of India", "brand:wikidata": "Q2004078", "brand:wikipedia": "en:Union Bank of India", "building": "yes", "name": "Union Bank of India"}}, {"type": "way", "id": 356453894, "nodes": [3619028604, 3619028602, 3619028596, 3619028599, 3619028604], "tags": {"addr:city": "secunderabad", "addr:street": "Mudfort", "amenity": "place_of_worship", "building": "yes", "name": "St Anthony Church", "religion": "christian"}}, {"type": "way", "id": 356454155, "nodes": [3619028734, 3619028730, 3619028713, 3619028716, 3619028734], "tags": {"amenity": "place_of_worship", "building": "yes", "name": "Mahakali Temple", "religion": "hindu"}}, {"type": "way", "id": 357101828, "nodes": [3624694461, 3624694465, 3624694442, 3624694444, 3624694438, 3624694434, 3624694435, 3624694461], "tags": {"amenity": "place_of_worship", "building": "yes", "name": "lord shiva temple", "religion": "hindu"}}, {"type": "way", "id": 360677251, "nodes": [3652375304, 3652375302, 3652375294, 3652375290, 3652375285, 3652375283, 3652375271, 3652375267, 3652375265, 3652375263, 3652375258, 3652375262, 3652375266, 3652375275, 3652375304], "tags": {"amenity": "place_of_worship", "building": "yes", "religion": "muslim"}}, {"type": "way", "id": 360814421, "nodes": [3653673971, 3653673972, 3653673974, 3653673973, 3653673971], "tags": {"amenity": "bank", "atm": "yes", "brand": "Union Bank of India", "brand:wikidata": "Q2004078", "brand:wikipedia": "en:Union Bank of India", "building": "yes", "drive_through": "no", "name": "Union Bank of India"}}, {"type": "way", "id": 360984446, "nodes": [3655195794, 3655195764, 3655195768, 3655195800, 3655195794], "tags": {"amenity": "restaurant", "bar": "no", "building": "yes", "cuisine": "regional", "diet:vegetarian": "yes", "name": "Sukha Sagara", "outdoor_seating": "no", "smoking": "no", "takeaway": "yes"}}, {"type": "way", "id": 360984573, "nodes": [3655195507, 3655195479, 3655195480, 3655195510, 3655195507], "tags": {"amenity": "school", "building": "yes", "building:levels": "2", "name": "Gunrock Public School"}}, {"type": "way", "id": 361380637, "nodes": [3658643017, 3658643125, 3658643018, 3658643016, 3658643017], "tags": {"amenity": "restaurant", "building": "commercial", "cuisine": "chinese;indian", "level": "2", "name": "Mujtaba Grills"}}, {"type": "way", "id": 361861434, "nodes": [3662779513, 3662779514, 3662779515, 3662779516, 3662779513], "tags": {"amenity": "place_of_worship", "building": "yes"}}, {"type": "way", "id": 535571240, "nodes": [5190765165, 5190765166, 5190765167, 5190765168, 5190765169, 5190765170, 5190765165], "tags": {"amenity": "bus_station", "description": "26, 26M, 26N Bus nos from Secunderabad Station", "name": "Old Bowenpally Bus stop"}}, {"type": "way", "id": 535571241, "nodes": [5190765171, 5190765172, 5190765173, 5190765174, 5190765171], "tags": {"amenity": "bus_station", "description": "26, 26N, 26M Buses from Secunderbad Station", "name": "Hasmathpet Bus stop"}}, {"type": "way", "id": 870710815, "nodes": [8111036420, 8111036421, 8111036422, 8111036423, 8111036420], "tags": {"amenity": "drinking_water", "building": "yes", "content": "water", "man_made": "storage_tank"}}, {"type": "way", "id": 871043889, "nodes": [8113744331, 8113744332, 8113744333, 8113744337, 8113744334, 8113744335, 8113744336, 8113744331], "tags": {"amenity": "fuel"}}, {"type": "way", "id": 871043890, "nodes": [8113744338, 8113744339, 8113744340, 8113744341, 8113744338], "tags": {"amenity": "fuel"}}, {"type": "way", "id": 871051475, "nodes": [8113802711, 8113802712, 8113802713, 8113802714, 8113802711], "tags": {"addr:city": "secunderabad", "addr:street": "Mudfort", "amenity": "place_of_worship", "building": "yes", "name": "Mahakali Temple", "religion": "hindu"}}, {"type": "way", "id": 871051476, "nodes": [8113802715, 8113802716, 8113829917, 8113829918, 8113802715], "tags": {"amenity": "place_of_worship", "building": "mosque", "religion": "muslim"}}, {"type": "way", "id": 902971504, "nodes": [8386683581, 8386683582, 8386683583, 8386683584, 8386683581], "tags": {"amenity": "place_of_worship", "building": "yes", "name": "hanuman temple", "religion": "hindu"}}, {"type": "way", "id": 902971505, "nodes": [8386683599, 8386683600, 8386683601, 8386683602, 8386683599], "tags": {"amenity": "community_centre", "building": "yes", "name": "community hall"}}, {"type": "way", "id": 902971507, "nodes": [8386683608, 8386683609, 8386683610, 8386683611, 8386683608], "tags": {"amenity": "place_of_worship", "building": "yes", "religion": "hindu"}}, {"type": "way", "id": 1082288737, "nodes": [9918900831, 9918900832, 9918900833, 9918900834, 9918900835, 9918900836, 9918900837, 9918900831], "tags": {"amenity": "school"}}, {"type": "way", "id": 1082290116, "nodes": [9918903630, 9918903631, 9918903632, 9918903633, 9918903630], "tags": {"amenity": "place_of_worship", "building": "yes", "religion": "christian"}}, {"type": "way", "id": 1082290130, "nodes": [9918903702, 9918903703, 9918903704, 9918903705, 9918903702], "tags": {"amenity": "food_court", "building": "yes"}}, {"type": "way", "id": 1082290133, "nodes": [9918903715, 9918903716, 9918909817, 9918909818, 9918909819, 9918903715], "tags": {"amenity": "fast_food", "building": "yes", "cuisine": "chicken"}}, {"type": "way", "id": 1082290139, "nodes": [9918909845, 9918909846, 9918909847, 9918909848, 9918909845], "tags": {"amenity": "restaurant", "building": "yes"}}, {"type": "way", "id": 1082939673, "nodes": [9924632191, 9924632192, 9924632193, 9924632194, 9924632191], "tags": {"amenity": "pharmacy", "brand": "MedPlus", "brand:wikidata": "Q65684234", "building": "yes", "dispensing": "yes", "healthcare": "pharmacy", "name": "MedPlus"}}, {"type": "way", "id": 1082939674, "nodes": [9924632195, 9924632196, 9924632197, 9924632198, 9924632195], "tags": {"amenity": "bank", "building": "yes", "name": "Fed banlk"}}, {"type": "way", "id": 1085039946, "nodes": [9942092780, 9942092781, 9942092782, 9942092783, 9942092784, 9942092785, 9942092786, 9942092787, 9942092780], "tags": {"amenity": "place_of_worship", "building": "yes", "religion": "hindu"}}, {"type": "way", "id": 1236749433, "nodes": [11484348072, 11484348073, 11484348074, 11484348075, 11484348072], "tags": {"amenity": "restaurant", "building": "yes"}}]}