{"version": 0.6, "generator": "Overpass API 0.7.61.5 4133829e", "osm3s": {"timestamp_osm_base": "2024-02-21T13:04:00Z", "copyright": "The data included in this document is from www.openstreetmap.org. The data is made available under ODbL."}, "elements": [{"type": "node", "id": 321710431, "lat": 17.4329496, "lon": 78.5045162}, {"type": "node", "id": 321711823, "lat": 17.4427323, "lon": 78.5064355, "tags": {"amenity": "place_of_worship", "religion": "christian"}}, {"type": "node", "id": 324834915, "lat": 17.4414402, "lon": 78.4935002, "tags": {"amenity": "restaurant", "diet:vegetarian": "only", "name": "Taj Tristar", "name:te": "\u0c24\u0c3e\u0c1c\u0c4d \u0c1f\u0c4d\u0c30\u0c48 \u0c38\u0c4d\u0c1f\u0c3e\u0c30\u0c4d", "tourism": "hotel"}}, {"type": "node", "id": 343668443, "lat": 17.4361795, "lon": 78.5177271, "tags": {"amenity": "place_of_worship", "created_by": "Potlatch 0.10f", "denomination": "Jacobite Christian", "name": "MGJSO Church Mettuguda", "religion": "christian"}}, {"type": "node", "id": 525052103, "lat": 17.4423612, "lon": 78.4936495, "tags": {"amenity": "restaurant", "diet:vegetarian": "only", "name": "Taj Belson", "name:te": "\u0c24\u0c3e\u0c1c\u0c4d \u0c2c\u0c46\u0c32\u0c4d\u0c38\u0c28\u0c4d", "tourism": "hotel"}}, {"type": "node", "id": 525059781, "lat": 17.4484772, "lon": 78.4928118}, {"type": "node", "id": 582824405, "lat": 17.4395738, "lon": 78.4985352, "tags": {"amenity": "cinema", "name": "Prashanth theatre", "name:en": "Prashanth theatre", "name:te": "\u0c2a\u0c4d\u0c30\u0c36\u0c3e\u0c02\u0c24\u0c4d \u0c25\u0c3f\u0c2f\u0c47\u0c1f\u0c30\u0c4d"}}, {"type": "node", "id": 582824598, "lat": 17.4404726, "lon": 78.4935719, "tags": {"amenity": "cinema", "name": "Manju Cinema", "name:te": "\u0c2e\u0c02\u0c1c\u0c41 \u0c38\u0c3f\u0c28\u0c3f\u0c2e\u0c3e"}}, {"type": "node", "id": 649056266, "lat": 17.4541644, "lon": 78.4981718, "tags": {"amenity": "restaurant", "cuisine": "ice_cream", "name": "Icecream Club"}}, {"type": "node", "id": 813571472, "lat": 17.4427994, "lon": 78.5042129, "tags": {"amenity": "toilets", "fee": "yes"}}, {"type": "node", "id": 813571521, "lat": 17.4409489, "lon": 78.5052645, "tags": {"amenity": "fuel", "brand": "Bharat Petroleum", "brand:wikidata": "Q854826", "brand:wikipedia": "en:Bharat Petroleum", "name": "Bharat Petroleum", "operator": "Indian Oil"}}, {"type": "node", "id": 813571553, "lat": 17.4397896, "lon": 78.5089043, "tags": {"amenity": "fuel", "brand": "Bharat Petroleum", "brand:wikidata": "Q854826", "brand:wikipedia": "en:Bharat Petroleum", "fuel:cng": "yes", "fuel:diesel": "yes", "name": "Bharat Petroleum", "operator": "Bharat Petroleum"}}, {"type": "node", "id": 813571613, "lat": 17.4378187, "lon": 78.5108106, "tags": {"amenity": "atm", "cash_in": "no", "drive_through": "no", "operator": "Canara Bank"}}, {"type": "node", "id": 813571662, "lat": 17.4352319, "lon": 78.5144447, "tags": {"amenity": "toilets", "fee": "yes"}}, {"type": "node", "id": 813571710, "lat": 17.4368946, "lon": 78.5173462, "tags": {"amenity": "bank", "atm": "yes", "brand": "Canara Bank", "brand:pa": "\u0a15\u0a47\u0a28\u0a30\u0a3e \u0a2c\u0a48\u0a02\u0a15", "brand:ur": "\u06a9\u06cc\u0646\u0631\u0627 \u0628\u06cc\u0646\u06a9", "brand:wikidata": "Q2003777", "brand:wikipedia": "en:Canara Bank", "brand:wikipedia:pa": "\u0a15\u0a47\u0a28\u0a30\u0a3e \u0a2c\u0a48\u0a02\u0a15", "name": "Canara Bank", "name:pa": "\u0a15\u0a47\u0a28\u0a30\u0a3e \u0a2c\u0a48\u0a02\u0a15", "name:ur": "\u06a9\u06cc\u0646\u0631\u0627 \u0628\u06cc\u0646\u06a9", "website": "https://www.canarabank.com/"}}, {"type": "node", "id": 813571747, "lat": 17.4362518, "lon": 78.5185589, "tags": {"amenity": "pharmacy", "dispensing": "no", "healthcare": "pharmacy", "name": "Apollo"}}, {"type": "node", "id": 813571801, "lat": 17.4349662, "lon": 78.5199424, "tags": {"amenity": "place_of_worship", "denomination": "catholic", "name": "St. Anthony's Shrine", "religion": "christian"}}, {"type": "node", "id": 817353582, "lat": 17.4367489, "lon": 78.5179571, "tags": {"amenity": "fuel", "name": "HP"}}, {"type": "node", "id": 854960920, "lat": 17.4418602, "lon": 78.4988827, "tags": {"amenity": "restaurant", "name": "Garden Restaurant"}}, {"type": "node", "id": 854960941, "lat": 17.4401551, "lon": 78.4955399}, {"type": "node", "id": 854960945, "lat": 17.4392041, "lon": 78.4952509}, {"type": "node", "id": 854960956, "lat": 17.4391638, "lon": 78.4968058}, {"type": "node", "id": 854960959, "lat": 17.4394292, "lon": 78.4970748}, {"type": "node", "id": 854960963, "lat": 17.4400434, "lon": 78.4970105}, {"type": "node", "id": 886337163, "lat": 17.442076, "lon": 78.5055212, "tags": {"amenity": "place_of_worship", "name": "ISKCON", "religion": "hindu"}}, {"type": "node", "id": 886337190, "lat": 17.439245, "lon": 78.5048872}, {"type": "node", "id": 886337194, "lat": 17.4384773, "lon": 78.5047424}, {"type": "node", "id": 886337197, "lat": 17.4376495, "lon": 78.5043105}, {"type": "node", "id": 886337202, "lat": 17.4379988, "lon": 78.5029145}, {"type": "node", "id": 886337205, "lat": 17.4394292, "lon": 78.5031169}, {"type": "node", "id": 886358982, "lat": 17.4407086, "lon": 78.5045814, "tags": {"amenity": "cinema", "building": "yes", "name": "Sangeet (Permanently Closed)"}}, {"type": "node", "id": 889674219, "lat": 17.4408665, "lon": 78.4971168, "tags": {"amenity": "restaurant", "diet:vegetarian": "only", "name": "Kamath Hotel", "name:en": "Kamath Hotel", "name:te": "\u0c15\u0c3e\u0c2e\u0c24\u0c4d \u0c39\u0c4b\u0c1f\u0c32\u0c4d"}}, {"type": "node", "id": 889682550, "lat": 17.4618242, "lon": 78.5004605, "tags": {"amenity": "police", "name": "Karkhana Traffic Police Station", "name:te": "\u0c15\u0c3e\u0c30\u0c4d\u0c16\u0c3e\u0c28\u0c3e \u0c1f\u0c4d\u0c30\u0c3e\u0c2b\u0c3f\u0c15\u0c4d \u0c2a\u0c4b\u0c32\u0c40\u0c38\u0c4d \u0c38\u0c4d\u0c1f\u0c47\u0c37\u0c28\u0c41"}}, {"type": "node", "id": 902311398, "lat": 17.4556983, "lon": 78.4984034, "tags": {"addr:street": "Vikrampuri", "amenity": "hospital", "emergency": "yes", "name": "Oxygen Hospital"}}, {"type": "node", "id": 1050823708, "lat": 17.4617149, "lon": 78.4980263, "tags": {"amenity": "place_of_worship", "religion": "muslim"}}, {"type": "node", "id": 1050823712, "lat": 17.4605765, "lon": 78.4984986, "tags": {"amenity": "place_of_worship", "religion": "muslim"}}, {"type": "node", "id": 1050823750, "lat": 17.4619298, "lon": 78.4945931, "tags": {"amenity": "school", "name": "Butterflies"}}, {"type": "node", "id": 1050823758, "lat": 17.4615819, "lon": 78.4960307, "tags": {"amenity": "place_of_worship", "name": "Hanuman Temple", "name:te": "\u0c39\u0c28\u0c41\u0c2e\u0c3e\u0c28\u0c4d \u0c17\u0c41\u0c21\u0c3f", "religion": "hindu"}}, {"type": "node", "id": 1050823766, "lat": 17.4617866, "lon": 78.4968247, "tags": {"amenity": "school", "name": "Gunrock Enclave High School", "name:te": "\u0c17\u0c28\u0c4d \u0c30\u0c3e\u0c15\u0c4d \u0c0e\u0c28\u0c15\u0c4d\u0c32\u0c47\u0c35\u0c4d \u0c39\u0c48 \u0c38\u0c4d\u0c15\u0c42\u0c32\u0c4d"}}, {"type": "node", "id": 1242176694, "lat": 17.4412511, "lon": 78.4952808, "tags": {"amenity": "post_box", "designation": "Main Branch", "operator": "Indian Postal"}}, {"type": "node", "id": 1242176707, "lat": 17.4418625, "lon": 78.4952906, "tags": {"amenity": "bank", "atm": "yes", "name": "SBI administrative office-II"}}, {"type": "node", "id": 1257610296, "lat": 17.4387277, "lon": 78.4992644}, {"type": "node", "id": 1257610299, "lat": 17.4387584, "lon": 78.4993529}, {"type": "node", "id": 1257610300, "lat": 17.4387354, "lon": 78.499318}, {"type": "node", "id": 1257610301, "lat": 17.4387584, "lon": 78.4992027}, {"type": "node", "id": 1257610302, "lat": 17.4390885, "lon": 78.4990203}, {"type": "node", "id": 1257610303, "lat": 17.4397155, "lon": 78.4989774}, {"type": "node", "id": 1333758086, "lat": 17.4663599, "lon": 78.5051965, "tags": {"amenity": "fuel", "name": "HP", "name:te": "\u0c39\u0c3f\u0c02\u0c26\u0c42\u0c38\u0c4d\u0c24\u0c3e\u0c28\u0c4d \u0c2a\u0c46\u0c1f\u0c4d\u0c30\u0c4b\u0c32\u0c4d \u0c2c\u0c02\u0c15\u0c41"}}, {"type": "node", "id": 1333758090, "lat": 17.4663343, "lon": 78.5056203, "tags": {"amenity": "place_of_worship", "name": "Hanuman Temple", "name:te": "\u0c39\u0c28\u0c41\u0c2e\u0c3e\u0c28\u0c4d \u0c17\u0c41\u0c21\u0c3f", "religion": "hindu"}}, {"type": "node", "id": 1333758091, "lat": 17.4567641, "lon": 78.4994603, "tags": {"alt_name": "Kentucky Fried Chicken", "alt_name:en": "Kentucky Fried Chicken", "alt_name:hi": "\u0915\u0947\u0902\u091f\u0941\u0915\u0940 \u092b\u094d\u0930\u093e\u0907\u0921 \u091a\u093f\u0915\u0928", "alt_name:pa": "\u0a15\u0a48\u0a02\u0a1f\u0a41\u0a15\u0a40 \u0a2b\u0a4d\u0a30\u0a3e\u0a08\u0a21 \u0a1a\u0a3f\u0a15\u0a28", "alt_name:pnb": "\u06a9\u06cc\u0646\u0679\u06a9\u06cc \u0641\u0631\u0627\u0626\u06cc\u0688 \u0686\u06a9\u0646", "alt_name:ur": "\u06a9\u06cc\u0646\u0679\u06a9\u06cc \u0641\u0631\u0627\u0626\u06cc\u0688 \u0686\u06a9\u0646", "amenity": "fast_food", "brand": "KFC", "brand:en": "KFC", "brand:hi": "\u0915\u0947\u090f\u092b\u0938\u0940", "brand:pa": "\u0a15\u0a47\u0a10\u0a2b\u0a38\u0a40", "brand:pnb": "\u06a9\u06d2 \u0627\u06cc\u0641 \u0633\u06cc", "brand:ur": "\u06a9\u06d2 \u0627\u06cc\u0641 \u0633\u06cc", "brand:wikidata": "Q524757", "brand:wikipedia": "en:KFC", "brand:wikipedia:pa": "\u0a15\u0a47\u0a10\u0a2b\u0a38\u0a40", "brand:wikipedia:ur": "\u06a9\u06cc\u0646\u0679\u06a9\u06cc \u0641\u0631\u0627\u0626\u06cc\u0688 \u0686\u06a9\u0646", "cuisine": "chicken", "name": "KFC", "name:en": "KFC", "name:hi": "\u0915\u0947\u090f\u092b\u0938\u0940", "name:pa": "\u0a15\u0a47\u0a10\u0a2b\u0a38\u0a40", "name:pnb": "\u06a9\u06d2 \u0627\u06cc\u0641 \u0633\u06cc", "name:ur": "\u06a9\u06d2 \u0627\u06cc\u0641 \u0633\u06cc", "takeaway": "yes"}}, {"type": "node", "id": 1333758092, "lat": 17.4649189, "lon": 78.5034106, "tags": {"amenity": "fast_food", "brand": "McDonald's", "brand:pa": "\u0a2e\u0a48\u0a15\u0a21\u0a4b\u0a28\u0a32\u0a21\u2019\u0a1c\u0a3c", "brand:ur": "\u0645\u06a9\u0688\u0648\u0646\u0644\u0688\u0632", "brand:wikidata": "Q38076", "brand:wikipedia": "en:McDonald's", "brand:wikipedia:pa": "\u0a2e\u0a48\u0a15\u0a21\u0a4b\u0a28\u0a32\u0a21\u2019\u0a1c\u0a3c", "brand:wikipedia:ur": "\u0645\u06a9\u0688\u0648\u0646\u0644\u0688\u0632", "cuisine": "burger", "name": "McDonald's", "name:pa": "\u0a2e\u0a48\u0a15\u0a21\u0a4b\u0a28\u0a32\u0a21\u2019\u0a1c\u0a3c", "name:ur": "\u0645\u06a9\u0688\u0648\u0646\u0644\u0688\u0632", "takeaway": "yes"}}, {"type": "node", "id": 1333758097, "lat": 17.4524188, "lon": 78.4949541}, {"type": "node", "id": 1334561741, "lat": 17.4421759, "lon": 78.5047802, "tags": {"amenity": "bank", "atm": "yes", "brand": "Corporation Bank", "brand:wikidata": "Q2003387", "brand:wikipedia": "en:Corporation Bank", "level": "0", "name": "Corporation Bank", "name:en": "Corporation Bank", "opening_hours": "24/7", "website": "https://corpbank.com/", "wheelchair": "no"}}, {"type": "node", "id": 1416850704, "lat": 17.4412663, "lon": 78.5003508, "tags": {"amenity": "restaurant", "name": "Pickles"}}, {"type": "node", "id": 1437365100, "lat": 17.4537328, "lon": 78.5287668, "tags": {"addr:postcode": "500047", "addr:street": "Gautham Nagar", "amenity": "townhall", "name": "Goutham Nagar Community Hall"}}, {"type": "node", "id": 1437365108, "lat": 17.4527246, "lon": 78.5278602, "tags": {"addr:postcode": "500047", "addr:street": "Gautham Nagar", "amenity": "school", "name": "Saraswati High School"}}, {"type": "node", "id": 1437365110, "lat": 17.4518905, "lon": 78.5299783, "tags": {"amenity": "place_of_worship", "name": "Bhavani Temple", "religion": "hindu"}}, {"type": "node", "id": 1437365122, "lat": 17.4529037, "lon": 78.5287131, "tags": {"addr:postcode": "500047", "addr:street": "Gautham Nagar", "amenity": "kindergarten", "name": "Bhegas Kinder Garden"}}, {"type": "node", "id": 1437365125, "lat": 17.4532108, "lon": 78.528005, "tags": {"addr:postcode": "500047", "addr:street": "Gautham Nagar", "amenity": "school", "name": "Bhegas High School"}}, {"type": "node", "id": 1438252865, "lat": 17.4488251, "lon": 78.5306175, "tags": {"amenity": "place_of_worship", "name": "Bhavani Temple", "religion": "hindu"}}, {"type": "node", "id": 1438252869, "lat": 17.4484157, "lon": 78.530301, "tags": {"amenity": "place_of_worship", "name": "Brahmam Gari Templa", "religion": "hindu"}}, {"type": "node", "id": 1502798798, "lat": 17.4458873, "lon": 78.5076449, "tags": {"amenity": "library", "name": "French Library"}}, {"type": "node", "id": 1502798799, "lat": 17.4441752, "lon": 78.5108908}, {"type": "node", "id": 1502798800, "lat": 17.4451003, "lon": 78.5080615}, {"type": "node", "id": 1502798802, "lat": 17.4453352, "lon": 78.5075859}, {"type": "node", "id": 1502798803, "lat": 17.4453934, "lon": 78.507414}, {"type": "node", "id": 1502798804, "lat": 17.4455283, "lon": 78.507662}, {"type": "node", "id": 1502798805, "lat": 17.4455906, "lon": 78.5074988}, {"type": "node", "id": 1502798806, "lat": 17.4456079, "lon": 78.5112477}, {"type": "node", "id": 1502798813, "lat": 17.4464787, "lon": 78.5086098}, {"type": "node", "id": 1602532197, "lat": 17.447423, "lon": 78.5164319, "tags": {"amenity": "waste_basket"}}, {"type": "node", "id": 1866901270, "lat": 17.4566387, "lon": 78.4993902, "tags": {"amenity": "bank", "atm": "yes", "brand": "ICICI Bank", "brand:wikidata": "Q1653258", "name": "ICICI Bank", "name:en": "ICICI Bank", "short_name": "ICICI", "website": "https://www.icicibank.com"}}, {"type": "node", "id": 1866946857, "lat": 17.4649189, "lon": 78.5033276, "tags": {"amenity": "restaurant", "name": "Pepper Pods"}}, {"type": "node", "id": 1866946858, "lat": 17.4648319, "lon": 78.5033223, "tags": {"amenity": "fast_food", "cuisine": "ice_cream", "name": "Baskin Robins", "name:te": "\u0c2c\u0c3e\u0c38\u0c4d\u0c15\u0c3f\u0c28\u0c4d \u0c30\u0c4a\u0c2c\u0c4d\u0c2c\u0c3f\u0c28\u0c4d\u0c38\u0c4d"}}, {"type": "node", "id": 1866946860, "lat": 17.4648023, "lon": 78.5032716, "tags": {"amenity": "cafe", "cuisine": "coffee_shop", "name": "Cafe Latte", "name:te": "\u0c15\u0c47\u0c2b\u0c4d \u0c32\u0c3e\u0c1f\u0c47"}}, {"type": "node", "id": 1947410130, "lat": 17.4554659, "lon": 78.4982977, "tags": {"amenity": "pharmacy", "brand": "Apollo Pharmacy", "brand:wikidata": "Q62562612", "healthcare": "pharmacy", "name": "Apollo Pharmacy", "source": "survey"}}, {"type": "node", "id": 2214136534, "lat": 17.4359536, "lon": 78.5000501, "tags": {"amenity": "bus_station", "bus": "yes", "internet_access": "no", "name": "Secunderabad", "name:hi": "\u0938\u093f\u0915\u0902\u0926\u0930\u093e\u092c\u093e\u0926", "name:pa": "\u0a38\u0a3f\u0a15\u0a70\u0a26\u0a30\u0a3e\u0a2c\u0a3e\u0a26", "name:te": "\u0c38\u0c3f\u0c15\u0c3f\u0c02\u0c26\u0c4d\u0c30\u0c3e\u0c2c\u0c3e\u0c26\u0c4d", "network": "Secunderabad-Medchal-Lingampalli", "operator": "TSRTC", "public_transport": "station"}}, {"type": "node", "id": 2306496684, "lat": 17.464371, "lon": 78.5025585, "tags": {"amenity": "bank", "atm": "yes", "branch": "Karkhana", "brand": "ICICI", "brand:wikidata": "Q1653258", "name": "ICICI Bank", "name:en": "ICICI Bank", "name:te": "\u0c10.\u0c38\u0c3f.\u0c10.\u0c38\u0c3f.\u0c10. \u0c2c\u0c4d\u0c2f\u0c3e\u0c02\u0c15\u0c41", "short_name": "ICICI", "website": "https://www.icicibank.com", "wikidata": "Q1653258", "wikipedia": "en:ICICI Bank"}}, {"type": "node", "id": 2306496694, "lat": 17.4648777, "lon": 78.5033703, "tags": {"amenity": "pub", "name": "Extreme Sports Bar", "name:te": "\u0c0e\u0c15\u0c4d\u0c38\u0c4d\u0c1f\u0c4d\u0c30\u0c40\u0c2e\u0c4d \u0c38\u0c4d\u0c2a\u0c4b\u0c30\u0c4d\u0c1f\u0c4d\u0c38\u0c4d \u0c2c\u0c3e\u0c30\u0c4d"}}, {"type": "node", "id": 2526194954, "lat": 17.4314674, "lon": 78.5282929, "tags": {"amenity": "place_of_worship", "name": "Mahankali Gudi", "religion": "hindu"}}, {"type": "node", "id": 2623574124, "lat": 17.4404266, "lon": 78.4932206}, {"type": "node", "id": 2623574125, "lat": 17.4407004, "lon": 78.4933037}, {"type": "node", "id": 2623574126, "lat": 17.4405647, "lon": 78.4937114}, {"type": "node", "id": 2623574127, "lat": 17.440662, "lon": 78.4937409}, {"type": "node", "id": 2623574128, "lat": 17.4406338, "lon": 78.4938133}, {"type": "node", "id": 2623574129, "lat": 17.4402756, "lon": 78.4936899}, {"type": "node", "id": 2623574130, "lat": 17.4402244, "lon": 78.4936658}, {"type": "node", "id": 2623574131, "lat": 17.4403703, "lon": 78.4932018}, {"type": "node", "id": 2710845165, "lat": 17.4425125, "lon": 78.4951502}, {"type": "node", "id": 2710845166, "lat": 17.4424902, "lon": 78.4954529}, {"type": "node", "id": 2710845167, "lat": 17.442294, "lon": 78.4954327}, {"type": "node", "id": 2710845168, "lat": 17.4423099, "lon": 78.4951302}, {"type": "node", "id": 2710846678, "lat": 17.4418625, "lon": 78.4956866, "tags": {"amenity": "restaurant", "name": "udupi tiffins", "name:te": "\u0c09\u0c21\u0c41\u0c2a\u0c3f \u0c1f\u0c3f\u0c2b\u0c3f\u0c28\u0c4d\u0c38\u0c4d"}}, {"type": "node", "id": 2710850786, "lat": 17.4417807, "lon": 78.4951618, "tags": {"amenity": "atm", "name": "SBI atm"}}, {"type": "node", "id": 2921460710, "lat": 17.4410924, "lon": 78.4930006}, {"type": "node", "id": 2921460711, "lat": 17.4411501, "lon": 78.493167}, {"type": "node", "id": 2921460712, "lat": 17.4414291, "lon": 78.4917552}, {"type": "node", "id": 2921460713, "lat": 17.4429685, "lon": 78.493515}, {"type": "node", "id": 2921460715, "lat": 17.443007, "lon": 78.4918157}, {"type": "node", "id": 3010555002, "lat": 17.4564567, "lon": 78.4987648, "tags": {"amenity": "bank", "atm": "yes", "brand": "HDFC Bank", "brand:wikidata": "Q631047", "brand:wikipedia": "en:HDFC Bank", "name": "HDFC Bank", "short_name": "HDFC", "website": "https://www.hdfcbank.com"}}, {"type": "node", "id": 3147189451, "lat": 17.4400747, "lon": 78.495429}, {"type": "node", "id": 3147189452, "lat": 17.4402108, "lon": 78.4956673}, {"type": "node", "id": 3200948982, "lat": 17.4367067, "lon": 78.516726, "tags": {"amenity": "fuel", "name": "unigas"}}, {"type": "node", "id": 3393374929, "lat": 17.4413866, "lon": 78.4919122}, {"type": "node", "id": 3485578427, "lat": 17.4405532, "lon": 78.4956244}, {"type": "node", "id": 3485578428, "lat": 17.440522, "lon": 78.4956927}, {"type": "node", "id": 3485578429, "lat": 17.4404652, "lon": 78.49566}, {"type": "node", "id": 3485578430, "lat": 17.4404964, "lon": 78.4955876}, {"type": "node", "id": 3485594751, "lat": 17.4504535, "lon": 78.4984533}, {"type": "node", "id": 3485594752, "lat": 17.4504527, "lon": 78.498686}, {"type": "node", "id": 3485594753, "lat": 17.450333, "lon": 78.4986907}, {"type": "node", "id": 3485594754, "lat": 17.4503394, "lon": 78.4984494}, {"type": "node", "id": 3485602743, "lat": 17.450794, "lon": 78.4980215}, {"type": "node", "id": 3485602744, "lat": 17.4509123, "lon": 78.4981632}, {"type": "node", "id": 3485602745, "lat": 17.4509467, "lon": 78.4981678}, {"type": "node", "id": 3485602746, "lat": 17.4509487, "lon": 78.4980413}, {"type": "node", "id": 3485621635, "lat": 17.4536418, "lon": 78.500622}, {"type": "node", "id": 3485621636, "lat": 17.4535583, "lon": 78.5007516}, {"type": "node", "id": 3485621637, "lat": 17.4534714, "lon": 78.5007008}, {"type": "node", "id": 3485621638, "lat": 17.453546, "lon": 78.5005625}, {"type": "node", "id": 3506878893, "lat": 17.443833, "lon": 78.5175911, "tags": {"amenity": "cafe", "cuisine": "regional", "internet_access": "no", "name": "ganga jamuna hotel"}}, {"type": "node", "id": 3506878894, "lat": 17.44165, "lon": 78.5218514, "tags": {"addr:district": "Hyderabad", "addr:full": "Sai Ranga Towers, North Lallaguda, Tukaram Gate", "addr:postcode": "500026", "addr:state": "Telangana", "amenity": "hospital", "building": "yes", "email": "meenahospital@yahoo.com", "name": "Meena Hospital", "phone": "040 2773 0674", "source": "OpenGovernmentData", "website": "www.meenahospital.in"}}, {"type": "node", "id": 3506878895, "lat": 17.4451064, "lon": 78.5174812, "tags": {"amenity": "police", "name": "Tukaram Gate Police Station"}}, {"type": "node", "id": 3614343336, "lat": 17.4664211, "lon": 78.4934222}, {"type": "node", "id": 3614343360, "lat": 17.4664535, "lon": 78.4932932}, {"type": "node", "id": 3614343435, "lat": 17.4667495, "lon": 78.4936124}, {"type": "node", "id": 3614343467, "lat": 17.4668503, "lon": 78.4936458}, {"type": "node", "id": 3614343488, "lat": 17.4669071, "lon": 78.4934171}, {"type": "node", "id": 3616810583, "lat": 17.4586918, "lon": 78.4998171}, {"type": "node", "id": 3616810590, "lat": 17.4587198, "lon": 78.499644}, {"type": "node", "id": 3616810622, "lat": 17.4588396, "lon": 78.4998434}, {"type": "node", "id": 3616810636, "lat": 17.4588676, "lon": 78.4996703}, {"type": "node", "id": 3616812576, "lat": 17.4609161, "lon": 78.5007913}, {"type": "node", "id": 3616812628, "lat": 17.4609846, "lon": 78.5006814}, {"type": "node", "id": 3616812638, "lat": 17.4610014, "lon": 78.5008496}, {"type": "node", "id": 3616812679, "lat": 17.4610698, "lon": 78.5007397}, {"type": "node", "id": 3616812819, "lat": 17.4613454, "lon": 78.5008264}, {"type": "node", "id": 3616812894, "lat": 17.4615015, "lon": 78.5005758}, {"type": "node", "id": 3616812896, "lat": 17.461508, "lon": 78.5009377}, {"type": "node", "id": 3616812949, "lat": 17.4616641, "lon": 78.500687}, {"type": "node", "id": 3617108536, "lat": 17.4352292, "lon": 78.51783}, {"type": "node", "id": 3617108538, "lat": 17.4352392, "lon": 78.5178785}, {"type": "node", "id": 3617108546, "lat": 17.4352653, "lon": 78.5178218}, {"type": "node", "id": 3617108549, "lat": 17.4352753, "lon": 78.5178704}, {"type": "node", "id": 3617415505, "lat": 17.4605308, "lon": 78.4931817}, {"type": "node", "id": 3617415507, "lat": 17.4605916, "lon": 78.493077}, {"type": "node", "id": 3617415510, "lat": 17.4606736, "lon": 78.4932727}, {"type": "node", "id": 3617415514, "lat": 17.4607343, "lon": 78.4931679}, {"type": "node", "id": 3618962720, "lat": 17.4411012, "lon": 78.5043377}, {"type": "node", "id": 3618962732, "lat": 17.4411245, "lon": 78.5041274}, {"type": "node", "id": 3618962770, "lat": 17.4412309, "lon": 78.5043536}, {"type": "node", "id": 3618962778, "lat": 17.4412542, "lon": 78.5041432}, {"type": "node", "id": 3618963151, "lat": 17.4414164, "lon": 78.4973343}, {"type": "node", "id": 3618963164, "lat": 17.4414973, "lon": 78.4967979}, {"type": "node", "id": 3618963914, "lat": 17.4420799, "lon": 78.4974727}, {"type": "node", "id": 3618963919, "lat": 17.4421843, "lon": 78.4969024}, {"type": "node", "id": 3619024171, "lat": 17.4333937, "lon": 78.5200306}, {"type": "node", "id": 3619024172, "lat": 17.4334087, "lon": 78.5198653}, {"type": "node", "id": 3619024183, "lat": 17.4335711, "lon": 78.5200482}, {"type": "node", "id": 3619024185, "lat": 17.433586, "lon": 78.5198829}, {"type": "node", "id": 3619024342, "lat": 17.4342494, "lon": 78.5188036}, {"type": "node", "id": 3619024343, "lat": 17.4342559, "lon": 78.518723}, {"type": "node", "id": 3619024358, "lat": 17.4343264, "lon": 78.5188104}, {"type": "node", "id": 3619024359, "lat": 17.4343329, "lon": 78.5187298}, {"type": "node", "id": 3619024507, "lat": 17.4347296, "lon": 78.5200176}, {"type": "node", "id": 3619024517, "lat": 17.4347506, "lon": 78.5199176}, {"type": "node", "id": 3619024543, "lat": 17.4347824, "lon": 78.519964}, {"type": "node", "id": 3619024549, "lat": 17.4347977, "lon": 78.5198718}, {"type": "node", "id": 3619024560, "lat": 17.4348136, "lon": 78.5201087}, {"type": "node", "id": 3619024581, "lat": 17.4348615, "lon": 78.5200427}, {"type": "node", "id": 3619024585, "lat": 17.4348664, "lon": 78.520055}, {"type": "node", "id": 3619024609, "lat": 17.4349085, "lon": 78.5199969}, {"type": "node", "id": 3619028596, "lat": 17.4577351, "lon": 78.4933616}, {"type": "node", "id": 3619028599, "lat": 17.457753, "lon": 78.4931264}, {"type": "node", "id": 3619028602, "lat": 17.4578386, "lon": 78.4933702}, {"type": "node", "id": 3619028604, "lat": 17.4578564, "lon": 78.493135}, {"type": "node", "id": 3619549990, "lat": 17.4349313, "lon": 78.5065075}, {"type": "node", "id": 3619550003, "lat": 17.4350139, "lon": 78.5067982}, {"type": "node", "id": 3619550048, "lat": 17.4354726, "lon": 78.5063385}, {"type": "node", "id": 3619550068, "lat": 17.4355552, "lon": 78.5066292}, {"type": "node", "id": 3624601015, "lat": 17.4389054, "lon": 78.4982112}, {"type": "node", "id": 3624601016, "lat": 17.4388993, "lon": 78.4983044}, {"type": "node", "id": 3624601017, "lat": 17.439031, "lon": 78.4982202}, {"type": "node", "id": 3624601018, "lat": 17.4390249, "lon": 78.4983134}, {"type": "node", "id": 3624601039, "lat": 17.439918, "lon": 78.498165}, {"type": "node", "id": 3624601040, "lat": 17.439957, "lon": 78.4980232}, {"type": "node", "id": 3624601045, "lat": 17.4400296, "lon": 78.4982653}, {"type": "node", "id": 3624601046, "lat": 17.4400465, "lon": 78.4982039}, {"type": "node", "id": 3624601048, "lat": 17.4400747, "lon": 78.4980588}, {"type": "node", "id": 3624601050, "lat": 17.4400933, "lon": 78.497991}, {"type": "node", "id": 3624601058, "lat": 17.4402084, "lon": 78.4983194}, {"type": "node", "id": 3624601063, "lat": 17.4402829, "lon": 78.4980483}, {"type": "node", "id": 3626596097, "lat": 17.4510306, "lon": 78.5248682}, {"type": "node", "id": 3626596100, "lat": 17.4510697, "lon": 78.5247311}, {"type": "node", "id": 3626596110, "lat": 17.451092, "lon": 78.5248908}, {"type": "node", "id": 3626596112, "lat": 17.451127, "lon": 78.5247475}, {"type": "node", "id": 3652228398, "lat": 17.4443109, "lon": 78.4987676}, {"type": "node", "id": 3652228414, "lat": 17.4443773, "lon": 78.498435}, {"type": "node", "id": 3652228416, "lat": 17.4444515, "lon": 78.4987985}, {"type": "node", "id": 3652228418, "lat": 17.4445179, "lon": 78.4984659}, {"type": "node", "id": 3652375258, "lat": 17.4603828, "lon": 78.4985692}, {"type": "node", "id": 3652375262, "lat": 17.4604008, "lon": 78.4985206}, {"type": "node", "id": 3652375263, "lat": 17.4604062, "lon": 78.4985858}, {"type": "node", "id": 3652375265, "lat": 17.4604111, "lon": 78.4986113}, {"type": "node", "id": 3652375266, "lat": 17.4604147, "lon": 78.4985233}, {"type": "node", "id": 3652375267, "lat": 17.460426, "lon": 78.498627}, {"type": "node", "id": 3652375271, "lat": 17.46044, "lon": 78.4986788}, {"type": "node", "id": 3652375275, "lat": 17.4604807, "lon": 78.4984272}, {"type": "node", "id": 3652375283, "lat": 17.4605478, "lon": 78.4986823}, {"type": "node", "id": 3652375285, "lat": 17.4605692, "lon": 78.4986309}, {"type": "node", "id": 3652375290, "lat": 17.4606033, "lon": 78.4985883}, {"type": "node", "id": 3652375294, "lat": 17.460614, "lon": 78.4985277}, {"type": "node", "id": 3652375302, "lat": 17.4606518, "lon": 78.4985306}, {"type": "node", "id": 3652375304, "lat": 17.4606596, "lon": 78.4984364}, {"type": "node", "id": 3653736746, "lat": 17.443661, "lon": 78.4987084}, {"type": "node", "id": 3653736755, "lat": 17.44372, "lon": 78.4984969}, {"type": "node", "id": 3653736768, "lat": 17.4437918, "lon": 78.4984828}, {"type": "node", "id": 3653736775, "lat": 17.4438908, "lon": 78.4984676}, {"type": "node", "id": 3653736784, "lat": 17.4441044, "lon": 78.498902}, {"type": "node", "id": 3653736798, "lat": 17.4441748, "lon": 78.4984535}, {"type": "node", "id": 3654090579, "lat": 17.4462768, "lon": 78.4956733}, {"type": "node", "id": 3654090580, "lat": 17.4464443, "lon": 78.4958278}, {"type": "node", "id": 3654090581, "lat": 17.4465039, "lon": 78.4957568}, {"type": "node", "id": 3654090582, "lat": 17.4465515, "lon": 78.4953461}, {"type": "node", "id": 3654090583, "lat": 17.4465704, "lon": 78.4958181}, {"type": "node", "id": 3654090586, "lat": 17.4467855, "lon": 78.495562}, {"type": "node", "id": 3654091826, "lat": 17.4511472, "lon": 78.4960864}, {"type": "node", "id": 3655193068, "lat": 17.4401606, "lon": 78.4976879}, {"type": "node", "id": 3655193071, "lat": 17.4401869, "lon": 78.4971182}, {"type": "node", "id": 3655193075, "lat": 17.4402251, "lon": 78.4974368}, {"type": "node", "id": 3655193081, "lat": 17.4402523, "lon": 78.4969569}, {"type": "node", "id": 3655193099, "lat": 17.4403352, "lon": 78.4977372}, {"type": "node", "id": 3655193114, "lat": 17.4403997, "lon": 78.497486}, {"type": "node", "id": 3655194041, "lat": 17.4405223, "lon": 78.4972677}, {"type": "node", "id": 3655194060, "lat": 17.4405877, "lon": 78.4971065}, {"type": "node", "id": 3655194661, "lat": 17.4489638, "lon": 78.4930947}, {"type": "node", "id": 3655194664, "lat": 17.4490588, "lon": 78.4928975}, {"type": "node", "id": 3655194671, "lat": 17.4490345, "lon": 78.49323}, {"type": "node", "id": 3655194674, "lat": 17.4493436, "lon": 78.4936872}, {"type": "node", "id": 3655194679, "lat": 17.4499508, "lon": 78.4938061}, {"type": "node", "id": 3655194680, "lat": 17.450025, "lon": 78.4933005}, {"type": "node", "id": 3655195479, "lat": 17.4615499, "lon": 78.4968415}, {"type": "node", "id": 3655195480, "lat": 17.4615543, "lon": 78.4967815}, {"type": "node", "id": 3655195507, "lat": 17.4616906, "lon": 78.4968528}, {"type": "node", "id": 3655195510, "lat": 17.461695, "lon": 78.4967928}, {"type": "node", "id": 3655369027, "lat": 17.441767, "lon": 78.5041126}, {"type": "node", "id": 3655369029, "lat": 17.441783, "lon": 78.5037008}, {"type": "node", "id": 3655369039, "lat": 17.4419305, "lon": 78.5041196}, {"type": "node", "id": 3655369040, "lat": 17.4419317, "lon": 78.5040883}, {"type": "node", "id": 3655369061, "lat": 17.4420672, "lon": 78.5040941}, {"type": "node", "id": 3655369064, "lat": 17.4420821, "lon": 78.5037136}, {"type": "node", "id": 3658594093, "lat": 17.4468051, "lon": 78.4956624}, {"type": "node", "id": 3658594095, "lat": 17.4468186, "lon": 78.4951489}, {"type": "node", "id": 3658594100, "lat": 17.4468816, "lon": 78.4951507}, {"type": "node", "id": 3658594101, "lat": 17.4468841, "lon": 78.4950546}, {"type": "node", "id": 3658594102, "lat": 17.4469016, "lon": 78.4954001}, {"type": "node", "id": 3658594103, "lat": 17.4469037, "lon": 78.4953173}, {"type": "node", "id": 3658594110, "lat": 17.4470402, "lon": 78.4956692}, {"type": "node", "id": 3658594112, "lat": 17.4470472, "lon": 78.4954043}, {"type": "node", "id": 3658594114, "lat": 17.4470493, "lon": 78.4953215}, {"type": "node", "id": 3658594115, "lat": 17.4470562, "lon": 78.4950595}, {"type": "node", "id": 3658594192, "lat": 17.4477594, "lon": 78.4930366}, {"type": "node", "id": 3658594208, "lat": 17.4479409, "lon": 78.4925711}, {"type": "node", "id": 3658594218, "lat": 17.4480068, "lon": 78.4932867}, {"type": "node", "id": 3658594226, "lat": 17.4480687, "lon": 78.4931745}, {"type": "node", "id": 3658594230, "lat": 17.4480863, "lon": 78.4932058}, {"type": "node", "id": 3658594233, "lat": 17.4481194, "lon": 78.4932378}, {"type": "node", "id": 3658594237, "lat": 17.4481454, "lon": 78.493036}, {"type": "node", "id": 3658594238, "lat": 17.4481566, "lon": 78.493459}, {"type": "node", "id": 3658594241, "lat": 17.4481617, "lon": 78.4931901}, {"type": "node", "id": 3658594246, "lat": 17.4481922, "lon": 78.4926787}, {"type": "node", "id": 3658594247, "lat": 17.4481996, "lon": 78.4931362}, {"type": "node", "id": 3658594251, "lat": 17.44822, "lon": 78.4926075}, {"type": "node", "id": 3658594252, "lat": 17.4482245, "lon": 78.4930603}, {"type": "node", "id": 3658594254, "lat": 17.4482478, "lon": 78.4927136}, {"type": "node", "id": 3658594258, "lat": 17.4482793, "lon": 78.4926329}, {"type": "node", "id": 3658594262, "lat": 17.4483844, "lon": 78.4930746}, {"type": "node", "id": 3658594266, "lat": 17.4484757, "lon": 78.493156}, {"type": "node", "id": 3658643016, "lat": 17.4571648, "lon": 78.4955781}, {"type": "node", "id": 3658643017, "lat": 17.4572739, "lon": 78.4955214}, {"type": "node", "id": 3658643018, "lat": 17.4572646, "lon": 78.4957888}, {"type": "node", "id": 3658643125, "lat": 17.4573737, "lon": 78.495732}, {"type": "node", "id": 3659715181, "lat": 17.4344768, "lon": 78.5008386}, {"type": "node", "id": 3659715182, "lat": 17.4344911, "lon": 78.5005875}, {"type": "node", "id": 3659715183, "lat": 17.4346905, "lon": 78.5008519}, {"type": "node", "id": 3659715184, "lat": 17.4347048, "lon": 78.5006008}, {"type": "node", "id": 3662779513, "lat": 17.456691, "lon": 78.4951964}, {"type": "node", "id": 3662779514, "lat": 17.4566799, "lon": 78.4954442}, {"type": "node", "id": 3662779515, "lat": 17.4563976, "lon": 78.4954302}, {"type": "node", "id": 3662779516, "lat": 17.4564088, "lon": 78.4951824}, {"type": "node", "id": 4123648934, "lat": 17.4311283, "lon": 78.5131637}, {"type": "node", "id": 4123648935, "lat": 17.4313314, "lon": 78.512712}, {"type": "node", "id": 4123648937, "lat": 17.431363, "lon": 78.5132708}, {"type": "node", "id": 4123648944, "lat": 17.4315536, "lon": 78.5128348}, {"type": "node", "id": 4146007084, "lat": 17.4387847, "lon": 78.4987364}, {"type": "node", "id": 4146007191, "lat": 17.438834, "lon": 78.4985547}, {"type": "node", "id": 4146007201, "lat": 17.4388915, "lon": 78.4987682}, {"type": "node", "id": 4146007203, "lat": 17.4389407, "lon": 78.4985865}, {"type": "node", "id": 4146007233, "lat": 17.439599, "lon": 78.4979234}, {"type": "node", "id": 4146007235, "lat": 17.4398288, "lon": 78.4980258}, {"type": "node", "id": 4146007239, "lat": 17.4394916, "lon": 78.498188}, {"type": "node", "id": 4146007241, "lat": 17.4397215, "lon": 78.4982904}, {"type": "node", "id": 4146434972, "lat": 17.440926, "lon": 78.5008028}, {"type": "node", "id": 4146434975, "lat": 17.4409522, "lon": 78.5006144}, {"type": "node", "id": 4146434994, "lat": 17.4412203, "lon": 78.5008477}, {"type": "node", "id": 4146434995, "lat": 17.4412465, "lon": 78.5006593}, {"type": "node", "id": 4146479964, "lat": 17.4399864, "lon": 78.4977331}, {"type": "node", "id": 4146479965, "lat": 17.4400065, "lon": 78.4976718}, {"type": "node", "id": 4146479975, "lat": 17.4401054, "lon": 78.497776}, {"type": "node", "id": 4146479976, "lat": 17.4401255, "lon": 78.4977148}, {"type": "node", "id": 4146795959, "lat": 17.4420125, "lon": 78.5023027}, {"type": "node", "id": 4146795960, "lat": 17.4420142, "lon": 78.5022431}, {"type": "node", "id": 4146795962, "lat": 17.4420331, "lon": 78.5023203}, {"type": "node", "id": 4146795963, "lat": 17.4420335, "lon": 78.5023034}, {"type": "node", "id": 4146795964, "lat": 17.4420338, "lon": 78.502171}, {"type": "node", "id": 4146795966, "lat": 17.4422464, "lon": 78.5021776}, {"type": "node", "id": 4146795969, "lat": 17.4422477, "lon": 78.5023269}, {"type": "node", "id": 4146795970, "lat": 17.442249, "lon": 78.5020841}, {"type": "node", "id": 4146795973, "lat": 17.4423273, "lon": 78.5021725}, {"type": "node", "id": 4146795975, "lat": 17.4423267, "lon": 78.5023293}, {"type": "node", "id": 4146795976, "lat": 17.4423298, "lon": 78.5020866}, {"type": "node", "id": 4146795979, "lat": 17.4423846, "lon": 78.5021936}, {"type": "node", "id": 4146795980, "lat": 17.4423851, "lon": 78.5021742}, {"type": "node", "id": 4146795983, "lat": 17.4425192, "lon": 78.5023352}, {"type": "node", "id": 4146795984, "lat": 17.442523, "lon": 78.5021978}, {"type": "node", "id": 4148327367, "lat": 17.4393543, "lon": 78.4938563}, {"type": "node", "id": 4148327368, "lat": 17.4393769, "lon": 78.4937519}, {"type": "node", "id": 4148327370, "lat": 17.4393847, "lon": 78.4937545}, {"type": "node", "id": 4148327371, "lat": 17.4394003, "lon": 78.4938714}, {"type": "node", "id": 4148327372, "lat": 17.4394106, "lon": 78.4936388}, {"type": "node", "id": 4148327374, "lat": 17.4394234, "lon": 78.4936429}, {"type": "node", "id": 4148327377, "lat": 17.4394383, "lon": 78.4935929}, {"type": "node", "id": 4148327380, "lat": 17.4394643, "lon": 78.4936569}, {"type": "node", "id": 4148327389, "lat": 17.4395346, "lon": 78.4936799}, {"type": "node", "id": 4148327390, "lat": 17.4395497, "lon": 78.4936295}, {"type": "node", "id": 4148957361, "lat": 17.4352557, "lon": 78.493343}, {"type": "node", "id": 4148957372, "lat": 17.4352858, "lon": 78.493158}, {"type": "node", "id": 4148957388, "lat": 17.4353533, "lon": 78.4933605}, {"type": "node", "id": 4148957397, "lat": 17.4353834, "lon": 78.4931754}, {"type": "node", "id": 4187300504, "lat": 17.4395483, "lon": 78.5048737, "tags": {"addr:district": "Hyderabad", "addr:full": "Pollicetty Towers, St.John's Road, Bhagyanagar Colony, Beside Keyes High School, Secunderabad", "addr:postcode": "500003", "addr:state": "Telangana", "amenity": "hospital", "emergency": "yes", "healthcare": "hospital", "medical_system": "Allopathic", "name": "Apollo Hospital", "operator:type": "private", "phone": "040 27718888", "source": "OpenGovernmentData", "website": "https://www.apollohospitals.com"}}, {"type": "node", "id": 4187311996, "lat": 17.4412403, "lon": 78.5006168, "tags": {"amenity": "bank"}}, {"type": "node", "id": 4192845079, "lat": 17.4605274, "lon": 78.4990096, "tags": {"amenity": "place_of_worship", "name": "Temple", "religion": "hindu"}}, {"type": "node", "id": 4225073689, "lat": 17.4413935, "lon": 78.4979088, "tags": {"amenity": "bank", "atm": "yes", "brand": "ICICI Bank", "brand:wikidata": "Q1653258", "brand:wikipedia": "en:ICICI Bank", "description": "Secunderabad Branch", "name": "ICICI Bank", "name:en": "ICICI Bank", "short_name": "ICICI", "website": "https://www.icicibank.com"}}, {"type": "node", "id": 4225073691, "lat": 17.4416635, "lon": 78.4982768, "tags": {"amenity": "bar", "name": "Madhushala Bar", "outdoor_seating": "no"}}, {"type": "node", "id": 4225073694, "lat": 17.4405548, "lon": 78.4977456, "tags": {"amenity": "bank", "brand": "State Bank of India", "brand:wikidata": "Q1340361", "brand:wikipedia": "en:State Bank of India", "name": "State Bank of India", "name:te": "\u0c38\u0c4d\u0c1f\u0c47\u0c1f\u0c4d \u0c2c\u0c4d\u0c2f\u0c3e\u0c02\u0c15\u0c4d \u0c05\u0c2b\u0c4d \u0c07\u0c02\u0c21\u0c3f\u0c2f\u0c3e", "short_name": "SBI"}}, {"type": "node", "id": 4366549489, "lat": 17.4377225, "lon": 78.521976, "tags": {"amenity": "hospital", "healthcare": "hospital", "name:en": "South Central Railway Central Hospital Lallaguda"}}, {"type": "node", "id": 4616437274, "lat": 17.4418737, "lon": 78.5021432, "tags": {"amenity": "place_of_worship", "denomination": "catholic", "name": "Divine Mercy Adoration Chapel", "religion": "christian"}}, {"type": "node", "id": 4616439356, "lat": 17.4420317, "lon": 78.5022436}, {"type": "node", "id": 4695120289, "lat": 17.4591464, "lon": 78.494254, "tags": {"amenity": "community_centre", "internet_access": "wlan", "name": "Gunrock Enclave Community Center", "name:en": "Gunrock Enclave Community Center"}}, {"type": "node", "id": 4715099192, "lat": 17.4439091, "lon": 78.5043433, "tags": {"addr:district": "Hyderabad", "addr:full": "241, Uma Plaza, Road No. 9, West Maredpally, Secunderabad", "addr:postcode": "500026", "addr:state": "Telangana", "alt_name": "Pushpagiri Vitreo Retinal Institute", "amenity": "hospital", "contact:email": "pvri.india@gmail.com", "contact:phone": "040-27804949/5959", "healthcare": "hospital", "name": "Pushpagiri Eye Institute", "shop": "optician", "source": "OpenGovernmentData", "website": "https://pvri.org"}}, {"type": "node", "id": 4914585975, "lat": 17.4334742, "lon": 78.4969684}, {"type": "node", "id": 4914585976, "lat": 17.4334588, "lon": 78.4971213}, {"type": "node", "id": 4914585977, "lat": 17.4334895, "lon": 78.4973413}, {"type": "node", "id": 4914585978, "lat": 17.4339169, "lon": 78.4973198}, {"type": "node", "id": 4914585979, "lat": 17.434183, "lon": 78.4972769}, {"type": "node", "id": 4914585980, "lat": 17.434618, "lon": 78.4970409}, {"type": "node", "id": 4914585981, "lat": 17.4347818, "lon": 78.4967807}, {"type": "node", "id": 4914585982, "lat": 17.4346871, "lon": 78.4965795}, {"type": "node", "id": 4914585983, "lat": 17.4348816, "lon": 78.4965017}, {"type": "node", "id": 4914585984, "lat": 17.4349584, "lon": 78.4965178}, {"type": "node", "id": 4914585985, "lat": 17.4349942, "lon": 78.4962469}, {"type": "node", "id": 4914585986, "lat": 17.4348202, "lon": 78.4962711}, {"type": "node", "id": 4914585987, "lat": 17.4337608, "lon": 78.4961396}, {"type": "node", "id": 4914585999, "lat": 17.4331722, "lon": 78.5044464}, {"type": "node", "id": 4914586000, "lat": 17.4329649, "lon": 78.5036311}, {"type": "node", "id": 4914586001, "lat": 17.4327397, "lon": 78.5036927}, {"type": "node", "id": 4914586010, "lat": 17.4344354, "lon": 78.502183}, {"type": "node", "id": 4914586011, "lat": 17.4343903, "lon": 78.5021424}, {"type": "node", "id": 4914586012, "lat": 17.4342572, "lon": 78.5015818}, {"type": "node", "id": 4914586013, "lat": 17.4341062, "lon": 78.5012392}, {"type": "node", "id": 4914586014, "lat": 17.4341235, "lon": 78.5020398}, {"type": "node", "id": 4914586015, "lat": 17.4344184, "lon": 78.5022631}, {"type": "node", "id": 4914586016, "lat": 17.4344696, "lon": 78.5020217}, {"type": "node", "id": 4914586017, "lat": 17.4343161, "lon": 78.5014129}, {"type": "node", "id": 4914586018, "lat": 17.4342291, "lon": 78.5012358}, {"type": "node", "id": 4914586019, "lat": 17.4340071, "lon": 78.5013156}, {"type": "node", "id": 4914586020, "lat": 17.4339693, "lon": 78.5014263}, {"type": "node", "id": 4952633421, "lat": 17.4551627, "lon": 78.5088274, "tags": {"addr:housenumber": "8A", "addr:postcode": "500026", "addr:street": "Santoshima Colony", "amenity": "car_rental", "email": "info@cabulo.in", "internet_access": "wlan", "name": "Cabulo", "name:en": "Cabulo", "opening_hours": "24/7", "operator": "Durga Prasad", "phone": "8886555337", "website": "https://www.cabulo.in/"}}, {"type": "node", "id": 5199965768, "lat": 17.4381129, "lon": 78.5096602}, {"type": "node", "id": 5199965769, "lat": 17.4381016, "lon": 78.50962}, {"type": "node", "id": 5199965770, "lat": 17.4380782, "lon": 78.509586}, {"type": "node", "id": 5199965771, "lat": 17.4380454, "lon": 78.509562}, {"type": "node", "id": 5199965772, "lat": 17.4380068, "lon": 78.5095508}, {"type": "node", "id": 5199965773, "lat": 17.4379669, "lon": 78.5095535}, {"type": "node", "id": 5199965774, "lat": 17.437933, "lon": 78.5097817}, {"type": "node", "id": 5199965775, "lat": 17.4379681, "lon": 78.5097965}, {"type": "node", "id": 5199965776, "lat": 17.4380058, "lon": 78.5097991}, {"type": "node", "id": 5199965777, "lat": 17.4380424, "lon": 78.5097892}, {"type": "node", "id": 5199965778, "lat": 17.4380742, "lon": 78.5097677}, {"type": "node", "id": 5199965779, "lat": 17.438098, "lon": 78.5097369}, {"type": "node", "id": 5199965780, "lat": 17.4379302, "lon": 78.50957}, {"type": "node", "id": 5199965781, "lat": 17.4379007, "lon": 78.5095983}, {"type": "node", "id": 5199965782, "lat": 17.4378818, "lon": 78.5096352}, {"type": "node", "id": 5199965783, "lat": 17.4378756, "lon": 78.5096766}, {"type": "node", "id": 5199965784, "lat": 17.4378829, "lon": 78.5097179}, {"type": "node", "id": 5199965785, "lat": 17.4379028, "lon": 78.5097542}, {"type": "node", "id": 5199965786, "lat": 17.4381113, "lon": 78.5096998}, {"type": "node", "id": 5289026745, "lat": 17.4415788, "lon": 78.5005956, "tags": {"amenity": "fuel", "brand": "Bharat Petroleum", "brand:wikidata": "Q854826", "brand:wikipedia": "en:Bharat Petroleum", "name": "Bharat Petroleum"}}, {"type": "node", "id": 5289033245, "lat": 17.4389161, "lon": 78.5031436, "tags": {"amenity": "school", "name": "St. Mary's High School"}}, {"type": "node", "id": 5289289911, "lat": 17.4412304, "lon": 78.5005384, "tags": {"amenity": "fast_food", "brand": "Domino's", "brand:ks": "\u0688\u0648\u0645\u06cc\u0646\u0648\u0632", "brand:pa": "\u0a21\u0a4b\u0a2e\u0a40\u0a28\u0a4b\u0a1c\u0a3c", "brand:ur": "\u0688\u0648\u0645\u06cc\u0646\u0648\u0632", "brand:wikidata": "Q839466", "brand:wikipedia": "en:Domino's Pizza", "cuisine": "pizza", "name": "Domino's", "name:ks": "\u0688\u0648\u0645\u06cc\u0646\u0648\u0632", "name:pa": "\u0a21\u0a4b\u0a2e\u0a40\u0a28\u0a4b\u0a1c\u0a3c", "name:ur": "\u0688\u0648\u0645\u06cc\u0646\u0648\u0632", "takeaway": "yes"}}, {"type": "node", "id": 5289291959, "lat": 17.4416613, "lon": 78.500761, "tags": {"amenity": "fast_food", "brand": "Subway", "brand:pa": "\u0a38\u0a2c\u0a35\u0a47\u0a05", "brand:ur": "\u0633\u0628 \u0648\u06d2", "brand:wikidata": "Q244457", "brand:wikipedia": "en:Subway (restaurant)", "cuisine": "sandwich", "name": "Subway", "name:pa": "\u0a38\u0a2c\u0a35\u0a47\u0a05", "name:ur": "\u0633\u0628 \u0648\u06d2", "takeaway": "yes"}}, {"type": "node", "id": 5434420849, "lat": 17.4388588, "lon": 78.5027097, "tags": {"amenity": "college", "name": "st marys college of education", "name:te": "\u0c38\u0c47\u0c02\u0c1f\u0c4d \u0c2e\u0c47\u0c30\u0c40 \u0c15\u0c3e\u0c32\u0c47\u0c1c\u0c40 \u0c05\u0c2b\u0c4d \u0c0e\u0c21\u0c4d\u0c2f\u0c41\u0c15\u0c47\u0c37\u0c28\u0c4d"}}, {"type": "node", "id": 5434424323, "lat": 17.4435713, "lon": 78.500774, "tags": {"amenity": "courthouse", "name": "City civil courts complex"}}, {"type": "node", "id": 5892276139, "lat": 17.4589185, "lon": 78.5003757, "tags": {"amenity": "ice_cream", "delivery": "yes", "name": "Oh so stoned", "outdoor_seating": "no", "takeaway": "yes"}}, {"type": "node", "id": 5957976497, "lat": 17.4309781, "lon": 78.5050407}, {"type": "node", "id": 5957976498, "lat": 17.4309625, "lon": 78.5050791}, {"type": "node", "id": 5957976499, "lat": 17.4309393, "lon": 78.5050667}, {"type": "node", "id": 5957976500, "lat": 17.4309576, "lon": 78.5050289}, {"type": "node", "id": 5957976501, "lat": 17.4308789, "lon": 78.504902}, {"type": "node", "id": 5957976502, "lat": 17.4308633, "lon": 78.5049259}, {"type": "node", "id": 5957976503, "lat": 17.430845, "lon": 78.5049141}, {"type": "node", "id": 5957976504, "lat": 17.430859, "lon": 78.504892}, {"type": "node", "id": 5957976505, "lat": 17.4309354, "lon": 78.5050742}, {"type": "node", "id": 5957976506, "lat": 17.430796, "lon": 78.5049925}, {"type": "node", "id": 5957976507, "lat": 17.4308375, "lon": 78.5049214}, {"type": "node", "id": 5957976508, "lat": 17.4308966, "lon": 78.5049541}, {"type": "node", "id": 5957976509, "lat": 17.43088, "lon": 78.5049863}, {"type": "node", "id": 5957976510, "lat": 17.4309951, "lon": 78.5049942}, {"type": "node", "id": 5957976511, "lat": 17.4309773, "lon": 78.5050314}, {"type": "node", "id": 5957976512, "lat": 17.4308896, "lon": 78.5049835}, {"type": "node", "id": 5957976513, "lat": 17.4309095, "lon": 78.5049468}, {"type": "node", "id": 5957976514, "lat": 17.430916, "lon": 78.5049248}, {"type": "node", "id": 5957976515, "lat": 17.4309015, "lon": 78.5049468}, {"type": "node", "id": 5957976516, "lat": 17.4308687, "lon": 78.5049276}, {"type": "node", "id": 5957976517, "lat": 17.4308829, "lon": 78.504904}, {"type": "node", "id": 6133852986, "lat": 17.4359573, "lon": 78.5187439, "tags": {"amenity": "cafe", "name": "Hotel Skylab Irani Chai Cafe"}}, {"type": "node", "id": 6154835392, "lat": 17.440235, "lon": 78.5077847, "tags": {"amenity": "cafe", "name": "Metro Bawarchi Irani Chai Cafe"}}, {"type": "node", "id": 6185287780, "lat": 17.4423939, "lon": 78.4967364}, {"type": "node", "id": 6185287781, "lat": 17.4428362, "lon": 78.4967541}, {"type": "node", "id": 6185287782, "lat": 17.4423957, "lon": 78.4973767}, {"type": "node", "id": 6185287783, "lat": 17.4428004, "lon": 78.4973622}, {"type": "node", "id": 6185287784, "lat": 17.4417011, "lon": 78.4973943}, {"type": "node", "id": 6205211485, "lat": 17.4404997, "lon": 78.4938821, "tags": {"amenity": "cafe", "name": "Blue Moon Irani Chai Cafe", "name:te": "\u0c2c\u0c4d\u0c32\u0c41 \u0c2e\u0c42\u0c28\u0c4d \u0c07\u0c30\u0c3e\u0c28\u0c40 \u0c1a\u0c3e\u0c2f\u0c4d \u0c15\u0c47\u0c2b\u0c4d"}}, {"type": "node", "id": 6280781168, "lat": 17.4486862, "lon": 78.5205441, "tags": {"addr:city": "Secunderabad-26, Telangana", "addr:housenumber": "Hyderabad Brahmasthanam, 844/1 East Marredpally,", "addr:postcode": "500026", "addr:street": "Mahendra Hills", "amenity": "place_of_worship", "name": "Mata Amritanandamayi Math"}}, {"type": "node", "id": 6479951769, "lat": 17.4553191, "lon": 78.5008281, "tags": {"addr:district": "Hyderabad", "addr:full": "Plot C 17, Vikrampuri Colony, Secunderabad", "addr:state": "Telangana", "amenity": "hospital", "contact:tollfree": "1801 2122", "fax": "040 27899090", "healthcare:speciality": "General Pediatrics;Neonatology;Pediatric Neurology;Anasthesia and Pain Management;Pediatric Gastroenterology;Pediatric Nephrology;Hematology & Oncology;ENT;Psychiatry;Pediatric Cardiology;Speech & Language Therapy;Physiotherapy and Rehabilitation Unit etc", "medical_system": "Allopathic", "name": "Rainbow Hospital for Women and Children, Secunderabad", "operator:type": "private", "phone": "040 27895050;040 27896060", "source": "OpenGovernmentData", "website": "https://www.rainbowhospitals.in/"}}, {"type": "node", "id": 6482396588, "lat": 17.4416735, "lon": 78.4984318, "tags": {"amenity": "atm", "opening_hours": "24/7", "operator": "HDFC"}}, {"type": "node", "id": 6484699042, "lat": 17.447062, "lon": 78.5082445, "tags": {"addr:district": "Hyderabad", "addr:full": "Road No.4, West Marredpally, Secunderabad", "addr:postcode": "500026", "addr:state": "Telangana", "amenity": "hospital", "email": "geethahospitals@gmail.com", "fax": "040 27716287", "name": "Geetha Multi Speciality Hospital", "phone": "040-27800703; 040-27801272; 040-27802138", "source": "OpenGovernmentData", "website": "https://www.geethahospitals.com/"}}, {"type": "node", "id": 6484867650, "lat": 17.4593374, "lon": 78.5004204, "tags": {"addr:district": "Hyderabad", "addr:full": "Plot No A-7, Vikrampuri Colony, Karkhana", "addr:postcode": "500009", "addr:state": "Telangana", "amenity": "hospital", "name": "Nest Children's Hospital", "source": "OpenGovernmentData"}}, {"type": "node", "id": 6484884147, "lat": 17.4396489, "lon": 78.4991692, "tags": {"addr:district": "Hyderabad", "addr:full": "9-1-192, St. Marys Road, Secunderabad", "addr:postcode": "500003", "addr:state": "Telangana", "amenity": "hospital", "email": "info@mamatafertility.com", "healthcare": "hospital", "name": "Mamata Fertility Hospital", "old_name": "Infertility Institute and Research Centre Pvt. Ltd (IIRC)", "phone": "040-45678899; 040-27701414; 040-27700150; 040-27719471", "source": "OpenGovernmentData", "website": "https://www.mamatafertility.com/"}}, {"type": "node", "id": 6485236733, "lat": 17.4500557, "lon": 78.5115261, "tags": {"addr:district": "Hyderabad", "addr:full": "Plot No 23 & 24, Sanjeev Hosping Colony East Marredpally", "addr:postcode": "500026", "addr:state": "Telangana", "amenity": "hospital", "name": "Tanvi Eye Center", "source": "OpenGovernmentData"}}, {"type": "node", "id": 6485663642, "lat": 17.4409578, "lon": 78.5020941, "tags": {"addr:district": "Hyderabad", "addr:full": "Plot No. 43, Opp. St Mary's Church, S.D Road", "addr:postcode": "500003", "addr:state": "Telangana", "amenity": "hospital", "healthcare": "hospital", "name": "Madhava Nursing Home", "source": "OpenGovernmentData"}}, {"type": "node", "id": 6485873602, "lat": 17.4350761, "lon": 78.5028817, "tags": {"addr:district": "Hyderabad", "addr:full": "9-4-269, Regimental Bazar, Opp Main Gate", "addr:postcode": "500025", "addr:state": "Telangana", "amenity": "hospital", "healthcare": "hospital", "name": "Saluja Hospital", "source": "OpenGovernmentData"}}, {"type": "node", "id": 6487281382, "lat": 17.4502892, "lon": 78.5099416, "tags": {"addr:district": "Secunderabad", "addr:full": "1st & 2nd Floor, Gude\u2019s Plaza, Above ICICI Bank, #77, Seshachala Colony, East Marredpally main Road", "addr:postcode": "500026", "addr:state": "Telangana", "amenity": "hospital", "name": "NephroPlus Dialysis Centre", "phone": "040-40063765", "source": "OpenGovernmentData", "website": "https://www.nephroplus.com/"}}, {"type": "node", "id": 6487654694, "lat": 17.4549634, "lon": 78.5087728, "tags": {"addr:district": "Hyderabad", "addr:full": "Plot No. 18, Indrapuri Railway Colony, West Marredpally", "addr:postcode": "500026", "addr:state": "Telangana", "amenity": "hospital", "fax": "040 27712131", "name": "Sree Maruthi Nursing Home", "source": "OpenGovernmentData"}}, {"type": "node", "id": 6487670042, "lat": 17.4565491, "lon": 78.5014417, "tags": {"addr:district": "Hyderabad", "addr:full": "E-30,31 Vikrampuri Colony", "addr:postcode": "500003", "addr:state": "Telangana", "amenity": "hospital", "fax": "27814173", "name": "Parvathi Multispeciality Hospital", "source": "OpenGovernmentData"}}, {"type": "node", "id": 6491348622, "lat": 17.4364471, "lon": 78.4961886, "tags": {"addr:district": "Hyderabad", "addr:full": "H.No. 7-1-684 & 685/A, Market Street, Secunderabad", "addr:postcode": "500003", "addr:state": "Telangana", "amenity": "hospital", "name": "Aravind Nursing Home", "source": "OpenGovernmentData"}}, {"type": "node", "id": 6494422626, "lat": 17.4458107, "lon": 78.504999, "tags": {"addr:city": "Hyderabad", "addr:district": "Rangareddy", "addr:full": "10-2-256, West Maredpally", "addr:postcode": "500026", "addr:state": "Telangana", "amenity": "hospital", "contact:phone": "04066329777; 27800716", "email": "secunderabadnursinghome@gmail.com", "fax": "27800717", "name": "SECUNDERABAD NURSING HOME", "operator:type": "private", "phone": "04040061181", "source": "OpenGovernmentData"}}, {"type": "node", "id": 6494810755, "lat": 17.4404883, "lon": 78.4978656, "tags": {"addr:district": "Hyderabad", "addr:full": "Door No 8-1-5/7, Janak Plaza, Clock Tower, Secunderabad", "addr:postcode": "500003", "addr:state": "Telangana", "amenity": "hospital", "fax": "0877 27801920", "health_facility:type": "Separate Divisions for Each Speciality;State Of The Art Operation Theatres;Post Op Lounge with Beds;Advanced Eye Care Equipment;Complete Range of Optical Frames and Lenses;Exclusive Childrens Eye Care;24 7 Pharmacy;Ambulance Services", "healthcare": "hospital", "healthcare:speciality": "Cataract Services;Refractive Surgery;Cornea Services;Glaucoma Services;Retina Services;Paediatric Ophthalmology and Squint Services;Oculoplasty Services;UVEITIS;Neuro Ophthalmology;Vision Rehabilitation Services;Computer Vision Syndrome Clinic", "medical_system": "Allopathic", "name": "Vasan Healthcare Private Limited, Secunderabad", "name:te": "\u0c35\u0c3e\u0c38\u0c28\u0c4d \u0c39\u0c46\u0c32\u0c4d\u0c24\u0c4d \u0c15\u0c47\u0c30\u0c4d \u0c2a\u0c4d\u0c30\u0c48\u0c35\u0c47\u0c1f\u0c4d \u0c32\u0c3f\u0c2e\u0c3f\u0c1f\u0c46\u0c21\u0c4d \u0c38\u0c3f\u0c15\u0c3f\u0c02\u0c26\u0c4d\u0c30\u0c3e\u0c2c\u0c3e\u0c26\u0c4d", "operator:type": "private", "phone": "040 30957400", "source": "OpenGovernmentData", "website": "www.vasaneye.com"}}, {"type": "node", "id": 6496953497, "lat": 17.4465502, "lon": 78.5133715, "tags": {"addr:district": "Hyderabad", "addr:full": "10-3-32/9/32, Near Tagore's Home Junior College, East Marredpally", "addr:postcode": "500026", "addr:state": "Telangana", "amenity": "hospital", "name": "Taraporewalla Nursing Home", "source": "OpenGovernmentData"}}, {"type": "node", "id": 6496960846, "lat": 17.4478066, "lon": 78.508915, "tags": {"addr:district": "Hyderabad", "addr:full": "10-3-4, Entrenchment Road, East Marredpally, Opp Playground, Secunderabad,", "addr:postcode": "500026", "addr:state": "Telangana", "amenity": "hospital", "email": "info@shenoyhospitals.com", "name": "Shenoy Nursing Home", "phone": "040 4151 9999", "source": "OpenGovernmentData", "website": "https://www.shenoyhospitals.com/"}}, {"type": "node", "id": 6498031548, "lat": 17.4381142, "lon": 78.5049681, "tags": {"addr:district": "Hyderabad", "addr:full": "10-3-72, St. John's Road, Opp Keyes High School, Chilakalguda, Secunderabad", "addr:postcode": "500025", "addr:state": "Telangana", "amenity": "hospital", "healthcare": "hospital", "name": "Shubhodaya Nursing Home", "source": "OpenGovernmentData"}}, {"type": "node", "id": 6498040562, "lat": 17.4620995, "lon": 78.5006364, "tags": {"addr:district": "Hyderabad", "addr:full": "59-1-2A, 1st Floor , Beside Police Station, Karkhana", "addr:postcode": "500009", "addr:state": "Telangana", "amenity": "hospital", "name": "Shekars Ent Hospital", "source": "OpenGovernmentData"}}, {"type": "node", "id": 6503243743, "lat": 17.4491013, "lon": 78.5272627, "tags": {"addr:district": "Hyderabad", "addr:full": "H. No-18-458/A, Opp Mallikarjuna Nagar Bus Stop, Malkajgiri", "addr:postcode": "500047", "addr:state": "Telangana", "amenity": "clinic", "name": "Eashwar Clinic", "source": "OpenGovernmentData"}}, {"type": "node", "id": 6505503898, "lat": 17.45035, "lon": 78.5034782, "tags": {"addr:district": "Hyderabad", "addr:full": "Street No:4, Road No:7, New Muncipal Park, West Maredpally", "addr:postcode": "500026", "addr:state": "Telangana", "amenity": "hospital", "name": "Lions Patny Hospital", "source": "OpenGovernmentData"}}, {"type": "node", "id": 6505570504, "lat": 17.4591328, "lon": 78.5007772, "tags": {"addr:district": "Hyderabad", "addr:full": "H.No.3-7-218 & 219, Behind Satyam Computer, ( Dc Greens )Kharkhana, Rangapaddy", "addr:postcode": "500015", "addr:state": "Telangana", "amenity": "hospital", "fax": "040 66318453", "name": "Soumya Multispeciality Hospital", "source": "OpenGovernmentData"}}, {"type": "node", "id": 6507570343, "lat": 17.4422795, "lon": 78.5043204, "tags": {"addr:district": "Hyderabad", "addr:full": "F-14, First Floor, Deepthi Apartments, Beside St.Ann's High School, S.P.Road", "addr:postcode": "500003", "addr:state": "Telangana", "amenity": "hospital", "contact:email": "contact@drgowd.com", "contact:mobile": "+91 8886664790", "contact:phone": "040 66338377; 040 66312447", "healthcare": "hospital", "name": "The Dental Venue Multi Speciality Hospital (unit of Dr.Gowd\u2019s)", "source": "OpenGovernmentData", "website": "https://www.drgowd.com/"}}, {"type": "node", "id": 6510472444, "lat": 17.4466871, "lon": 78.5027158, "tags": {"addr:district": "Hyderabad", "addr:full": "Plot No 185, Road No 1, Near Kennedy School, West Marredpally", "addr:postcode": "500026", "addr:state": "Telangana", "amenity": "hospital", "email": "saibaba_goud@hotmail.com", "name": "Sai Jyothi Eye Institute", "phone": "040 2771 9170 ; 040 27701686", "source": "OpenGovernmentData", "website": "http://www.saijyothieyeinstitute.com"}}, {"type": "node", "id": 6510820223, "lat": 17.4505451, "lon": 78.5032415, "tags": {"addr:district": "Hyderabad", "addr:full": "Beside Lions Club Hospital, West Marredpally,Secunderabad", "addr:postcode": "500026", "addr:state": "Telangana", "amenity": "hospital", "name": "Basant Sahney Hospitals", "source": "OpenGovernmentData"}}, {"type": "node", "id": 6513267731, "lat": 17.4504779, "lon": 78.5062201, "tags": {"addr:district": "Hyderabad", "addr:full": "10-1-254, Near Check Post, West Marredpally", "addr:postcode": "500026", "addr:state": "Telangana", "amenity": "hospital", "fax": "040 27716646", "name": "Lions Dundoo Eye Institute", "source": "OpenGovernmentData"}}, {"type": "node", "id": 6536382529, "lat": 17.4398649, "lon": 78.5030686, "tags": {"amenity": "place_of_worship", "building": "church", "name": "Emmanuel House of Worship", "religion": "christian"}}, {"type": "node", "id": 6541517719, "lat": 17.4329329, "lon": 78.5158499, "tags": {"addr:district": "Hyderabad", "addr:full": "12-8-257/15/1/A, Near Mettuguda", "addr:postcode": "500017", "addr:state": "Telangana", "addr:street": "Mettuguda", "addr:subdistrict": "Maredpalle", "amenity": "clinic", "name": "Urban Primary Health Centre, Mettuguda", "source": "OpenGovernmentData"}}, {"type": "node", "id": 6548826056, "lat": 17.4389273, "lon": 78.5060866, "tags": {"addr:city": "Hyderabad", "addr:full": "#10-3-167/A, Lane opp apollo hospitals, St.Johns road, Secunderabad", "addr:postcode": "500025", "addr:state": "Telangana", "amenity": "hospital", "contact:phone": "040-27830534, 040-27831534, +91-7207375534", "healthcare": "hospital", "name": "KASTURI MULTISPECIALITY HOSPITAL", "operator:type": "private", "source": "OpenGovernmentData", "website": "https://kasturihospitals.com/"}}, {"type": "node", "id": 6549215300, "lat": 17.45558, "lon": 78.4981728, "tags": {"addr:city": "Secunderabad", "addr:full": "Plot No: 90 P&T COLONY VIKRAMPURI KARKHANA", "addr:postcode": "500009", "addr:state": "Telangana", "amenity": "hospital", "contact:phone": "4027720777", "name": "NAVJEEVAN HOSPITAL", "operator": "Private", "source": "OpenGovernmentData"}}, {"type": "node", "id": 6563212163, "lat": 17.4405701, "lon": 78.4974861, "tags": {"addr:district": "Hyderabad", "addr:full": "8-1-9, Clock Tower, Market Street, Secunderabad", "addr:postcode": "500003", "addr:state": "Telangana", "amenity": "restaurant", "name": "Time Square-The Landmark Hotel", "name:te": "\u0c1f\u0c48\u0c02 \u0c38\u0c4d\u0c15\u0c4d\u0c35\u0c47\u0c30\u0c4d - \u0c26\u0c3f \u0c32\u0c3e\u0c02\u0c21\u0c4d\u0c2e\u0c3e\u0c30\u0c4d\u0c15\u0c4d \u0c39\u0c4b\u0c1f\u0c32\u0c4d", "source": "OpenGovernmentData"}}, {"type": "node", "id": 6656722784, "lat": 17.4538811, "lon": 78.5288666, "tags": {"addr:district": "Medchal Malkajgiri", "addr:place": "I N Nagar", "addr:state": "Telangana", "addr:street": "I N NAGAR", "addr:subdistrict": "Malkajgiri", "amenity": "health_post", "healthcare": "yes", "name": "SubCentre IndiraNehru nagar (Urban)", "operational_status": "operational", "operator:type": "government", "source": "OpenDataTelangana"}}, {"type": "node", "id": 6685486347, "lat": 17.4346769, "lon": 78.5047567, "tags": {"addr:city": "Secunderabad", "addr:postcode": "509001", "amenity": "bus_station", "bus": "yes", "name": "TSRTC BUS STAND , RATHIFILE ( SECUNDRABAD )", "network": "Secunderabad Railway Station", "operator": "TSRTC", "public_transport": "station"}}, {"type": "node", "id": 6685486354, "lat": 17.4400188, "lon": 78.4962092, "tags": {"amenity": "community_centre", "name": "Mahboob College Grounds", "name:te": "\u0c2e\u0c39\u0c2c\u0c42\u0c2c\u0c4d \u0c15\u0c3e\u0c32\u0c47\u0c1c\u0c4d \u0c17\u0c4d\u0c30\u0c4c\u0c02\u0c21\u0c4d\u0c38\u0c4d", "operator": "Mahboob College"}}, {"type": "node", "id": 6685486359, "lat": 17.4412777, "lon": 78.4983217, "tags": {"amenity": "place_of_worship", "name": "Nagadevatha Temple", "religion": "hindu"}}, {"type": "node", "id": 6685486362, "lat": 17.4401041, "lon": 78.499527, "tags": {"amenity": "place_of_worship", "denomination": "baptist", "name": "Centenary Baptist Church, Secundrabad", "religion": "christian", "service_times": "Su 10:00-13:00, 18:00-20:00"}}, {"type": "node", "id": 6685486365, "lat": 17.4425872, "lon": 78.4989862, "tags": {"amenity": "community_centre", "name": "YMCA Secunderabad", "operator": "YMCA -Young Men Christian Association"}}, {"type": "node", "id": 6710912114, "lat": 17.4404949, "lon": 78.4956406, "tags": {"amenity": "cafe", "cuisine": "regional", "name": "Rio Cafe", "name:te": "\u0c30\u0c3f\u0c2f\u0c4b \u0c15\u0c47\u0c2b\u0c4d"}}, {"type": "node", "id": 6710912131, "lat": 17.4417292, "lon": 78.4990869, "tags": {"amenity": "restaurant", "cuisine": "regional", "name": "NR Anand Tiffins"}}, {"type": "node", "id": 6759169596, "lat": 17.4612937, "lon": 78.5001676, "tags": {"amenity": "fast_food", "cuisine": "chat", "name": "Sri Sangameshwar Chat Bhandar"}}, {"type": "node", "id": 6765562751, "lat": 17.4296174, "lon": 78.5135101}, {"type": "node", "id": 6765562756, "lat": 17.4307134, "lon": 78.5143573}, {"type": "node", "id": 6765562757, "lat": 17.4296148, "lon": 78.5142289}, {"type": "node", "id": 6765562762, "lat": 17.4308103, "lon": 78.5138707}, {"type": "node", "id": 6765562768, "lat": 17.430881, "lon": 78.5134188}, {"type": "node", "id": 6765562775, "lat": 17.4305638, "lon": 78.5132894}, {"type": "node", "id": 6765562782, "lat": 17.430491, "lon": 78.5135462}, {"type": "node", "id": 6773884883, "lat": 17.4360316, "lon": 78.5007779, "tags": {"amenity": "bank", "brand": "Union Bank of India", "brand:wikidata": "Q2004078", "brand:wikipedia": "en:Union Bank of India", "name": "Union Bank of India"}}, {"type": "node", "id": 6773898392, "lat": 17.4307259, "lon": 78.5108163, "tags": {"amenity": "atm"}}, {"type": "node", "id": 6773898394, "lat": 17.4307097, "lon": 78.5108082, "tags": {"amenity": "atm", "name": "SBI ATM"}}, {"type": "node", "id": 6811749013, "lat": 17.4621913, "lon": 78.4944027, "tags": {"addr:district": "Hyderabad", "addr:full": "Transport Road, Beside Balaji Enclave, Karkhana, Secunderabad", "addr:postcode": "500009", "addr:state": "Telangana", "amenity": "clinic", "contact:mobile": "9246156010", "healthcare": "clinic", "name": "Archana Clinic", "source": "OpenGovernmentData"}}, {"type": "node", "id": 6850830247, "lat": 17.45539, "lon": 78.4980702, "tags": {"amenity": "pharmacy", "name": "Health care Medical and General store", "source": "survey"}}, {"type": "node", "id": 6942502497, "lat": 17.4439035, "lon": 78.4985}, {"type": "node", "id": 6991428585, "lat": 17.4401021, "lon": 78.5004359, "tags": {"amenity": "school", "name": "Seventh-day Adventist high school"}}, {"type": "node", "id": 7003041686, "lat": 17.457032, "lon": 78.5086176, "tags": {"amenity": "cafe", "description": "Bakers & Fresh Fruits Juice", "name": "The Stop 'n Go", "outdoor_seating": "yes", "takeaway": "yes", "wheelchair": "yes"}}, {"type": "node", "id": 7015155402, "lat": 17.4374781, "lon": 78.4997088, "tags": {"amenity": "atm", "operator": "ICICI Bank"}}, {"type": "node", "id": 7088397079, "lat": 17.4517021, "lon": 78.4995966}, {"type": "node", "id": 7088397080, "lat": 17.4516699, "lon": 78.4997077}, {"type": "node", "id": 7088397081, "lat": 17.4515678, "lon": 78.4996855}, {"type": "node", "id": 7088397082, "lat": 17.4515827, "lon": 78.4995283}, {"type": "node", "id": 7279407526, "lat": 17.4342137, "lon": 78.5021599, "tags": {"barrier": "entrance"}}, {"type": "node", "id": 7279419975, "lat": 17.4340896, "lon": 78.5012489, "tags": {"barrier": "lift_gate"}}, {"type": "node", "id": 7279425285, "lat": 17.4341465, "lon": 78.5020868}, {"type": "node", "id": 7279425286, "lat": 17.4341651, "lon": 78.5021126}, {"type": "node", "id": 7279425287, "lat": 17.4341926, "lon": 78.5021441}, {"type": "node", "id": 7279425288, "lat": 17.4342438, "lon": 78.5021753}, {"type": "node", "id": 7279425289, "lat": 17.4342326, "lon": 78.5021696}, {"type": "node", "id": 7279425290, "lat": 17.4342598, "lon": 78.50218}, {"type": "node", "id": 7279425291, "lat": 17.4342751, "lon": 78.5021847}, {"type": "node", "id": 7279425292, "lat": 17.4342962, "lon": 78.5021941}, {"type": "node", "id": 7279425293, "lat": 17.4343087, "lon": 78.5022024}, {"type": "node", "id": 7279425294, "lat": 17.4343199, "lon": 78.5022098}, {"type": "node", "id": 7279425295, "lat": 17.4343356, "lon": 78.5022239}, {"type": "node", "id": 7279425296, "lat": 17.4343458, "lon": 78.5022366}, {"type": "node", "id": 7279425297, "lat": 17.4343554, "lon": 78.5022464}, {"type": "node", "id": 7279425298, "lat": 17.4343733, "lon": 78.5022615}, {"type": "node", "id": 7279425299, "lat": 17.4343884, "lon": 78.5022708}, {"type": "node", "id": 7279425300, "lat": 17.4343967, "lon": 78.5022742}, {"type": "node", "id": 7279425301, "lat": 17.4344069, "lon": 78.5022752}, {"type": "node", "id": 7279425302, "lat": 17.4344133, "lon": 78.5022708}, {"type": "node", "id": 7279425303, "lat": 17.4341331, "lon": 78.5020667}, {"type": "node", "id": 7279425304, "lat": 17.4339674, "lon": 78.5014035}, {"type": "node", "id": 7279425305, "lat": 17.4339719, "lon": 78.501372}, {"type": "node", "id": 7279425306, "lat": 17.433984, "lon": 78.5013445}, {"type": "node", "id": 7279425307, "lat": 17.4340307, "lon": 78.5012915}, {"type": "node", "id": 7279425308, "lat": 17.4340544, "lon": 78.5012707}, {"type": "node", "id": 7330746743, "lat": 17.4427615, "lon": 78.5149164, "tags": {"amenity": "place_of_worship", "name": "Masjid E Noorani", "religion": "muslim"}}, {"type": "node", "id": 7560666273, "lat": 17.4609913, "lon": 78.5007677, "tags": {"amenity": "restaurant", "name": "Mayabazar Restaurant"}}, {"type": "node", "id": 7608585725, "lat": 17.4387545, "lon": 78.4989416, "tags": {"amenity": "pharmacy", "healthcare": "pharmacy", "name": "Thirumala Medical Store", "name:te": "\u0c24\u0c3f\u0c30\u0c41\u0c2e\u0c32 \u0c2e\u0c46\u0c21\u0c3f\u0c15\u0c32\u0c4d \u0c38\u0c4d\u0c1f\u0c4b\u0c30\u0c4d"}}, {"type": "node", "id": 7608585730, "lat": 17.4386502, "lon": 78.4972509, "tags": {"amenity": "place_of_worship", "name": "Saibaba Temple", "name:te": "\u0c38\u0c3e\u0c2f\u0c3f \u0c2c\u0c3e\u0c2c\u0c3e \u0c1f\u0c46\u0c02\u0c2a\u0c41\u0c32\u0c4d"}}, {"type": "node", "id": 7642365580, "lat": 17.4425346, "lon": 78.4981452, "tags": {"amenity": "place_of_worship", "name": "Renuka yelamma Temple", "religion": "hindu"}}, {"type": "node", "id": 7642365581, "lat": 17.44278, "lon": 78.4978476, "tags": {"addr:city": "secunderabad", "addr:housenumber": "1-1-1", "addr:postcode": "500003", "addr:street": "S D Road", "amenity": "college", "name": "New Government Jr College"}}, {"type": "node", "id": 7642365582, "lat": 17.441665, "lon": 78.5008233, "tags": {"amenity": "atm", "operator": "SBI"}}, {"type": "node", "id": 7642365583, "lat": 17.4412556, "lon": 78.5005765, "tags": {"addr:city": "Secunderabad", "addr:housenumber": "9-1-166/A", "addr:postcode": "500003", "addr:street": "Sarojini Devi Road", "amenity": "restaurant", "name": "Royal Reve Hotel"}}, {"type": "node", "id": 7642406390, "lat": 17.4420497, "lon": 78.5030995, "tags": {"amenity": "school", "name": "St. Ann's School"}}, {"type": "node", "id": 8013332795, "lat": 17.4497212, "lon": 78.4937612}, {"type": "node", "id": 8013332796, "lat": 17.4497842, "lon": 78.4932001}, {"type": "node", "id": 8013332797, "lat": 17.4490025, "lon": 78.4928509}, {"type": "node", "id": 8013332798, "lat": 17.4489539, "lon": 78.4929542}, {"type": "node", "id": 8013332799, "lat": 17.4489478, "lon": 78.4929837}, {"type": "node", "id": 8013332800, "lat": 17.4489497, "lon": 78.493031}, {"type": "node", "id": 8013337732, "lat": 17.4516601, "lon": 78.4951915}, {"type": "node", "id": 8013337733, "lat": 17.4509488, "lon": 78.4953363}, {"type": "node", "id": 8013337734, "lat": 17.4508848, "lon": 78.4953859}, {"type": "node", "id": 8013337735, "lat": 17.4508426, "lon": 78.4954691}, {"type": "node", "id": 8013337736, "lat": 17.4511982, "lon": 78.496145}, {"type": "node", "id": 8013337737, "lat": 17.4512865, "lon": 78.4962523}, {"type": "node", "id": 8013337738, "lat": 17.4513889, "lon": 78.4963194}, {"type": "node", "id": 8013337739, "lat": 17.4515334, "lon": 78.4963931}, {"type": "node", "id": 8013337740, "lat": 17.4530085, "lon": 78.4965239}, {"type": "node", "id": 8013337741, "lat": 17.4530405, "lon": 78.4965185}, {"type": "node", "id": 8013337742, "lat": 17.4530552, "lon": 78.4965118}, {"type": "node", "id": 8013337743, "lat": 17.4530661, "lon": 78.496493}, {"type": "node", "id": 8013337744, "lat": 17.4530725, "lon": 78.4964696}, {"type": "node", "id": 8013337745, "lat": 17.4530757, "lon": 78.4964461}, {"type": "node", "id": 8013337746, "lat": 17.4530712, "lon": 78.4963596}, {"type": "node", "id": 8013337747, "lat": 17.4529894, "lon": 78.4957212}, {"type": "node", "id": 8013337748, "lat": 17.452815, "lon": 78.4951281}, {"type": "node", "id": 8013337749, "lat": 17.452776, "lon": 78.4950547}, {"type": "node", "id": 8013337750, "lat": 17.4527632, "lon": 78.495001}, {"type": "node", "id": 8013337751, "lat": 17.4527367, "lon": 78.4949796}, {"type": "node", "id": 8013337752, "lat": 17.4526983, "lon": 78.4949668}, {"type": "node", "id": 8013337753, "lat": 17.4516754, "lon": 78.4951848}, {"type": "node", "id": 8013345067, "lat": 17.4441348, "lon": 78.4987084}, {"type": "node", "id": 8042058558, "lat": 17.4463263, "lon": 78.491767}, {"type": "node", "id": 8042058559, "lat": 17.4462022, "lon": 78.4919024}, {"type": "node", "id": 8042058562, "lat": 17.4462879, "lon": 78.4923537}, {"type": "node", "id": 8042058563, "lat": 17.446238, "lon": 78.4923752}, {"type": "node", "id": 8066370079, "lat": 17.458731, "lon": 78.4998827, "tags": {"access": "customers", "amenity": "parking"}}, {"type": "node", "id": 8231015244, "lat": 17.4614985, "lon": 78.5007531, "tags": {"amenity": "restaurant"}}, {"type": "node", "id": 8233048690, "lat": 17.4591866, "lon": 78.5007832, "tags": {"amenity": "hospital", "healthcare": "hospital"}}, {"type": "node", "id": 8233132093, "lat": 17.4376777, "lon": 78.5220997, "tags": {"amenity": "hospital", "healthcare": "hospital"}}, {"type": "node", "id": 8233220021, "lat": 17.438665, "lon": 78.5065408, "tags": {"addr:city": "Hyderabad", "addr:postcode": "500003", "addr:street": "Rail Nilayam Road", "amenity": "college", "name": "Gandikota Management Academy"}}, {"type": "node", "id": 8233220022, "lat": 17.4386138, "lon": 78.5065006, "tags": {"addr:city": "Hyderabad", "addr:postcode": "500003", "addr:street": "st johns road", "amenity": "college", "name": "Queen Mary Degree College"}}, {"type": "node", "id": 8233220023, "lat": 17.4384142, "lon": 78.5064255, "tags": {"addr:city": "Hyderabad", "addr:postcode": "500003", "addr:street": "st johns road", "amenity": "college", "name": "i Class Junior College"}}, {"type": "node", "id": 8233832520, "lat": 17.4606011, "lon": 78.4989953, "tags": {"amenity": "place_of_worship"}}, {"type": "node", "id": 8236632956, "lat": 17.4402772, "lon": 78.4975865, "tags": {"amenity": "hospital", "healthcare": "hospital"}}, {"type": "node", "id": 8272799102, "lat": 17.4403051, "lon": 78.4984432}, {"type": "node", "id": 8272799103, "lat": 17.4400614, "lon": 78.4983794}, {"type": "node", "id": 8272799104, "lat": 17.4400219, "lon": 78.4985447}, {"type": "node", "id": 8272799105, "lat": 17.4402657, "lon": 78.4986085}, {"type": "node", "id": 8386049770, "lat": 17.4390615, "lon": 78.497944, "tags": {"amenity": "school", "name": "Tagores Home High School"}}, {"type": "node", "id": 8386091372, "lat": 17.4548184, "lon": 78.502414, "tags": {"amenity": "school", "name": "Gandhian School"}}, {"type": "node", "id": 8386167910, "lat": 17.4540334, "lon": 78.4987403, "tags": {"amenity": "restaurant", "cuisine": "chinese", "name": "Nanking CR"}}, {"type": "node", "id": 8386555631, "lat": 17.456534, "lon": 78.4988208, "tags": {"amenity": "restaurant", "cuisine": "chinese", "name": "Big Noodle"}}, {"type": "node", "id": 8386652612, "lat": 17.4551205, "lon": 78.5038909, "tags": {"amenity": "bank", "brand": "Syndicate Bank", "brand:wikidata": "Q2004088", "brand:wikipedia": "en:Syndicate Bank", "name": "Syndicate Bank"}}, {"type": "node", "id": 8387042811, "lat": 17.4541207, "lon": 78.4983498, "tags": {"amenity": "restaurant", "name": "Zinger Hut Fried chicken"}}, {"type": "node", "id": 8387042813, "lat": 17.453963, "lon": 78.4996784, "tags": {"amenity": "driving_school", "name": "Singh Motor Driving School"}}, {"type": "node", "id": 8387042814, "lat": 17.4546829, "lon": 78.5019779, "tags": {"amenity": "pharmacy", "brand": "MedPlus", "brand:wikidata": "Q65684234", "brand:wikipedia": "en:MedPlus", "healthcare": "pharmacy", "name": "MedPlus"}}, {"type": "node", "id": 8387042815, "lat": 17.4546208, "lon": 78.5017536, "tags": {"amenity": "pharmacy", "healthcare": "pharmacy", "name": "Gayathri Medical Stores"}}, {"type": "node", "id": 8387042817, "lat": 17.4548974, "lon": 78.5027267, "tags": {"amenity": "ice_cream", "name": "Bombay Kulfi"}}, {"type": "node", "id": 8387042818, "lat": 17.4551497, "lon": 78.5033885, "tags": {"amenity": "pharmacy", "brand": "Apollo Pharmacy", "brand:wikidata": "Q62562612", "healthcare": "pharmacy", "name": "Apollo Pharmacy"}}, {"type": "node", "id": 8387042824, "lat": 17.4560175, "lon": 78.4989182, "tags": {"amenity": "bank", "atm": "yes", "brand": "Axis Bank", "brand:wikidata": "Q2003549", "brand:wikipedia": "en:Axis Bank", "name": "Axis Bank"}}, {"type": "node", "id": 8387042825, "lat": 17.46013, "lon": 78.5006275, "tags": {"amenity": "restaurant", "name": "White Rose"}}, {"type": "node", "id": 8473606293, "lat": 17.447456, "lon": 78.4942058}, {"type": "node", "id": 8556391912, "lat": 17.4462252, "lon": 78.49206}, {"type": "node", "id": 8556391913, "lat": 17.4467651, "lon": 78.4922183}, {"type": "node", "id": 8556391914, "lat": 17.44665, "lon": 78.4920117}, {"type": "node", "id": 8556391915, "lat": 17.4461039, "lon": 78.4933174}, {"type": "node", "id": 8556391916, "lat": 17.4467165, "lon": 78.4948924}, {"type": "node", "id": 8556404517, "lat": 17.4465195, "lon": 78.4918508}, {"type": "node", "id": 8739653947, "lat": 17.458988, "lon": 78.5000445, "tags": {"amenity": "police", "name": "Karkhana Police Station"}}, {"type": "node", "id": 8759287302, "lat": 17.4444622, "lon": 78.5048595, "tags": {"addr:district": "Hyderabad", "addr:full": "Nehru Nagar Colony, West Marredpally, Secunderabad", "addr:postcode": "500026", "addr:state": "Telangana", "amenity": "hospital", "name": "Basant Sahney Hospital", "source": "Local Knowledge"}}, {"type": "node", "id": 8759295434, "lat": 17.4473703, "lon": 78.5035922, "tags": {"addr:district": "Hyderabad", "addr:full": "Aswini Colony, West Marredpally, Secunderabad", "addr:postcode": "500026", "addr:state": "Telangana", "amenity": "doctors", "name": "Dr RajKumar", "source": "Local Knowledge"}}, {"type": "node", "id": 8759738256, "lat": 17.4401505, "lon": 78.4936257, "tags": {"addr:district": "Hyderabad", "addr:full": "127, 4/3, SD Road, Rani Gunj, Secunderabad", "addr:postcode": "500003", "addr:state": "Telangana", "amenity": "hospital", "name": "Madhava Nursing Home", "source": "Local Knowledge"}}, {"type": "node", "id": 8760787195, "lat": 17.4557195, "lon": 78.4992805, "tags": {"addr:district": "Medchal", "addr:full": "Vikrampuri Colony, Karkhana, Secunderabad", "addr:postcode": "500009", "addr:state": "Telangana", "amenity": "hospital", "name": "Rainbow Children's Medicare Pvt Ltd", "source": "Local Knowledge"}}, {"type": "node", "id": 8935059985, "lat": 17.4401414, "lon": 78.5128765, "tags": {"access": "permit", "amenity": "toilets", "changing_table": "no", "male": "yes", "toilets:disposal": "flush", "wheelchair": "limited"}}, {"type": "node", "id": 8935059986, "lat": 17.4401588, "lon": 78.5130011, "tags": {"access": "permit", "amenity": "toilets", "changing_table": "no", "female": "yes", "toilets:disposal": "flush", "wheelchair": "limited"}}, {"type": "node", "id": 8935105925, "lat": 17.440127, "lon": 78.5125906}, {"type": "node", "id": 8935105926, "lat": 17.4399965, "lon": 78.5129313}, {"type": "node", "id": 8935105927, "lat": 17.4398763, "lon": 78.5125236}, {"type": "node", "id": 8935106032, "lat": 17.4395487, "lon": 78.5146299}, {"type": "node", "id": 8935106033, "lat": 17.4395538, "lon": 78.5147184}, {"type": "node", "id": 8935106034, "lat": 17.4389371, "lon": 78.514756}, {"type": "node", "id": 8935106035, "lat": 17.4389345, "lon": 78.5146675}, {"type": "node", "id": 8935106036, "lat": 17.4385507, "lon": 78.5139325}, {"type": "node", "id": 8935106037, "lat": 17.438543, "lon": 78.5145468}, {"type": "node", "id": 8935106038, "lat": 17.438433, "lon": 78.5145494}, {"type": "node", "id": 8935106039, "lat": 17.4384228, "lon": 78.5139298}, {"type": "node", "id": 8935145523, "lat": 17.4388806, "lon": 78.509485, "tags": {"amenity": "place_of_worship", "religion": "hindu"}}, {"type": "node", "id": 8935145535, "lat": 17.4396508, "lon": 78.5092677, "tags": {"amenity": "bank", "atm": "yes", "brand": "Canara Bank", "brand:pa": "\u0a15\u0a47\u0a28\u0a30\u0a3e \u0a2c\u0a48\u0a02\u0a15", "brand:ur": "\u06a9\u06cc\u0646\u0631\u0627 \u0628\u06cc\u0646\u06a9", "brand:wikidata": "Q2003777", "brand:wikipedia": "en:Canara Bank", "brand:wikipedia:pa": "\u0a15\u0a47\u0a28\u0a30\u0a3e \u0a2c\u0a48\u0a02\u0a15", "drive_through": "no", "name": "Canara Bank", "name:pa": "\u0a15\u0a47\u0a28\u0a30\u0a3e \u0a2c\u0a48\u0a02\u0a15", "name:ur": "\u06a9\u06cc\u0646\u0631\u0627 \u0628\u06cc\u0646\u06a9"}}, {"type": "node", "id": 8935145540, "lat": 17.4409252, "lon": 78.5061483}, {"type": "node", "id": 8935145541, "lat": 17.4408919, "lon": 78.5063629}, {"type": "node", "id": 8935145542, "lat": 17.4408561, "lon": 78.5063575}, {"type": "node", "id": 8935145543, "lat": 17.4408817, "lon": 78.5061483}, {"type": "node", "id": 8941817855, "lat": 17.4475965, "lon": 78.5089418, "tags": {"addr:city": "East Marredpally", "addr:housenumber": "5A Ground Floor", "addr:postcode": "500026", "addr:street": "Main Rd", "amenity": "hospital", "description": "Senior Ayurvedic Doctor specializing in Gastric, Piles, Joint, Skin Complaints and other conditions.", "email": "office@ayurdoctor.in", "emergency": "no", "healthcare": "hospital", "healthcare:speciality": "ayurveda;Piles;general", "name": "Shakti Ayurvedic Clinic", "operator": "Dr Prashant Kumar", "operator:type": "private", "phone": "+91-9848574437", "website": "www.ayurdoctor.in"}}, {"type": "node", "id": 9131094941, "lat": 17.455012, "lon": 78.504132, "tags": {"amenity": "fast_food", "cuisine": "pizza", "name": "Pizza Den"}}, {"type": "node", "id": 9131094943, "lat": 17.4558871, "lon": 78.5051143, "tags": {"amenity": "school", "name": "FIITJEE WORLD SCHOOL"}}, {"type": "node", "id": 9961157197, "lat": 17.4556561, "lon": 78.5007283, "tags": {"amenity": "marketplace", "name": "Anitha Stores"}}, {"type": "node", "id": 10262078573, "lat": 17.4491923, "lon": 78.5275358}, {"type": "node", "id": 10262078574, "lat": 17.4495074, "lon": 78.5276522}, {"type": "node", "id": 10262078575, "lat": 17.4494514, "lon": 78.5278187}, {"type": "node", "id": 10262078576, "lat": 17.4491363, "lon": 78.5277024}, {"type": "node", "id": 10262078598, "lat": 17.4509722, "lon": 78.5247418}, {"type": "node", "id": 10262078599, "lat": 17.4509468, "lon": 78.52485}, {"type": "node", "id": 10262078600, "lat": 17.4508601, "lon": 78.5248276}, {"type": "node", "id": 10262078601, "lat": 17.4508856, "lon": 78.5247194}, {"type": "node", "id": 10262083169, "lat": 17.4483447, "lon": 78.521754, "tags": {"addr:city": "Sikandr\u0101b\u0101d", "addr:postcode": "500026", "addr:state": "TG", "alt_name": "Mah\u0101bodhi Buddhavih\u0101ra;\u0100nanda Buddha-Vih\u0101ra;Mah\u0101bodhi Buddha-Vih\u0101ra;\u0100nanda Buddhavih\u0101ra;Mah\u0101 Bodhi Buddha-Vih\u0101ra", "alt_name:en": "\u0100nanda Buddhist Monastery;\u0100nanda Buddhist Vih\u0101ra;\u0100nanda Buddhist Temple", "alt_name:hi": "\u092e\u0939\u093e\u092c\u094b\u0927\u0940 \u092c\u0941\u0926\u094d\u0927-\u0935\u093f\u0939\u093e\u0930;\u0906\u0928\u0928\u094d\u0926 \u092c\u0941\u0926\u094d\u0927-\u0935\u093f\u0939\u093e\u0930;\u092e\u0939\u093e \u092c\u094b\u0927\u0940 \u092c\u0941\u0926\u094d\u0927-\u0935\u093f\u0939\u093e\u0930", "alt_name:hi-Latn": "\u0100nand Buddha-Vih\u0101r", "alt_name:te": "\u0c2e\u0c39\u0c3e\u0c2c\u0c4b\u0c27\u0c3f \u0c2c\u0c41\u0c26\u0c4d\u0c27-\u0c35\u0c3f\u0c39\u0c3e\u0c30;\u0c2e\u0c39\u0c3e \u0c2c\u0c4b\u0c27\u0c3f \u0c2c\u0c41\u0c26\u0c4d\u0c27-\u0c35\u0c3f\u0c39\u0c3e\u0c30;\u0c06\u0c28\u0c02\u0c26 \u0c2c\u0c41\u0c26\u0c4d\u0c27\u0c3e \u0c35\u0c3f\u0c39\u0c3e\u0c30", "alt_name:ur": "\u0645\u06c1\u0627\u0628\u0648\u062f\u06be\u06cc \u0628\u062f\u06be\u0651-\u0648\u06c1\u0627\u0631;\u0622\u0646\u0646\u062f \u0628\u062f\u06be\u0651-\u0648\u06c1\u0627\u0631;\u0645\u06c1\u0627 \u0628\u0648\u062f\u06be\u06cc \u0628\u062f\u06be\u0651-\u0648\u06c1\u0627\u0631", "alt_name:ur-Latn": "\u0100nand Buddha-Vih\u0101r", "amenity": "place_of_worship", "contact:youtube": "https://www.youtube.com/channel/UCGVv3znZ7z4lk73WLNPgoWQ", "denomination": "theravada", "email": "mbshyd@mahabodhi.info;mahabodhihyderabad@gmail.com", "facebook": "https://www.facebook.com/MahabodhiBuddhaVihara/", "name": "\u0100nandavih\u0101ra", "name:bcl": "An\u00ebnd\u00ebwihar\u00eb", "name:ceb": "An\u00ebnd\u00ebwihar\u00eb", "name:hi": "\u0906\u0928\u0928\u094d\u0926 \u0935\u093f\u0939\u093e\u0930", "name:hi-Latn": "\u0100nand Vih\u0101r", "name:hil": "An\u00ebnd\u00ebwihar\u00eb", "name:krj": "An\u00ebnd\u00ebwihar\u00eb", "name:pag": "An\u00ebnd\u00ebwihar\u00eb", "name:pam": "\u00c1nandawih\u00e1ra", "name:pi": "\ud804\udc06\ud804\udc26\ud804\udc26\ud804\udc46\ud804\udc24\ud804\udc2f\ud804\udc3a\ud804\udc33\ud804\udc38\ud804\udc2d", "name:sa": "\u0906\u0928\u0928\u094d\u0926\u0935\u093f\u0939\u093e\u0930", "name:te": "\u0c06\u0c28\u0c02\u0c26 \u0c35\u0c3f\u0c39\u0c3e\u0c30", "name:tl": "An\u00ebnd\u00ebwihar\u00eb", "name:ur": "\u0622\u0646\u0646\u062f \u0648\u06c1\u0627\u0631", "name:ur-Latn": "\u0100nand Vih\u0101r", "name:war": "An\u00ebnd\u00ebwihar\u00eb", "name:xsb": "An\u00ebnd\u00ebwihar\u00eb", "operator:wikidata": "Q122974374", "phone": "+914027733161;+917330915101;+914427733461", "religion": "buddhist", "website": "https://www.mahabodhihyd.org/", "wikidata": "Q123153358"}}, {"type": "node", "id": 10262083170, "lat": 17.4532038, "lon": 78.5232415, "tags": {"amenity": "place_of_worship", "name": "SHIVA TEMPLE", "religion": "hindu"}}, {"type": "node", "id": 10262083191, "lat": 17.4427359, "lon": 78.5275311, "tags": {"amenity": "place_of_worship", "religion": "muslim"}}, {"type": "node", "id": 10262083192, "lat": 17.4510809, "lon": 78.5248079, "tags": {"amenity": "place_of_worship", "name": "ABU BAKAR MASJID", "religion": "muslim"}}, {"type": "node", "id": 10262083197, "lat": 17.4448149, "lon": 78.525643, "tags": {"amenity": "bank", "brand": "State Bank of India", "brand:wikidata": "Q1340361", "name": "State Bank of India", "short_name": "SBI"}}, {"type": "node", "id": 10262083198, "lat": 17.4447088, "lon": 78.5256244, "tags": {"amenity": "atm", "brand": "State Bank of India", "brand:wikidata": "Q1340361", "name": "Sbi Atm", "operator": "State Bank of India", "operator:wikidata": "Q1340361", "short_name": "SBI"}}, {"type": "node", "id": 10262083200, "lat": 17.444654, "lon": 78.5258126, "tags": {"amenity": "fast_food", "cuisine": "chicken", "name": "Galaxy fast food"}}, {"type": "node", "id": 10741975957, "lat": 17.433545, "lon": 78.5201913}, {"type": "node", "id": 10741975958, "lat": 17.4332774, "lon": 78.5202381}, {"type": "node", "id": 10741975959, "lat": 17.4332616, "lon": 78.5202381}, {"type": "node", "id": 10741975960, "lat": 17.4332594, "lon": 78.520045}, {"type": "node", "id": 10741975961, "lat": 17.4333841, "lon": 78.5198702}, {"type": "node", "id": 10741975962, "lat": 17.4332696, "lon": 78.519862}, {"type": "node", "id": 10741975963, "lat": 17.4333781, "lon": 78.5200462}, {"type": "node", "id": 10741975964, "lat": 17.4340012, "lon": 78.517882}, {"type": "node", "id": 10741975965, "lat": 17.4336915, "lon": 78.5178166}, {"type": "node", "id": 10741975966, "lat": 17.4337561, "lon": 78.5175924}, {"type": "node", "id": 10741975967, "lat": 17.4340703, "lon": 78.5176415}, {"type": "node", "id": 10741975968, "lat": 17.4350533, "lon": 78.5163849}, {"type": "node", "id": 10741975969, "lat": 17.4350057, "lon": 78.5163403}, {"type": "node", "id": 10741975970, "lat": 17.4349342, "lon": 78.5164758}, {"type": "node", "id": 10741975971, "lat": 17.4350033, "lon": 78.5164958}, {"type": "node", "id": 10789538087, "lat": 17.4314082, "lon": 78.5129425, "tags": {"amenity": "cinema", "name": "Sridevi Theatre"}}, {"type": "node", "id": 10977975644, "lat": 17.433858, "lon": 78.5229604, "tags": {"addr:district": "Hyderabad", "addr:place": "Mettuguda", "addr:state": "Telangana", "addr:street": "Mettuguda", "addr:subdistrict": "Secunderabad", "amenity": "doctors", "healthcare": "doctor", "name": "Government Ayurvedic Dispensary, Chilakalguda", "operational_status": "operational", "operator:type": "government", "source": "OpenDataTelangana"}}, {"type": "node", "id": 10980307146, "lat": 17.4338974, "lon": 78.5023934, "tags": {"amenity": "vending_machine", "level_name": "0", "name": "ATVMs", "ref": "ATVMs", "vending": "public_transport_tickets"}}, {"type": "node", "id": 10980307147, "lat": 17.4338974, "lon": 78.5023934, "tags": {"amenity": "vending_machine", "description": "Automatic Vending Machines for tickets", "name": "ATVMs", "vending": "public_transport_tickets"}}, {"type": "node", "id": 10980340002, "lat": 17.4336929, "lon": 78.5016003, "tags": {"amenity": "vending_machine", "description": "Automatic Ticket vending machine", "name": "ATVM's", "vending": "public_transport_tickets"}}, {"type": "node", "id": 10980340003, "lat": 17.4328512, "lon": 78.5033398, "tags": {"amenity": "vending_machine", "description": "Automatic Ticket vending machine", "name": "ATVM's", "vending": "public_transport_tickets"}}, {"type": "node", "id": 10980340004, "lat": 17.434468, "lon": 78.5042806, "tags": {"amenity": "vending_machine", "description": "Automatic Ticket vending machine", "name": "ATVM's", "vending": "public_transport_tickets"}}, {"type": "node", "id": 10980352006, "lat": 17.4328512, "lon": 78.5033398, "tags": {"amenity": "fast_food", "fast_food": "cafeteria"}}, {"type": "node", "id": 10980353465, "lat": 17.4335071, "lon": 78.5027612, "tags": {"amenity": "fast_food", "description": "Catering Stalls in SC Station", "fast_food": "cafeteria", "name": "Catering"}}, {"type": "node", "id": 10980353466, "lat": 17.4335217, "lon": 78.5027758, "tags": {"amenity": "fast_food", "description": "Catering Stalls in SC Station", "fast_food": "cafeteria", "name": "Catering"}}, {"type": "node", "id": 10980353467, "lat": 17.4333291, "lon": 78.5020455, "tags": {"amenity": "fast_food", "description": "Catering Stalls in SC Station", "fast_food": "cafeteria", "name": "Catering"}}, {"type": "node", "id": 10980353468, "lat": 17.4333657, "lon": 78.5017807, "tags": {"amenity": "fast_food", "description": "Catering Stalls in SC Station", "fast_food": "cafeteria", "name": "Catering"}}, {"type": "node", "id": 10980353469, "lat": 17.4334066, "lon": 78.5017782, "tags": {"amenity": "fast_food", "description": "Catering Stalls in SC Station", "fast_food": "cafeteria", "name": "Catering"}}, {"type": "node", "id": 10980353470, "lat": 17.4330793, "lon": 78.5012389, "tags": {"amenity": "fast_food", "description": "Catering Stalls in SC Station", "fast_food": "cafeteria", "name": "Catering"}}, {"type": "node", "id": 10980353471, "lat": 17.4329347, "lon": 78.5006213, "tags": {"amenity": "fast_food", "description": "Catering Stalls in SC Station", "fast_food": "cafeteria", "name": "Catering"}}, {"type": "node", "id": 10980353472, "lat": 17.4332662, "lon": 78.5004232, "tags": {"amenity": "fast_food", "description": "Catering Stalls in SC Station", "fast_food": "cafeteria", "name": "Catering"}}, {"type": "node", "id": 10980353473, "lat": 17.433375, "lon": 78.5012858, "tags": {"amenity": "fast_food", "description": "Catering Stalls in SC Station", "fast_food": "cafeteria", "name": "Catering"}}, {"type": "node", "id": 10980353474, "lat": 17.4333445, "lon": 78.5013225, "tags": {"amenity": "fast_food", "description": "Catering Stalls in SC Station", "fast_food": "cafeteria", "name": "Catering"}}, {"type": "node", "id": 10980353475, "lat": 17.4334137, "lon": 78.5016711, "tags": {"amenity": "fast_food", "description": "Catering Stalls in SC Station", "fast_food": "cafeteria", "name": "Catering"}}, {"type": "node", "id": 10980353476, "lat": 17.4334959, "lon": 78.5020135, "tags": {"amenity": "fast_food", "description": "Catering Stalls in SC Station", "fast_food": "cafeteria", "name": "Catering"}}, {"type": "node", "id": 10980353477, "lat": 17.4335042, "lon": 78.5020689, "tags": {"amenity": "fast_food", "description": "Catering Stalls in SC Station", "fast_food": "cafeteria", "name": "Catering"}}, {"type": "node", "id": 10980353478, "lat": 17.4336907, "lon": 78.5027702, "tags": {"amenity": "fast_food", "description": "Catering Stalls in SC Station", "fast_food": "cafeteria", "name": "Catering"}}, {"type": "node", "id": 10980353479, "lat": 17.4337807, "lon": 78.5031514, "tags": {"amenity": "fast_food", "description": "Catering Stalls in SC Station", "fast_food": "cafeteria", "name": "Catering"}}, {"type": "node", "id": 10980353480, "lat": 17.4332123, "lon": 78.5035922, "tags": {"amenity": "fast_food", "description": "Catering Stalls in SC Station", "fast_food": "cafeteria", "name": "Catering"}}, {"type": "node", "id": 10980353481, "lat": 17.4331156, "lon": 78.5031087, "tags": {"amenity": "fast_food", "description": "Catering Stalls in SC Station", "fast_food": "cafeteria", "name": "Catering"}}, {"type": "node", "id": 10980353482, "lat": 17.4330032, "lon": 78.5018187, "tags": {"amenity": "fast_food", "description": "Catering Stalls in SC Station", "fast_food": "cafeteria", "name": "Catering"}}, {"type": "node", "id": 10980353483, "lat": 17.4328038, "lon": 78.5016649, "tags": {"amenity": "fast_food", "description": "Catering Stalls in SC Station", "fast_food": "cafeteria", "name": "Catering"}}, {"type": "node", "id": 10980353484, "lat": 17.4327939, "lon": 78.5016324, "tags": {"amenity": "fast_food", "description": "Catering Stalls in SC Station", "fast_food": "cafeteria", "name": "Catering"}}, {"type": "node", "id": 10980353485, "lat": 17.4325705, "lon": 78.5015765, "tags": {"amenity": "fast_food", "description": "Catering Stalls in SC Station", "fast_food": "cafeteria", "name": "Catering"}}, {"type": "node", "id": 10980353486, "lat": 17.4327897, "lon": 78.5024405, "tags": {"amenity": "fast_food", "description": "Catering Stalls in SC Station", "fast_food": "cafeteria", "name": "Catering"}}, {"type": "node", "id": 10980353487, "lat": 17.4328588, "lon": 78.5026562, "tags": {"amenity": "fast_food", "description": "Catering Stalls in SC Station", "fast_food": "cafeteria", "name": "Catering"}}, {"type": "node", "id": 10980353488, "lat": 17.4328799, "lon": 78.5027438, "tags": {"amenity": "fast_food", "description": "Catering Stalls in SC Station", "fast_food": "cafeteria", "name": "Catering"}}, {"type": "node", "id": 10980353489, "lat": 17.4326877, "lon": 78.5026921, "tags": {"amenity": "fast_food", "description": "Catering Stalls in SC Station", "fast_food": "cafeteria", "name": "Catering"}}, {"type": "node", "id": 10980353490, "lat": 17.4329306, "lon": 78.502982, "tags": {"amenity": "fast_food", "description": "Catering Stalls in SC Station", "fast_food": "cafeteria", "name": "Catering"}}, {"type": "node", "id": 10980353491, "lat": 17.4330612, "lon": 78.5034528, "tags": {"amenity": "fast_food", "description": "Catering Stalls in SC Station", "fast_food": "cafeteria", "name": "Catering"}}, {"type": "node", "id": 10980353492, "lat": 17.433083, "lon": 78.5004417, "tags": {"amenity": "fast_food", "description": "Catering Stalls in SC Station", "fast_food": "cafeteria", "name": "Catering"}}, {"type": "node", "id": 10980353493, "lat": 17.4327507, "lon": 78.5005321, "tags": {"amenity": "fast_food", "description": "Catering Stalls in SC Station", "fast_food": "cafeteria", "name": "Catering"}}, {"type": "node", "id": 10980353494, "lat": 17.4329274, "lon": 78.501385, "tags": {"amenity": "fast_food", "description": "Catering Stalls in SC Station", "fast_food": "cafeteria", "name": "Catering"}}, {"type": "node", "id": 10980353495, "lat": 17.4330513, "lon": 78.5020115, "tags": {"amenity": "fast_food", "description": "Catering Stalls in SC Station", "fast_food": "cafeteria", "name": "Catering"}}, {"type": "node", "id": 10980353496, "lat": 17.4330506, "lon": 78.5027498, "tags": {"amenity": "fast_food", "description": "Catering Stalls in SC Station", "fast_food": "cafeteria", "name": "Catering"}}, {"type": "node", "id": 10980353497, "lat": 17.4335292, "lon": 78.5035205, "tags": {"amenity": "fast_food", "description": "Catering Stalls in SC Station", "fast_food": "cafeteria", "name": "Catering"}}, {"type": "node", "id": 10980353498, "lat": 17.4331928, "lon": 78.5001207, "tags": {"amenity": "fast_food", "description": "Catering Stalls in SC Station", "fast_food": "cafeteria", "name": "Catering"}}, {"type": "node", "id": 10980353499, "lat": 17.4332653, "lon": 78.5003984, "tags": {"amenity": "fast_food", "description": "Catering Stalls in SC Station", "fast_food": "cafeteria", "name": "Catering"}}, {"type": "node", "id": 10980353500, "lat": 17.4336501, "lon": 78.5019052, "tags": {"amenity": "fast_food", "description": "Catering Stalls in SC Station", "fast_food": "cafeteria", "name": "Catering"}}, {"type": "node", "id": 10980353501, "lat": 17.4336496, "lon": 78.5019507, "tags": {"amenity": "fast_food", "description": "Catering Stalls in SC Station", "fast_food": "cafeteria", "name": "Catering"}}, {"type": "node", "id": 10980353502, "lat": 17.4338001, "lon": 78.5026819, "tags": {"amenity": "fast_food", "description": "Catering Stalls in SC Station", "fast_food": "cafeteria", "name": "Catering"}}, {"type": "node", "id": 10980353503, "lat": 17.4326908, "lon": 78.5026786, "tags": {"amenity": "fast_food", "description": "Catering Stalls in SC Station", "fast_food": "cafeteria", "name": "Catering"}}, {"type": "node", "id": 10989338873, "lat": 17.4431993, "lon": 78.521531, "tags": {"addr:district": "Hyderabad", "addr:place": "Maredpally", "addr:state": "Telangana", "addr:street": "Near Police station Tukaramgate", "addr:subdistrict": "Marredpally", "amenity": "clinic", "healthcare": "clinic", "name": "Urban Primary Health Centre, Addagutta", "operational_status": "operational", "operator:type": "government", "source": "OpenDataTelangana"}}, {"type": "node", "id": 10992500546, "lat": 17.4340378, "lon": 78.506033, "tags": {"amenity": "bus_station", "bus": "yes", "public_transport": "station"}}, {"type": "node", "id": 10992500547, "lat": 17.4467095, "lon": 78.4981912, "tags": {"amenity": "bus_station", "bus": "yes", "name": "TSRTC BUS DEPOT, CANTONMENT", "public_transport": "station"}}, {"type": "node", "id": 10992500548, "lat": 17.4477249, "lon": 78.4980658, "tags": {"amenity": "bus_station", "bus": "yes", "name": "TSRTC JUBLEE BUS STAND", "public_transport": "station"}}, {"type": "node", "id": 10992500549, "lat": 17.4477869, "lon": 78.4991587, "tags": {"amenity": "bus_station", "bus": "yes", "name": "TSRTC BUS DEPOT , JUBLEE BUS STAND", "public_transport": "station"}}, {"type": "node", "id": 11001517796, "lat": 17.4340992, "lon": 78.523223, "tags": {"addr:district": "Hyderabad", "addr:place": "Mettuguda", "addr:state": "Telangana", "addr:street": "Mettuguda", "addr:subdistrict": "Marredpally", "amenity": "clinic", "healthcare": "clinic", "name": "Urban Primary Health Centre, Mettuguda", "operational_status": "operational", "operator:type": "government", "source": "OpenDataTelangana"}}, {"type": "node", "id": 11001538574, "lat": 17.4349648, "lon": 78.497757, "tags": {"addr:district": "Hyderabad", "addr:place": "Chapalbai , Mondamarket, Secendrabad (", "addr:state": "Telangana", "addr:street": "Chapalbai , Mondamarket, Secendrabad (", "addr:subdistrict": "Secunderabad", "amenity": "health_post", "healthcare": "yes", "name": "Chapalbai , Mondamarket, Secendrabad (Basthi Dawakhana)", "operational_status": "operational", "operator:type": "government", "source": "OpenDataTelangana"}}, {"type": "node", "id": 11001542598, "lat": 17.4439108, "lon": 78.5213253, "tags": {"addr:district": "Hyderabad", "addr:place": "Lalapet", "addr:state": "Telangana", "addr:street": "opp Ram theatre", "addr:subdistrict": "Marredpally", "amenity": "clinic", "healthcare": "clinic", "name": "Urban Primary Health Centre, Tukaramgate", "operational_status": "operational", "operator:type": "government", "source": "OpenDataTelangana"}}, {"type": "node", "id": 11001545015, "lat": 17.434364, "lon": 78.5015624, "tags": {"addr:district": "Hyderabad", "addr:place": "Himayath Nagar", "addr:state": "Telangana", "addr:street": "Hyderguda", "addr:subdistrict": "Himayatnagar", "amenity": "doctors", "healthcare": "doctor", "name": "Government Homoeo Dispensary, OLD MLA Qtrs", "operational_status": "operational", "operator:type": "government", "source": "OpenDataTelangana"}}, {"type": "node", "id": 11005224578, "lat": 17.4559511, "lon": 78.5276328, "tags": {"addr:district": "Medchal Malkajgiri", "addr:place": "Malkajgiri, Secunderabad", "addr:state": "Telangana", "addr:street": "Street No. 29", "amenity": "health_post", "healthcare": "yes", "name": "Eklavya Nagar community hall at Malkajgiri (Basti Dawakhana)", "operational_status": "operational", "operator:type": "government", "source": "OpenDataTelangana"}}, {"type": "way", "id": 71932256, "nodes": [854960941, 3147189451, 854960945, 854960956, 854960959, 854960963, 3147189452, 854960941], "tags": {"amenity": "college", "name": "swami Vivekananda institute of technology", "name:etymology:wikidata": "Q47478", "name:te": "Swami Vivekananda institute of technology"}}, {"type": "way", "id": 75097506, "nodes": [886337190, 886337194, 886337197, 886337202, 886337205, 886337190], "tags": {"amenity": "school", "name": "Keyes High School"}}, {"type": "way", "id": 109974900, "nodes": [1257610303, 1257610302, 1257610301, 1257610296, 1257610300, 1257610299, 1257610303], "tags": {"amenity": "parking"}}, {"type": "way", "id": 136990795, "nodes": [1502798813, 1502798800, 1502798799, 1502798806, 1502798813], "tags": {"amenity": "college", "description": "Government Institute of Electronics is a polytechnic college", "name": "Govt Institue of Electronics", "website": "http://secunderabadgioepoly.nic.in"}}, {"type": "way", "id": 136990796, "nodes": [1502798805, 1502798803, 1502798802, 1502798804, 1502798805], "tags": {"amenity": "college"}}, {"type": "way", "id": 256721966, "nodes": [2623574124, 2623574125, 2623574126, 2623574127, 2623574128, 2623574129, 2623574130, 2623574131, 2623574124], "tags": {"addr:city": "Secunderabad", "addr:postcode": "500003", "addr:street": "Sarojini Devi Road", "amenity": "theatre", "building": "yes", "name": "Manju Cinema"}}, {"type": "way", "id": 265417390, "nodes": [2710845165, 2710845166, 2710845167, 2710845168, 2710845165], "tags": {"amenity": "fuel", "brand": "Bharat Petroleum", "brand:wikidata": "Q854826", "brand:wikipedia": "en:Bharat Petroleum", "building": "yes", "name": "Bharat Petroleum"}}, {"type": "way", "id": 288592787, "nodes": [2921460715, 2921460712, 3393374929, 2921460710, 2921460711, 2921460713, 2921460715], "tags": {"amenity": "college", "name": "College of Air and Land Warfare"}}, {"type": "way", "id": 341366884, "nodes": [3485578427, 3485578428, 3485578429, 3485578430, 3485578427], "tags": {"amenity": "cafe", "building": "yes", "cuisine": "regional", "name": "RIO"}}, {"type": "way", "id": 341367536, "nodes": [3485594751, 3485594752, 3485594753, 3485594754, 3485594751], "tags": {"amenity": "place_of_worship", "building": "yes", "name": "Ganesh temple", "religion": "hindu"}}, {"type": "way", "id": 341367803, "nodes": [3485602743, 3485602744, 3485602745, 3485602746, 3485602743], "tags": {"amenity": "place_of_worship", "building": "yes", "name": "bhoo lakshmi temple", "religion": "hindu"}}, {"type": "way", "id": 341369246, "nodes": [3485621635, 3485621636, 3485621637, 3485621638, 3485621635], "tags": {"amenity": "social_facility", "building": "yes", "name": "tiffen centre", "social_facility": "food_bank"}}, {"type": "way", "id": 355905754, "nodes": [3614343360, 3614343488, 3614343467, 3614343435, 3614343336, 3614343360], "tags": {"addr:city": "Hyderabad", "addr:street": "Sikh Village Road", "amenity": "bank", "atm": "yes", "brand": "Punjab National Bank", "brand:wikidata": "Q2743499", "brand:wikipedia": "en:Punjab National Bank", "building": "commercial", "building:levels": "2", "drive_through": "no", "name": "Punjab National Bank"}}, {"type": "way", "id": 356179537, "nodes": [3616812628, 3616812679, 3616812638, 3616812576, 3616812628], "tags": {"amenity": "restaurant", "building": "yes", "cuisine": "regional;indian", "delivery": "yes", "name": "Mayabazar", "outdoor_seating": "no", "smoking": "no", "takeaway": "yes"}}, {"type": "way", "id": 356179987, "nodes": [3616812894, 3616812949, 3616812896, 3616812819, 3616812894], "tags": {"amenity": "restaurant", "building": "hotel", "name": "Hotel Amaravathi", "parking": "yes"}}, {"type": "way", "id": 356180201, "nodes": [3616810636, 3616810622, 3616810583, 3616810590, 3616810636], "tags": {"amenity": "restaurant", "building": "yes", "cuisine": "indian;kebab;steak_house;ice_cream;barbecue;regional;chicken;coffee_shop;mughlai", "delivery": "yes", "name": "Grill 9", "outdoor_seating": "no", "smoking": "isolated", "takeaway": "yes"}}, {"type": "way", "id": 356229646, "nodes": [3617108546, 3617108549, 3617108538, 3617108536, 3617108546], "tags": {"amenity": "place_of_worship", "building": "yes", "religion": "hindu"}}, {"type": "way", "id": 356279890, "nodes": [3617415507, 3617415514, 3617415510, 3617415505, 3617415507], "tags": {"amenity": "bank", "atm": "yes", "building": "yes", "name": "South Indian Bank"}}, {"type": "way", "id": 356439313, "nodes": [3618962778, 3618962770, 3618962720, 3618962732, 3618962778], "tags": {"addr:postcode": "500003", "addr:street": "Sarojini Devi Road", "amenity": "fuel", "name": "Indian Oil Petrol Pump", "opening_hours": "10:00-22:00"}}, {"type": "way", "id": 356439747, "nodes": [3618963919, 3618963914, 6185287784, 3618963151, 3618963164, 3618963919], "tags": {"addr:district": "Hyderabad", "addr:full": "Alexander Road", "addr:postcode": "500003", "addr:state": "Telangana", "amenity": "hospital", "fax": "040 27703999", "health_facility:type": "Surgical Suites;Trauma Center;Intensive Care Units;Surgical Observation Unit;Rehabilitation Services Department", "healthcare": "hospital", "healthcare:speciality": "multi specialty", "medical_system": "Allopathic", "name": "Yashoda Super Speciality Hospital - secunderabad", "operator:type": "private", "phone": "040 45674567", "source": "OpenGovernmentData", "website": "https://www.yashodahospitals.com/"}}, {"type": "way", "id": 356453332, "nodes": [3619024549, 3619024609, 3619024581, 3619024517, 3619024549], "tags": {"amenity": "place_of_worship", "building": "church", "religion": "christian"}}, {"type": "way", "id": 356453361, "nodes": [3619024543, 3619024585, 3619024560, 3619024507, 3619024543], "tags": {"amenity": "place_of_worship", "building": "church", "religion": "christian"}}, {"type": "way", "id": 356453387, "nodes": [3619024185, 3619024183, 3619024171, 3619024172, 3619024185], "tags": {"amenity": "place_of_worship", "building": "yes", "religion": "hindu"}}, {"type": "way", "id": 356453395, "nodes": [3619024359, 3619024358, 3619024342, 3619024343, 3619024359], "tags": {"amenity": "place_of_worship", "building": "yes", "religion": "hindu"}}, {"type": "way", "id": 356453894, "nodes": [3619028604, 3619028602, 3619028596, 3619028599, 3619028604], "tags": {"addr:city": "secunderabad", "addr:street": "Mudfort", "amenity": "place_of_worship", "building": "yes", "name": "St Anthony Church", "religion": "christian"}}, {"type": "way", "id": 356548444, "nodes": [3619550068, 3619550003, 3619549990, 3619550048, 3619550068], "tags": {"addr:city": "Hyderabad", "addr:full": "St. Johns Road, Opposite Railway Reservation Counter Lane, Beside Ramakrishna Hotel, Railway Colony, Chilakalguda, Secunderabad", "addr:postcode": "500025", "addr:state": "Telangana", "addr:street": "Station Road", "addr:unit": "1", "amenity": "hospital", "building": "yes", "building:levels": "3", "contact:phone": "040 27833388 ; 040 46460000", "healthcare": "hospital", "name": "SRIKARA HOSPITALS", "operator:type": "private", "source": "OpenGovernmentData", "website": "https://www.srikarahospitals.com/"}}, {"type": "way", "id": 357088766, "nodes": [3624601018, 3624601016, 3624601015, 3624601017, 3624601018], "tags": {"addr:city": "Secunderabad", "addr:housenumber": "8-2-207/208", "addr:postcode": "500003", "addr:street": "Paranjyothi Street", "amenity": "school", "name": "Tagore's Home New Era Institute Secondary School"}}, {"type": "way", "id": 357088896, "nodes": [3624601063, 3624601058, 3624601045, 3624601046, 3624601039, 3624601040, 3624601048, 3624601050, 3624601063], "tags": {"amenity": "place_of_worship", "building": "church", "religion": "christian"}}, {"type": "way", "id": 357384102, "nodes": [3626596112, 3626596110, 3626596097, 3626596100, 3626596112], "tags": {"amenity": "place_of_worship", "building": "yes", "name": "ABU BAKR MASJID", "religion": "muslim"}}, {"type": "way", "id": 360664849, "nodes": [3652228418, 3652228416, 3652228398, 3652228414, 3652228418], "tags": {"amenity": "place_of_worship", "building": "church", "name": "St. Andrew's Church Secunderbad", "religion": "christian"}}, {"type": "way", "id": 360677251, "nodes": [3652375304, 3652375302, 3652375294, 3652375290, 3652375285, 3652375283, 3652375271, 3652375267, 3652375265, 3652375263, 3652375258, 3652375262, 3652375266, 3652375275, 3652375304], "tags": {"amenity": "place_of_worship", "building": "yes", "religion": "muslim"}}, {"type": "way", "id": 360822944, "nodes": [3653736798, 8013345067, 3653736784, 3653736746, 3653736755, 3653736768, 3653736775, 6942502497, 3653736798], "tags": {"amenity": "place_of_worship", "name": "Ganesh Temple", "religion": "hindu"}}, {"type": "way", "id": 360854043, "nodes": [3654090582, 3654090586, 3654090583, 3654090581, 3654090580, 3654090579, 3654090582], "tags": {"amenity": "clinic", "building": "yes", "name": "Sweekar Upkar"}}, {"type": "way", "id": 360984466, "nodes": [3655193114, 3655193099, 3655193068, 3655193075, 3655193114], "tags": {"amenity": "hospital", "healthcare": "hospital", "name": "Healing touch hospital", "name:te": "\u0c39\u0c40\u0c32\u0c3f\u0c02\u0c17\u0c4d \u0c1f\u0c1a\u0c4d \u0c39\u0c3e\u0c38\u0c4d\u0c2a\u0c3f\u0c1f\u0c32\u0c4d"}}, {"type": "way", "id": 360984573, "nodes": [3655195507, 3655195479, 3655195480, 3655195510, 3655195507], "tags": {"amenity": "school", "building": "yes", "building:levels": "2", "name": "Gunrock Public School"}}, {"type": "way", "id": 360984610, "nodes": [3655194041, 3655193071, 3655193081, 3655194060, 3655194041], "tags": {"amenity": "college", "building": "college", "name": "Government Junior Boys College", "name:en": "Government Junior Boys College", "name:te": "\u0c17\u0c35\u0c30\u0c4d\u0c28\u0c2e\u0c46\u0c02\u0c1f\u0c4d \u0c1c\u0c42\u0c28\u0c3f\u0c2f\u0c30\u0c4d \u0c2c\u0c3e\u0c2f\u0c4d\u0c38\u0c4d \u0c15\u0c3e\u0c32\u0c47\u0c1c\u0c40"}}, {"type": "way", "id": 360984755, "nodes": [3655194680, 3655194679, 8013332795, 3655194674, 3655194671, 3655194661, 8013332800, 8013332799, 8013332798, 8013332797, 3655194664, 8013332796, 3655194680], "tags": {"amenity": "place_of_worship", "name": "New Life Assembly of God (AG)", "religion": "christian"}}, {"type": "way", "id": 361005689, "nodes": [3655369064, 3655369061, 3655369040, 3655369039, 3655369027, 3655369029, 3655369064], "tags": {"addr:city": "Hyderabad", "addr:postcode": "500003", "addr:street": "Sardar Patel Rd", "amenity": "kindergarten", "level": "0", "name": "St. Ann's School Junior Wing Grounds", "operator": "St. Ann's High School", "wheelchair": "yes"}}, {"type": "way", "id": 361374171, "nodes": [3658594115, 3658594114, 3658594103, 3658594102, 3658594112, 3658594110, 3658594093, 3658594095, 3658594100, 3658594101, 3658594115], "tags": {"amenity": "clinic", "building": "yes", "name": "Sweekar Upkar"}}, {"type": "way", "id": 361374180, "nodes": [3658594266, 3658594238, 3658594218, 3658594230, 3658594233, 3658594241, 3658594247, 3658594252, 3658594237, 3658594226, 3658594192, 3658594208, 3658594246, 3658594251, 3658594258, 3658594254, 525059781, 3658594262, 3658594266], "tags": {"amenity": "cinema", "building": "yes", "name": "Tivoli Cinema"}}, {"type": "way", "id": 361380637, "nodes": [3658643017, 3658643125, 3658643018, 3658643016, 3658643017], "tags": {"amenity": "restaurant", "building": "commercial", "cuisine": "chinese;indian", "level": "2", "name": "Mujtaba Grills"}}, {"type": "way", "id": 361507579, "nodes": [3659715184, 3659715183, 3659715181, 3659715182, 3659715184], "tags": {"amenity": "restaurant", "building": "yes", "cuisine": "indian", "name": "Alfa Hotel", "name:en": "Alfa cafe"}}, {"type": "way", "id": 361861434, "nodes": [3662779513, 3662779514, 3662779515, 3662779516, 3662779513], "tags": {"amenity": "place_of_worship", "building": "yes"}}, {"type": "way", "id": 410554609, "nodes": [4123648937, 4123648934, 4123648935, 4123648944, 4123648937], "tags": {"amenity": "cinema", "building": "yes", "name": "Sri Devi Theatre"}}, {"type": "way", "id": 413246523, "nodes": [4146007241, 4146007239, 4146007233, 4146007235, 4146007241], "tags": {"amenity": "parking"}}, {"type": "way", "id": 413246550, "nodes": [4146007203, 4146007201, 4146007084, 4146007191, 4146007203], "tags": {"addr:district": "Hyderabad", "addr:full": "8-2-186, Near Passport Office, Secunderabad", "addr:postcode": "500003", "addr:state": "Telangana", "amenity": "hospital", "building": "yes", "fax": "040-66262388; 040-27131920", "health_facility:type": "AMCU Units;Medical Equipments;Operation Theaters;Emergency and CriticalCare;Ortho and Trauma Care;Maternity Unit;Ambulance;Pharmacy", "healthcare": "hospital", "healthcare:speciality": "multi speciality", "medical_system": "Allopathic", "name": "Vijaya Health Care", "operator:type": "private", "phone": "040 67362929;040 66262927", "source": "OpenGovernmentData", "website": "http://www.vijayahealthcare.com"}}, {"type": "way", "id": 413304820, "nodes": [4146434975, 4146434995, 4146434994, 4146434972, 4146434975], "tags": {"amenity": "place_of_worship", "building": "church", "name": "Millenium Methodist Church", "religion": "christian"}}, {"type": "way", "id": 413311009, "nodes": [4146479976, 4146479975, 4146479964, 4146479965, 4146479976], "tags": {"addr:district": "Hyderabad", "addr:full": "Near Clock Tower, Market Street, Secunderabad", "addr:postcode": "500003", "addr:state": "Telangana", "amenity": "hospital", "email": "info@carehospitals.com", "healthcare": "hospital", "name": "Care Hospitals - Secunderabad", "name:te": "\u0c15\u0c47\u0c30\u0c4d \u0c39\u0c3e\u0c38\u0c4d\u0c2a\u0c3f\u0c1f\u0c32\u0c4d", "phone": "040-30114500", "source": "OpenGovernmentData", "website": "https://www.carehospitals.com"}}, {"type": "way", "id": 413520492, "nodes": [4148327374, 4148327377, 4148327390, 4148327389, 4148327380, 4148327371, 4148327367, 4148327370, 4148327368, 4148327372, 4148327374], "tags": {"amenity": "school", "name": "Kotha yellaiah high school"}}, {"type": "way", "id": 413606271, "nodes": [4148957397, 4148957388, 4148957361, 4148957372, 4148957397], "tags": {"amenity": "showroom", "building": "yes"}}, {"type": "way", "id": 500394333, "nodes": [4914585987, 4914585986, 4914585985, 4914585984, 4914585983, 4914585982, 4914585981, 4914585980, 4914585979, 4914585978, 4914585977, 4914585976, 4914585975, 4914585987], "tags": {"amenity": "marketplace", "landuse": "retail", "name": "Market", "name:te": "\u0c2e\u0c3e\u0c30\u0c4d\u0c15\u0c46\u0c1f\u0c4d"}}, {"type": "way", "id": 500394338, "nodes": [4914586001, 4914586000, 4914585999, 321710431, 4914586001], "tags": {"amenity": "parking"}}, {"type": "way", "id": 500394340, "nodes": [4914586013, 4914586018, 4914586017, 4914586016, 4914586010, 4914586011, 4914586012, 4914586013], "tags": {"amenity": "parking"}}, {"type": "way", "id": 500394341, "nodes": [4914586010, 4914586015, 7279425302, 7279425301, 7279425300, 7279425299, 7279425298, 7279425297, 7279425296, 7279425295, 7279425294, 7279425293, 7279425292, 7279425291, 7279425290, 7279425288, 7279425289, 7279407526, 7279425287, 7279425286, 7279425285, 7279425303, 4914586014, 4914586020, 7279425304, 7279425305, 7279425306, 4914586019, 7279425307, 7279425308, 7279419975, 4914586013, 4914586012, 4914586011, 4914586010], "tags": {"amenity": "parking"}}, {"type": "way", "id": 536886955, "nodes": [5199965786, 5199965768, 5199965769, 5199965770, 5199965771, 5199965772, 5199965773, 5199965780, 5199965781, 5199965782, 5199965783, 5199965784, 5199965785, 5199965774, 5199965775, 5199965776, 5199965777, 5199965778, 5199965779, 5199965786], "tags": {"amenity": "restaurant", "building": "yes", "capacity": "150", "delivery": "no", "description": "Sanchalan Bhavan Canteen", "name": "Sanchalan Bhavan Canteen", "opening_hours": "Mo-Fr 08:00-17:00", "outdoor_seating": "no", "smoking": "no", "takeaway": "no"}}, {"type": "way", "id": 630995322, "nodes": [5957976497, 5957976498, 5957976499, 5957976500, 5957976497], "tags": {"amenity": "toilets", "building": "yes"}}, {"type": "way", "id": 630995323, "nodes": [5957976501, 5957976502, 5957976503, 5957976504, 5957976501], "tags": {"amenity": "toilets", "building": "yes"}}, {"type": "way", "id": 630995324, "nodes": [5957976500, 5957976505, 5957976506, 5957976507, 5957976508, 5957976509, 5957976500], "tags": {"amenity": "parking_space", "capacity": "1"}}, {"type": "way", "id": 630995325, "nodes": [5957976510, 5957976511, 5957976512, 5957976513, 5957976510], "tags": {"amenity": "place_of_worship", "building": "yes", "name": "Malayalam worship service hall", "religion": "christian"}}, {"type": "way", "id": 630995326, "nodes": [5957976514, 5957976515, 5957976516, 5957976517, 5957976514], "tags": {"amenity": "place_of_worship", "building": "yes", "name": "Telugu worship service hall", "religion": "christian"}}, {"type": "way", "id": 660640102, "nodes": [6185287781, 6185287780, 6185287782, 6185287783, 6185287781], "tags": {"amenity": "parking"}}, {"type": "way", "id": 721078605, "nodes": [6765562757, 6765562756, 6765562762, 6765562768, 6765562775, 6765562782, 6765562751, 6765562757], "tags": {"amenity": "marketplace", "name": "Chilkalguda Market"}}, {"type": "way", "id": 758939663, "nodes": [7088397079, 7088397080, 7088397081, 7088397082, 7088397079], "tags": {"amenity": "place_of_worship", "building": "yes", "name": "Hanuman Temple"}}, {"type": "way", "id": 859701773, "nodes": [8013337753, 1333758097, 8013337752, 8013337751, 8013337750, 8013337749, 8013337748, 8013337747, 8013337746, 8013337745, 8013337744, 8013337743, 8013337742, 8013337741, 8013337740, 8013337739, 8013337738, 8013337737, 8013337736, 3654091826, 8013337735, 8013337734, 8013337733, 8013337732, 8013337753], "tags": {"amenity": "school", "name": "Kendriya Vidyalaya Picket"}}, {"type": "way", "id": 889996803, "nodes": [8272799105, 8272799104, 8272799103, 8272799102, 8272799105], "tags": {"amenity": "parking"}}, {"type": "way", "id": 921619662, "nodes": [8556404517, 8556391914, 8556391913, 8473606293, 8556391916, 8556391915, 8042058563, 8042058562, 8556391912, 8042058559, 8042058558, 8556404517], "tags": {"amenity": "school", "name": "Centenary High School"}}, {"type": "way", "id": 965848781, "nodes": [8935105925, 8935105926, 8935105927, 8935105925], "tags": {"access": "permit", "amenity": "parking", "fee": "no", "parking": "surface", "surface": "asphalt"}}, {"type": "way", "id": 965848792, "nodes": [8935106032, 8935106033, 8935106034, 8935106035, 8935106032], "tags": {"access": "permit", "amenity": "parking", "fee": "no", "parking": "surface", "surface": "asphalt"}}, {"type": "way", "id": 965848793, "nodes": [8935106036, 8935106037, 8935106038, 8935106039, 8935106036], "tags": {"access": "permit", "amenity": "parking", "fee": "no", "parking": "surface", "surface": "asphalt"}}, {"type": "way", "id": 965854387, "nodes": [8935145540, 8935145541, 8935145542, 8935145543, 8935145540], "tags": {"amenity": "bus_station", "building": "shed", "bus": "yes", "name": "Aeroexpress Boarding Point", "operator": "TSRTC", "public_transport": "station"}}, {"type": "way", "id": 1122008696, "nodes": [10262078573, 10262078574, 10262078575, 10262078576, 10262078573], "tags": {"amenity": "community_centre", "building": "yes"}}, {"type": "way", "id": 1122008702, "nodes": [10262078598, 10262078599, 10262078600, 10262078601, 10262078598], "tags": {"amenity": "place_of_worship", "building": "yes", "religion": "christian"}}, {"type": "way", "id": 1155068341, "nodes": [10741975957, 10741975958, 10741975959, 10741975960, 10741975963, 3619024183, 10741975957], "tags": {"amenity": "place_of_worship", "building": "yes", "religion": "hindu"}}, {"type": "way", "id": 1155068342, "nodes": [10741975961, 10741975962, 10741975960, 10741975963, 10741975961], "tags": {"amenity": "place_of_worship", "building": "yes", "religion": "hindu"}}, {"type": "way", "id": 1155068343, "nodes": [10741975964, 10741975965, 10741975966, 10741975967, 10741975964], "tags": {"amenity": "place_of_worship", "building": "yes", "layer": "1", "religion": "hindu"}}, {"type": "way", "id": 1155068344, "nodes": [10741975968, 10741975969, 10741975970, 10741975971, 10741975968], "tags": {"amenity": "place_of_worship", "building": "yes", "layer": "1", "religion": "hindu"}}, {"type": "way", "id": 1177107988, "nodes": [4146795969, 4146795962, 4146795963, 4146795959, 4146795960, 4616439356, 4146795964, 4146795966, 4146795970, 4146795976, 4146795973, 4146795980, 4146795979, 4146795984, 4146795983, 4146795975, 4146795969], "tags": {"amenity": "place_of_worship", "basilica": "minor", "building": "church", "denomination": "catholic", "name": "Basilica of Our Lady of the Assumption", "name:fr": "Basilique Notre-Dame-de-l'Assomption", "religion": "christian", "wikidata": "Q4302765", "wikimedia_commons": "Category:Basilica of Our Lady of the Assumption, Secunderabad", "wikipedia": "en:Basilica of Our Lady of the Assumption, Secunderabad"}}]}