{"version": 0.6, "generator": "Overpass API 0.7.61.5 4133829e", "osm3s": {"timestamp_osm_base": "2024-02-21T13:18:15Z", "copyright": "The data included in this document is from www.openstreetmap.org. The data is made available under ODbL."}, "elements": [{"type": "node", "id": 6811749034, "lat": 17.4758884, "lon": 78.6536266, "tags": {"addr:district": "Medchal Malkajgiri", "addr:full": "Near Raju Kirana & General Store, Godumakunta, Karimguda", "addr:postcode": "501301", "addr:state": "Telangana", "amenity": "clinic", "name": "Sri Venkateshwara Clinic", "source": "OpenGovernmentData"}}, {"type": "node", "id": 6811749171, "lat": 17.4668456, "lon": 78.6414972, "tags": {"addr:district": "Medchal Malkajgiri", "addr:full": "Rampally Cross Roads, Gatkeshar, Secunderabad", "addr:postcode": "501301", "addr:state": "Telangana", "amenity": "clinic", "name": "Nirmala PolyClinic", "source": "OpenGovernmentData"}}, {"type": "node", "id": 6993330435, "lat": 17.4481904, "lon": 78.6362779, "tags": {"amenity": "atm", "brand": "metro", "wheelchair": "yes"}}, {"type": "node", "id": 6993330452, "lat": 17.4480764, "lon": 78.6363372, "tags": {"amenity": "fast_food", "cuisine": "indian", "name": "Roll Call", "outdoor_seating": "yes", "takeaway": "yes", "website": "https://facebook.com/RollCallHyd", "wheelchair": "yes"}}, {"type": "node", "id": 7015719475, "lat": 17.4482593, "lon": 78.6347853, "tags": {"amenity": "ice_cream", "name": "Dolphin juice 'n ice cream", "outdoor_seating": "yes", "shop": "beverages", "takeaway": "yes", "wheelchair": "yes"}}, {"type": "node", "id": 7015719480, "lat": 17.4480766, "lon": 78.6364061, "tags": {"amenity": "fast_food", "cuisine": "omelette", "name": "Ande Ka Funda"}}, {"type": "node", "id": 7015780388, "lat": 17.4483027, "lon": 78.6368688, "tags": {"amenity": "cafe", "name": "Karma Kaapi"}}, {"type": "node", "id": 10964561552, "lat": 17.4691299, "lon": 78.6421666, "tags": {"addr:district": "Medchal Malkajgiri", "addr:place": "Near Bus Stop", "addr:state": "Telangana", "addr:street": "GP Area", "addr:subdistrict": "Keesara", "amenity": "health_post", "healthcare": "yes", "name": "SubCentre Rampally", "operational_status": "operational", "operator:type": "government", "source": "OpenDataTelangana"}}, {"type": "node", "id": 11581704595, "lat": 17.4671111, "lon": 78.6410545, "tags": {"amenity": "fuel", "brand": "Indian Oil", "brand:wikidata": "Q1289348", "name": "Indian Oil"}}, {"type": "node", "id": 11581706418, "lat": 17.4705604, "lon": 78.6339261, "tags": {"amenity": "fuel", "brand": "Bharat Petroleum", "brand:wikidata": "Q854826", "name": "Bharat Petroleum"}}, {"type": "node", "id": 11581717647, "lat": 17.4712827, "lon": 78.6339719, "tags": {"amenity": "fuel", "brand": "Hindustan Petroleum", "brand:wikidata": "Q1619375", "name": "HP", "official_name": "Hindustan Petroleum"}}]}