{"version": 0.6, "generator": "Overpass API 0.7.61.5 4133829e", "osm3s": {"timestamp_osm_base": "2024-02-21T13:10:01Z", "copyright": "The data included in this document is from www.openstreetmap.org. The data is made available under ODbL."}, "elements": [{"type": "node", "id": 2149942406, "lat": 13.8635642, "lon": 74.8138466, "tags": {"amenity": "auto_stand", "name": "Auto Stand", "name:kn": "\u0c86\u0c9f\u0ccb \u0ca8\u0cbf\u0cb2\u0ccd\u0ca6\u0cbe\u0ca3"}}, {"type": "node", "id": 2149942408, "lat": 13.865721, "lon": 74.8119226, "tags": {"amenity": "fast_food", "name": "Hotel Lalithamba"}}, {"type": "node", "id": 2149942411, "lat": 13.8633214, "lon": 74.8120281, "tags": {"amenity": "pharmacy", "name": "Mahalakshmi Medicals"}}, {"type": "node", "id": 2149942413, "lat": 13.8636937, "lon": 74.814767, "tags": {"amenity": "place_of_worship", "name": "Saraswathi Mantapa", "religion": "hindu"}}, {"type": "node", "id": 2149942417, "lat": 13.8638565, "lon": 74.8142612, "tags": {"amenity": "place_of_worship", "name": "Sri Anjaneya Temple", "name:kn": "\u0c86\u0c82\u0c9c\u0ca8\u0cc7\u0caf \u0ca6\u0cc7\u0cb5\u0cb8\u0ccd\u0ca5\u0cbe\u0ca8", "religion": "hindu"}}, {"type": "node", "id": 2149942418, "lat": 13.8636438, "lon": 74.8142964, "tags": {"amenity": "place_of_worship", "name": "Sri Chandra Mouleshwara", "name:kn": "\u0c9a\u0c82\u0ca6\u0ccd\u0cb0\u0cae\u0ccc\u0cb3\u0cc7\u0cb6\u0ccd\u0cb5\u0cb0", "religion": "hindu"}}, {"type": "node", "id": 2149942419, "lat": 13.8638438, "lon": 74.8137148, "tags": {"amenity": "ice_cream", "name": "Sri Krishna Ice Cream"}}, {"type": "node", "id": 2149942420, "lat": 13.8636829, "lon": 74.8142881, "tags": {"amenity": "place_of_worship", "name": "Sri Najundeshwara", "name:kn": "\u0cb6\u0ccd\u0cb0\u0cc0 \u0ca8\u0c82\u0c9c\u0cc1\u0c82\u0ca1\u0cc7\u0cb6\u0ccd\u0cb5\u0cb0", "religion": "hindu"}}, {"type": "node", "id": 2149942421, "lat": 13.8636034, "lon": 74.8143033, "tags": {"amenity": "place_of_worship", "name": "Sri Panchamukhi Ganapathi", "name:kn": "\u0ca8\u0c9c\u0cc1\u0c82\u0ca1\u0cc7\u0cb6\u0ccd\u0cb5\u0cb0", "religion": "hindu"}}, {"type": "node", "id": 2149942422, "lat": 13.863567, "lon": 74.8143075, "tags": {"amenity": "place_of_worship", "name": "Sri Partheshwara", "name:kn": "\u0cb6\u0ccd\u0cb0\u0cc0 \u0caa\u0cbe\u0cb0\u0ccd\u0ca5\u0cc7\u0cb6\u0ccd\u0cb5\u0cb0", "religion": "hindu"}}, {"type": "node", "id": 2149942423, "lat": 13.8635333, "lon": 74.8143145, "tags": {"amenity": "place_of_worship", "name": "Sri Pranalingeshwara", "name:kn": "\u0caa\u0ccd\u0cb0\u0cbe\u0ca3\u0cb2\u0cbf\u0c82\u0c97\u0cc7\u0cb6\u0ccd\u0cb5\u0cb0", "religion": "hindu"}}, {"type": "node", "id": 2149942424, "lat": 13.8637597, "lon": 74.8148156, "tags": {"amenity": "place_of_worship", "name": "Sri Subramanya", "religion": "hindu"}}, {"type": "node", "id": 2149942425, "lat": 13.8639602, "lon": 74.8147981, "tags": {"amenity": "place_of_worship", "name": "Sri Veerabhadraswamy", "name:kn": "\u0cb5\u0cc0\u0cb0\u0cad\u0ca6\u0ccd\u0cb0 \u0cb8\u0ccd\u0cb5\u0cbe\u0cae\u0cbf \u0ca6\u0cc7\u0cb5\u0cb8\u0ccd\u0ca5\u0cbe\u0ca8", "religion": "hindu"}}, {"type": "node", "id": 2149942426, "lat": 13.8638985, "lon": 74.8142475, "tags": {"amenity": "place_of_worship", "name": "Sri Venkataramana", "name:kn": "\u0cb6\u0ccd\u0cb0\u0cc0 \u0cb5\u0cc6\u0c82\u0c95\u0c9f\u0cb0\u0cae\u0ca3", "religion": "hindu"}}, {"type": "node", "id": 2149942428, "lat": 13.8625027, "lon": 74.8102278, "tags": {"amenity": "atm", "operator": "Axis Bank"}}, {"type": "node", "id": 2149942433, "lat": 13.8626342, "lon": 74.8108172}, {"type": "node", "id": 2149942434, "lat": 13.8626452, "lon": 74.8103867}, {"type": "node", "id": 2149942435, "lat": 13.8626493, "lon": 74.8103319}, {"type": "node", "id": 2149942436, "lat": 13.8626684, "lon": 74.8109508}, {"type": "node", "id": 2149942437, "lat": 13.8627143, "lon": 74.8107955}, {"type": "node", "id": 2149942438, "lat": 13.8627385, "lon": 74.8117988}, {"type": "node", "id": 2149942439, "lat": 13.8627423, "lon": 74.8103944}, {"type": "node", "id": 2149942440, "lat": 13.8627429, "lon": 74.8108347, "tags": {"amenity": "post_box", "operator": "India Post"}}, {"type": "node", "id": 2149942442, "lat": 13.8627463, "lon": 74.8103395}, {"type": "node", "id": 2149942443, "lat": 13.8627484, "lon": 74.810929}, {"type": "node", "id": 2149942445, "lat": 13.8627801, "lon": 74.8119486}, {"type": "node", "id": 2149942447, "lat": 13.8628526, "lon": 74.8111494}, {"type": "node", "id": 2149942448, "lat": 13.862862, "lon": 74.8112694}, {"type": "node", "id": 2149942449, "lat": 13.86296, "lon": 74.8111404}, {"type": "node", "id": 2149942450, "lat": 13.8629694, "lon": 74.8112604}, {"type": "node", "id": 2149942451, "lat": 13.8631229, "lon": 74.8122907}, {"type": "node", "id": 2149942452, "lat": 13.8631383, "lon": 74.8116813}, {"type": "node", "id": 2149942453, "lat": 13.8631434, "lon": 74.8124861}, {"type": "node", "id": 2149942455, "lat": 13.8631798, "lon": 74.8118311}, {"type": "node", "id": 2149942456, "lat": 13.8632026, "lon": 74.8121511}, {"type": "node", "id": 2149942457, "lat": 13.863213, "lon": 74.8122145}, {"type": "node", "id": 2149942458, "lat": 13.8632357, "lon": 74.8134261}, {"type": "node", "id": 2149942459, "lat": 13.8632547, "lon": 74.813621}, {"type": "node", "id": 2149942460, "lat": 13.8632586, "lon": 74.8121414}, {"type": "node", "id": 2149942462, "lat": 13.863269, "lon": 74.8122048}, {"type": "node", "id": 2149942463, "lat": 13.8632823, "lon": 74.812273}, {"type": "node", "id": 2149942465, "lat": 13.8633028, "lon": 74.8124684}, {"type": "node", "id": 2149942468, "lat": 13.8633405, "lon": 74.8134152}, {"type": "node", "id": 2149942469, "lat": 13.8633509, "lon": 74.8135216}, {"type": "node", "id": 2149942472, "lat": 13.8634261, "lon": 74.8135138}, {"type": "node", "id": 2149942474, "lat": 13.8634347, "lon": 74.8136024}, {"type": "node", "id": 2149942475, "lat": 13.8634493, "lon": 74.8142418}, {"type": "node", "id": 2149942476, "lat": 13.8634516, "lon": 74.8147214, "tags": {"amenity": "telephone", "payment:coins": "yes", "payment:notes": "yes"}}, {"type": "node", "id": 2149942477, "lat": 13.8634573, "lon": 74.8149856}, {"type": "node", "id": 2149942478, "lat": 13.8634649, "lon": 74.8150306}, {"type": "node", "id": 2149942481, "lat": 13.86351, "lon": 74.8149761}, {"type": "node", "id": 2149942482, "lat": 13.8635176, "lon": 74.8150211}, {"type": "node", "id": 2149942484, "lat": 13.863579, "lon": 74.8149397}, {"type": "node", "id": 2149942485, "lat": 13.863609, "lon": 74.8135506}, {"type": "node", "id": 2149942486, "lat": 13.8636666, "lon": 74.8136893}, {"type": "node", "id": 2149942488, "lat": 13.8637292, "lon": 74.8134976}, {"type": "node", "id": 2149942490, "lat": 13.8637869, "lon": 74.8136363}, {"type": "node", "id": 2149942491, "lat": 13.863868, "lon": 74.8148827, "tags": {"barrier": "gate", "foot": "yes"}}, {"type": "node", "id": 2149942496, "lat": 13.8640318, "lon": 74.8141269}, {"type": "node", "id": 2149942498, "lat": 13.8641347, "lon": 74.8146804, "tags": {"barrier": "gate", "foot": "yes"}}, {"type": "node", "id": 2149942499, "lat": 13.8641386, "lon": 74.814355}, {"type": "node", "id": 2149942501, "lat": 13.8641615, "lon": 74.8148248}, {"type": "node", "id": 2149942503, "lat": 13.8641883, "lon": 74.8147101, "tags": {"amenity": "drinking_water"}}, {"type": "node", "id": 2149942505, "lat": 13.8642103, "lon": 74.814721}, {"type": "node", "id": 2149942508, "lat": 13.8642441, "lon": 74.8143331}, {"type": "node", "id": 2149942513, "lat": 13.8643157, "lon": 74.8146991}, {"type": "node", "id": 2149942514, "lat": 13.8643348, "lon": 74.8147385, "tags": {"amenity": "toilets"}}, {"type": "node", "id": 2149942527, "lat": 13.8649846, "lon": 74.8137995}, {"type": "node", "id": 2149942528, "lat": 13.8649923, "lon": 74.8130781}, {"type": "node", "id": 2149942531, "lat": 13.8650714, "lon": 74.8132744}, {"type": "node", "id": 2149942534, "lat": 13.8651162, "lon": 74.8134241}, {"type": "node", "id": 2149942535, "lat": 13.8651181, "lon": 74.8140282}, {"type": "node", "id": 2149942537, "lat": 13.8651524, "lon": 74.8139036}, {"type": "node", "id": 2149942538, "lat": 13.8651562, "lon": 74.8132332}, {"type": "node", "id": 2149942539, "lat": 13.86516, "lon": 74.8135217}, {"type": "node", "id": 2149942541, "lat": 13.8651814, "lon": 74.8129883}, {"type": "node", "id": 2149942542, "lat": 13.8651868, "lon": 74.8129845}, {"type": "node", "id": 2149942543, "lat": 13.8651933, "lon": 74.8139762}, {"type": "node", "id": 2149942545, "lat": 13.8652134, "lon": 74.8133755}, {"type": "node", "id": 2149942546, "lat": 13.8652219, "lon": 74.813666}, {"type": "node", "id": 2149942547, "lat": 13.8652373, "lon": 74.8122876}, {"type": "node", "id": 2149942548, "lat": 13.8652593, "lon": 74.8131582}, {"type": "node", "id": 2149942550, "lat": 13.8652782, "lon": 74.8138221}, {"type": "node", "id": 2149942551, "lat": 13.8652841, "lon": 74.8122285}, {"type": "node", "id": 2149942553, "lat": 13.8653262, "lon": 74.8123622}, {"type": "node", "id": 2149942557, "lat": 13.865373, "lon": 74.8123032}, {"type": "node", "id": 2149942562, "lat": 13.8654359, "lon": 74.8135717}, {"type": "node", "id": 2149942563, "lat": 13.8654366, "lon": 74.8128738}, {"type": "node", "id": 2149942568, "lat": 13.8655091, "lon": 74.8130476}, {"type": "node", "id": 2792800008, "lat": 13.8631234, "lon": 74.8103592, "tags": {"amenity": "school", "name": "Government Higher Primary School, Kollur", "name:kn": "\u0cb8\u0cb0\u0ccd\u0c95\u0cbe\u0cb0\u0cbf \u0cb9\u0cbf\u0cb0\u0cbf\u0caf \u0caa\u0ccd\u0cb0\u0cbe\u0ca5\u0cae\u0cbf\u0c95 \u0cb6\u0cbe\u0cb2\u0cc6"}}, {"type": "way", "id": 205016754, "nodes": [2149942488, 2149942485, 2149942486, 2149942490, 2149942488], "tags": {"amenity": "fast_food", "building": "yes", "name": "Adiga Heritage Hotel"}}, {"type": "way", "id": 205016756, "nodes": [2149942481, 2149942477, 2149942478, 2149942482, 2149942481], "tags": {"amenity": "place_of_worship", "name": "Balamuri Ganapathi Temple", "name:kn": "\u0cac\u0cb2\u0cae\u0cc1\u0cb0\u0cbf \u0c97\u0ca3\u0caa\u0ca4\u0cbf \u0ca6\u0cc7\u0cb5\u0cb8\u0ccd\u0ca5\u0cbe\u0ca8", "religion": "hindu"}}, {"type": "way", "id": 205016761, "nodes": [2149942437, 2149942433, 2149942436, 2149942443, 2149942437], "tags": {"amenity": "post_office", "building": "yes", "name": "Post Office, Kolluru", "name:kn": "\u0c95\u0cca\u0cb2\u0ccd\u0cb2\u0cc2\u0cb0\u0cc1 \u0c85\u0c82\u0c9a\u0cc6 \u0c95\u0c9b\u0cc7\u0cb0\u0cbf"}}, {"type": "way", "id": 205016763, "nodes": [2149942442, 2149942435, 2149942434, 2149942439, 2149942442], "tags": {"amenity": "place_of_worship", "building": "yes", "name": "Marikamba Temple", "name:en": "Marikamba Temple", "name:kn": "\u0cae\u0cbe\u0cb0\u0cbf\u0c95\u0cbe\u0c82\u0cac \u0ca6\u0cc7\u0cb5\u0cb8\u0ccd\u0ca5\u0cbe\u0ca8", "religion": "hindu"}}, {"type": "way", "id": 205016765, "nodes": [2149942449, 2149942447, 2149942448, 2149942450, 2149942449], "tags": {"amenity": "fast_food", "building": "yes", "name": "Mayura Hotel", "name:kn": "\u0cae\u0caf\u0cc2\u0cb0"}}, {"type": "way", "id": 205016766, "nodes": [2149942541, 2149942528, 2149942531, 2149942538, 2149942545, 2149942534, 2149942539, 2149942527, 2149942535, 2149942543, 2149942537, 2149942550, 2149942546, 2149942562, 2149942541], "tags": {"amenity": "parking", "area": "yes", "parking": "surface"}}, {"type": "way", "id": 205016767, "nodes": [2149942463, 2149942451, 2149942453, 2149942465, 2149942463], "tags": {"amenity": "parking_space", "area": "yes", "parking": "surface"}}, {"type": "way", "id": 205016768, "nodes": [2149942468, 2149942458, 2149942459, 2149942474, 2149942472, 2149942469, 2149942468], "tags": {"amenity": "police", "building": "yes", "name": "Police Station", "name:kn": "\u0c86\u0cb0\u0c95\u0ccd\u0cb7\u0c95 \u0ca0\u0cbe\u0ca3\u0cc6"}}, {"type": "way", "id": 205016773, "nodes": [2149942508, 2149942499, 2149942505, 2149942513, 2149942508], "tags": {"amenity": "food_court", "name": "Sri Devi Prasada Nialam", "opening_hours": "12:00-14:30;20:00-21:30"}}, {"type": "way", "id": 205016774, "nodes": [2149942563, 2149942542, 2149942548, 2149942568, 2149942563], "tags": {"amenity": "community_centre", "building": "yes", "name": "Sri Mookambika Sabha Bhavana", "name:kn": "\u0cae\u0cc2\u0c95\u0cbe\u0c82\u0cac\u0cbf\u0c95\u0cbe \u0cb8\u0cad \u0cad\u0cb5\u0ca8"}}, {"type": "way", "id": 205016775, "nodes": [2149942452, 2149942438, 2149942445, 2149942455, 2149942452], "tags": {"amenity": "place_of_worship", "name": "Sri Shankarashrama", "name:kn": "\u0cb6\u0ccd\u0cb0\u0cc0 \u0cb6\u0c82\u0c95\u0cb0\u0cbe\u0cb6\u0ccd\u0cb0\u0cae", "religion": "hindu"}}, {"type": "way", "id": 205016778, "nodes": [2149942460, 2149942462, 2149942457, 2149942456, 2149942460], "tags": {"amenity": "bank", "building": "yes", "name": "Syndicate Bank", "name:kn": "\u0cb8\u0cbf\u0c82\u0ca1\u0cbf\u0c95\u0cc7\u0c9f\u0ccd \u0cac\u0ccd\u0caf\u0cbe\u0c82\u0c95\u0ccd"}}, {"type": "way", "id": 205016789, "nodes": [2149942551, 2149942547, 2149942553, 2149942557, 2149942551], "tags": {"amenity": "toilets", "building": "yes", "fee": "yes", "operator": "Sulab Toilet"}}, {"type": "way", "id": 205016790, "nodes": [2149942496, 2149942475, 2149942484, 2149942491, 2149942501, 2149942498, 2149942496], "tags": {"amenity": "place_of_worship", "area": "yes", "building": "yes", "name": "Kollur Sri Mookambika Temple", "name:hi": "\u0936\u094d\u0930\u0940 \u092e\u0942\u0915\u093e\u092e\u094d\u092c\u093f\u0915\u093e \u092e\u0902\u0926\u093f\u0930", "name:kn": "\u0c95\u0cca\u0cb2\u0ccd\u0cb2\u0cc2\u0cb0\u0cc1 \u0cb6\u0ccd\u0cb0\u0cc0 \u0cae\u0cc2\u0c95\u0cbe\u0c82\u0cac\u0cbf\u0c95\u0cbe \u0ca6\u0cc7\u0cb5\u0cb8\u0ccd\u0ca5\u0cbe\u0ca8", "name:ml": "\u0d15\u0d4a\u0d32\u0d4d\u0d32\u0d42\u0d7c \u0d36\u0d4d\u0d30\u0d40 \u0d2e\u0d42\u0d15\u0d3e\u0d02\u0d2c\u0d3f\u0d15 \u0d15\u0d4d\u0d37\u0d47\u0d24\u0d4d\u0d30\u0d02", "name:ta": "\u0b95\u0bca\u0bb2\u0bcd\u0bb2\u0bc2\u0bb0\u0bcd \u0bb8\u0bcd\u0bb0\u0bc0 \u0bae\u0bc2\u0b95\u0bbe\u0bae\u0bcd\u0baa\u0bbf\u0b95\u0bc8 \u0b95\u0bcb\u0bb5\u0bbf\u0bb2\u0bcd", "name:te": "\u0c15\u0c4a\u0c32\u0c4d\u0c32\u0c42\u0c30\u0c41 \u0c36\u0c4d\u0c30\u0c40 \u0c2e\u0c42\u0c15\u0c3e\u0c02\u0c2c\u0c3f\u0c15 \u0c26\u0c47\u0c35\u0c3e\u0c32\u0c2f\u0c02", "religion": "hindu", "wikidata": "Q3595863", "wikimedia_commons": "Category:Kollur Mookambika Temple", "wikipedia": "en:Kollur Mookambika Temple"}}]}