{"version": 0.6, "generator": "Overpass API 0.7.61.5 4133829e", "osm3s": {"timestamp_osm_base": "2024-02-21T13:05:00Z", "copyright": "The data included in this document is from www.openstreetmap.org. The data is made available under ODbL."}, "elements": [{"type": "node", "id": 316971923, "lat": 17.3628034, "lon": 78.4498034}, {"type": "node", "id": 316971924, "lat": 17.3624489, "lon": 78.4496214}, {"type": "node", "id": 316973328, "lat": 17.3621307, "lon": 78.449504}, {"type": "node", "id": 2600029567, "lat": 17.3835196, "lon": 78.420633}, {"type": "node", "id": 2600029568, "lat": 17.3837065, "lon": 78.4209442}, {"type": "node", "id": 2600029569, "lat": 17.3840111, "lon": 78.4209013}, {"type": "node", "id": 2600029570, "lat": 17.3836578, "lon": 78.4208047}, {"type": "node", "id": 2600029571, "lat": 17.3836295, "lon": 78.4201408}, {"type": "node", "id": 2600029572, "lat": 17.383471, "lon": 78.4205687}, {"type": "node", "id": 2600029573, "lat": 17.3840699, "lon": 78.420397}, {"type": "node", "id": 2791915531, "lat": 17.3627486, "lon": 78.4481308}, {"type": "node", "id": 2791915542, "lat": 17.3628917, "lon": 78.4482308}, {"type": "node", "id": 2791915546, "lat": 17.3630349, "lon": 78.4477859}, {"type": "node", "id": 2791915552, "lat": 17.3634309, "lon": 78.4492506}, {"type": "node", "id": 2791915558, "lat": 17.3635766, "lon": 78.4499333}, {"type": "node", "id": 2791915566, "lat": 17.3635645, "lon": 78.4478259}, {"type": "node", "id": 2791915568, "lat": 17.363574, "lon": 78.4487457}, {"type": "node", "id": 2791915570, "lat": 17.3635788, "lon": 78.4493506}, {"type": "node", "id": 2791915583, "lat": 17.3662246, "lon": 78.4450072}, {"type": "node", "id": 2791915585, "lat": 17.3674424, "lon": 78.4441966}, {"type": "node", "id": 2791915587, "lat": 17.3679934, "lon": 78.4448225}, {"type": "node", "id": 2791915589, "lat": 17.3689157, "lon": 78.4456855}, {"type": "node", "id": 2791915591, "lat": 17.3690055, "lon": 78.4451619}, {"type": "node", "id": 2817365835, "lat": 17.385336, "lon": 78.4341413, "tags": {"addr:city": "Hyderabad", "addr:postcode": "500028", "addr:street": "Gudimalkapur Rd, Mehedipatnam", "amenity": "marketplace", "name": "Gudimalkapur Flower Market"}}, {"type": "node", "id": 2817379201, "lat": 17.3808141, "lon": 78.4408213, "tags": {"addr:city": "Hyderabad", "addr:postcode": "500028", "addr:street": "Karwan Rd, Gudimalkapur, Mehedipatnam", "amenity": "place_of_worship", "name": "Hanuman Temple", "note": "Open : 4:30AM to 8:30PM", "religion": "hindu"}}, {"type": "node", "id": 2817379324, "lat": 17.3812426, "lon": 78.4391939, "tags": {"addr:city": "Hyderabad", "addr:postcode": "500028", "addr:street": "Karwan Rd, Gudimalkapur, Mehedipatnam", "amenity": "fuel", "name": "HP Gas Station (Petrol pump)", "operator": "HP"}}, {"type": "node", "id": 2857777683, "lat": 17.3812029, "lon": 78.4420202}, {"type": "node", "id": 2857777684, "lat": 17.3814881, "lon": 78.4414085}, {"type": "node", "id": 2857777685, "lat": 17.381707, "lon": 78.4408664}, {"type": "node", "id": 2857777686, "lat": 17.3818529, "lon": 78.4429167}, {"type": "node", "id": 2857777687, "lat": 17.3822177, "lon": 78.4410332}, {"type": "node", "id": 2857777688, "lat": 17.3824034, "lon": 78.4430279}, {"type": "node", "id": 2857777689, "lat": 17.382808, "lon": 78.4414155}, {"type": "node", "id": 2857777690, "lat": 17.3829656, "lon": 78.4430749}, {"type": "node", "id": 2857777691, "lat": 17.3830269, "lon": 78.4425136}, {"type": "node", "id": 2857777692, "lat": 17.3832193, "lon": 78.4416935}, {"type": "node", "id": 2861479505, "lat": 17.368323, "lon": 78.4486059}, {"type": "node", "id": 2861479506, "lat": 17.3683417, "lon": 78.4484258}, {"type": "node", "id": 2861479509, "lat": 17.3684812, "lon": 78.4486094}, {"type": "node", "id": 2861479510, "lat": 17.3684965, "lon": 78.4484508}, {"type": "node", "id": 3201283332, "lat": 17.3731145, "lon": 78.4150069, "tags": {"amenity": "place_of_worship"}}, {"type": "node", "id": 3201283335, "lat": 17.3829278, "lon": 78.4217951, "tags": {"amenity": "place_of_worship", "name": "golkonda fort", "religion": "muslim"}}, {"type": "node", "id": 3201283337, "lat": 17.3809918, "lon": 78.4295466, "tags": {"amenity": "place_of_worship"}}, {"type": "node", "id": 3390852922, "lat": 17.3763919, "lon": 78.4199912, "tags": {"amenity": "cinema"}}, {"type": "node", "id": 3547294209, "lat": 17.3723782, "lon": 78.4129047}, {"type": "node", "id": 3612553230, "lat": 17.3631545, "lon": 78.4498879}, {"type": "node", "id": 3612553334, "lat": 17.3633909, "lon": 78.4499081}, {"type": "node", "id": 3612554338, "lat": 17.3669417, "lon": 78.4445467}, {"type": "node", "id": 3619045647, "lat": 17.3690256, "lon": 78.4296501}, {"type": "node", "id": 3619045650, "lat": 17.3690555, "lon": 78.4294731}, {"type": "node", "id": 3619045657, "lat": 17.369142, "lon": 78.4296716}, {"type": "node", "id": 3619045658, "lat": 17.3691719, "lon": 78.4294946}, {"type": "node", "id": 3619241475, "lat": 17.3661821, "lon": 78.4277301}, {"type": "node", "id": 3619241907, "lat": 17.3664959, "lon": 78.4274847}, {"type": "node", "id": 3619241920, "lat": 17.366578, "lon": 78.427784}, {"type": "node", "id": 3619241927, "lat": 17.3666109, "lon": 78.4275191}, {"type": "node", "id": 3626273393, "lat": 17.3723762, "lon": 78.4123133}, {"type": "node", "id": 3626273395, "lat": 17.3723799, "lon": 78.4120313}, {"type": "node", "id": 3626273436, "lat": 17.3724811, "lon": 78.4123148}, {"type": "node", "id": 3626273438, "lat": 17.3724839, "lon": 78.4121008}, {"type": "node", "id": 3626273467, "lat": 17.3725539, "lon": 78.4121018}, {"type": "node", "id": 3626273469, "lat": 17.3725548, "lon": 78.4120339}, {"type": "node", "id": 3626273867, "lat": 17.3727298, "lon": 78.4121939}, {"type": "node", "id": 3626273869, "lat": 17.3727321, "lon": 78.4120183}, {"type": "node", "id": 3626274333, "lat": 17.3728768, "lon": 78.4121961}, {"type": "node", "id": 3626274334, "lat": 17.3728792, "lon": 78.4120205}, {"type": "node", "id": 3628644498, "lat": 17.3846382, "lon": 78.4329972}, {"type": "node", "id": 3628644513, "lat": 17.3846665, "lon": 78.432565}, {"type": "node", "id": 3628644812, "lat": 17.384961, "lon": 78.4330204}, {"type": "node", "id": 3628644827, "lat": 17.3849893, "lon": 78.4325882}, {"type": "node", "id": 3658653185, "lat": 17.3725667, "lon": 78.4121527}, {"type": "node", "id": 3658653186, "lat": 17.3725692, "lon": 78.4120255}, {"type": "node", "id": 3658653187, "lat": 17.372647, "lon": 78.4121545}, {"type": "node", "id": 3658653188, "lat": 17.3726495, "lon": 78.4120273}, {"type": "node", "id": 3668069411, "lat": 17.3714238, "lon": 78.4438197}, {"type": "node", "id": 3668069412, "lat": 17.3714462, "lon": 78.4436644}, {"type": "node", "id": 3668069428, "lat": 17.3715555, "lon": 78.4438406}, {"type": "node", "id": 3668069431, "lat": 17.3715689, "lon": 78.4437479}, {"type": "node", "id": 3668070036, "lat": 17.3743282, "lon": 78.4445838}, {"type": "node", "id": 3668070038, "lat": 17.3743389, "lon": 78.4444107}, {"type": "node", "id": 3668070045, "lat": 17.3743786, "lon": 78.4444133}, {"type": "node", "id": 3668070049, "lat": 17.3744135, "lon": 78.4445896}, {"type": "node", "id": 3668070053, "lat": 17.3744218, "lon": 78.4444536}, {"type": "node", "id": 3936112700, "lat": 17.3615965, "lon": 78.4276746, "tags": {"amenity": "mall", "name": "South India"}}, {"type": "node", "id": 4175499022, "lat": 17.3630175, "lon": 78.448178}, {"type": "node", "id": 4175499024, "lat": 17.3635348, "lon": 78.4485826}, {"type": "node", "id": 4176020268, "lat": 17.372368, "lon": 78.4119942}, {"type": "node", "id": 4192842983, "lat": 17.3808893, "lon": 78.4428333}, {"type": "node", "id": 4338378889, "lat": 17.3797252, "lon": 78.4331981, "tags": {"addr:postcode": "500028", "addr:street": "Golconda Road", "amenity": "community_centre", "name": "V M GARDEN", "opening_hours": "24/7"}}, {"type": "node", "id": 5644406041, "lat": 17.3568846, "lon": 78.4399451, "tags": {"amenity": "cafe", "cuisine": "indian", "name": "Limrah Tea & Snaks"}}, {"type": "node", "id": 6253709485, "lat": 17.3743759, "lon": 78.4184878, "tags": {"amenity": "pharmacy", "name": "Apollo Pharmacy"}}, {"type": "node", "id": 6253709486, "lat": 17.3774195, "lon": 78.4202769, "tags": {"amenity": "bar", "name": "Balaji Bar and Restaurant"}}, {"type": "node", "id": 6280085610, "lat": 17.3728757, "lon": 78.4119759}, {"type": "node", "id": 6280085611, "lat": 17.372868, "lon": 78.4124426}, {"type": "node", "id": 6280085612, "lat": 17.3728744, "lon": 78.4130475}, {"type": "node", "id": 6485264332, "lat": 17.3755381, "lon": 78.4190255, "tags": {"addr:district": "Hyderabad", "addr:full": "9-1-43/24, Langar House", "addr:postcode": "500008", "addr:state": "Telangana", "amenity": "hospital", "name": "Kosaraju Hospitals Private Ltd.", "source": "OpenGovernmentData"}}, {"type": "node", "id": 6485813857, "lat": 17.3819369, "lon": 78.4392936, "tags": {"addr:district": "Hyderabad", "addr:full": "10-3-273/10, Humayunnagar", "addr:state": "Telangana", "amenity": "clinic", "health_facility:type": "dispensary", "healthcare": "centre", "medical_system": "Allopathic", "name": "CGHS Dispensary No.II, Humayunagar", "operator:type": "public; government", "phone": "040 23531833", "source": "OpenGovernmentData", "website": "http://nb.bsf.gov.in/CGHS%20DIspenseries.pdf"}}, {"type": "node", "id": 6485889000, "lat": 17.376004, "lon": 78.4190007, "tags": {"addr:district": "Hyderabad", "addr:full": "9-1-43/8, Near Alankar Cinemas, Langar Houz", "addr:postcode": "500008", "addr:state": "Telangana", "amenity": "hospital", "name": "Vasu Hospital", "source": "OpenGovernmentData"}}, {"type": "node", "id": 6496875044, "lat": 17.379978, "lon": 78.421019, "tags": {"addr:district": "Hyderabad", "addr:full": "Bapu Nagar, Langar Houz", "addr:postcode": "500008", "addr:state": "Telangana", "amenity": "hospital", "contact:email": "majestic.hospital@yahoo.com", "healthcare:speciality": "General Surgery; Pediatric; Orthopedics; Obstetrics and Gynaecology; ENT; Anesthesiology; Opthamology; Dermatology", "medical_system": "Allopathic", "name": "Majestic Hospital", "operator:type": "private", "phone": "040 23521051", "source": "OpenGovernmentData", "website": "http://www.majestichospital.com"}}, {"type": "node", "id": 6502946680, "lat": 17.3836628, "lon": 78.4292413, "tags": {"addr:district": "Hyderabad", "addr:full": "H.No.13-6-434C/148, Opp. Pillar No. 81, PVNR Exp Highway, Inner Ring Road, Maruthi Nagar, Mehdipatnam", "addr:postcode": "500008", "addr:state": "Telangana", "amenity": "hospital", "contact:email": "info@mythrihospital.net", "contact:phone": "+91 7997996030 ; 040-23516326/27", "name": "Mythri Hospital", "source": "OpenGovernmentData", "website": "https://www.mythrihospital.net/"}}, {"type": "node", "id": 6503431340, "lat": 17.3763547, "lon": 78.4203096, "tags": {"addr:district": "Hyderabad", "addr:full": "9-1-29/23, Opposite To Alankar Cinema, Langar Houz", "addr:postcode": "500008", "addr:state": "Telangana", "amenity": "hospital", "name": "Ambaa Hospitals", "source": "OpenGovernmentData"}}, {"type": "node", "id": 6505516403, "lat": 17.3837869, "lon": 78.4367287, "tags": {"addr:district": "Hyderabad", "addr:full": "12-2-417/46/8/G1, Hari Hara Teja Apartments, Shiv Bagh, Near Gudimalkapur 'X' Roads", "addr:postcode": "500028", "addr:state": "Telangana", "amenity": "hospital", "name": "Dharani Hospital", "source": "OpenGovernmentData"}}, {"type": "node", "id": 6536842812, "lat": 17.36424, "lon": 78.4275663, "tags": {"addr:district": "Hyderabad", "addr:full": "3-4-181/1, Hyderguda, Attapur", "addr:postcode": "500048", "addr:state": "Telangana", "amenity": "hospital", "name": "Usha Mohan Hospital", "source": "OpenGovernmentData"}}, {"type": "node", "id": 6548828778, "lat": 17.3802341, "lon": 78.4297081, "tags": {"addr:city": "Hyderabad", "addr:full": "13-6-431/D/77/A&B, PILLAR NO.92, MOGHAL KA NALA, ATTAPUR, Opp:HOTEL SWAGATH GRAND", "addr:postcode": "500028", "addr:state": "Telangana", "amenity": "hospital", "contact:phone": "0407032555; 666; 7032664444; 23525565", "name": "RISE CHILDRENS HOSPITAL (A UNIT OF RISE HOSPITALS PVT. LTD.)", "operator:type": "private", "source": "OpenGovernmentData"}}, {"type": "node", "id": 6548894505, "lat": 17.3612589, "lon": 78.4280745, "tags": {"addr:city": "Hyderabad", "addr:full": "H.No: 4-8-137/5/A, Opp Pillar No: 151, ATTAPUR", "addr:postcode": "500048", "addr:state": "Telangana", "amenity": "hospital", "contact:phone": "24001117", "name": "SAI SURYA HOSPITAL", "operator:type": "private", "source": "OpenGovernmentData"}}, {"type": "node", "id": 6549152212, "lat": 17.3632928, "lon": 78.4284984, "tags": {"addr:city": "Hyderabad", "addr:full": "H.No: 4-8-149/4/2/1, Opp Pillar No:145, ATTAPUR", "addr:postcode": "500048", "addr:state": "Telangana", "amenity": "hospital", "contact:phone": "47201201", "name": "ZOI HOSPITALS", "operator:type": "private", "source": "OpenGovernmentData"}}, {"type": "node", "id": 6549176002, "lat": 17.3696216, "lon": 78.4273417, "tags": {"addr:city": "Hyderabad", "addr:full": "LANE ADJACENT TO SPENCERS, PILLAR NO 125, AMBIENCE FORT ROAD, ATTAPUR", "addr:postcode": "500048", "addr:state": "Telangana", "amenity": "hospital", "name": "IRIS EYE HOSPITAL", "operator:type": "private", "source": "OpenGovernmentData"}}, {"type": "node", "id": 6549197557, "lat": 17.3529175, "lon": 78.4180733, "tags": {"addr:city": "Hyderabad", "addr:full": "Opp. PILLAR NO. 190, FORT VIEW COLONY, PVNR EXPRESS FLYOVER, UPPARPALLY, RAJENDERA NAGAR", "addr:postcode": "500048", "addr:state": "Telangana", "amenity": "hospital", "contact:phone": "65645555", "name": "HUMAN TOUCH HOSPITAL", "operator:type": "private", "source": "OpenGovernmentData"}}, {"type": "node", "id": 6549203906, "lat": 17.3619565, "lon": 78.4281778, "tags": {"addr:district": "Hyderabad", "addr:full": "48-138/1/B, Main Road, Opp To Pillar No 150, Attapur", "addr:postcode": "500048", "addr:state": "Telangana", "amenity": "hospital", "contact:phone": "4065645555", "name": "GERMANTEN HOSPITALS", "operator:type": "private", "source": "OpenGovernmentData"}}, {"type": "node", "id": 6549296470, "lat": 17.3753068, "lon": 78.4295377, "tags": {"addr:city": "Hyderabad", "addr:full": "13-6-826/5, Attapur, Pillar No.108, Moghul Nagar", "addr:postcode": "500006", "addr:state": "Telangana", "amenity": "hospital", "contact:phone": "4023520108", "name": "SAFE KIDS HOSPITALS PRIVATE LIMITED", "operator:type": "private", "source": "OpenGovernmentData"}}, {"type": "node", "id": 6846152947, "lat": 17.3731895, "lon": 78.4464947, "tags": {"addr:district": "Hyderabad", "addr:place": "Panipura", "addr:state": "Telangana", "addr:street": "Ambedkar Nagar", "addr:subdistrict": "Asif Nagar", "amenity": "health_post", "healthcare": "yes", "name": "Ambedkar Nagar, Panipura (Basthi Dawakhana)", "operational_status": "operational", "operator:type": "government", "source": "OpenDataTelangana"}}, {"type": "node", "id": 6853049482, "lat": 17.37331, "lon": 78.41387, "tags": {"amenity": "bank", "name": "ICICI Bank Langer House, Hyderabad - Branch & ATM", "source": "survey"}}, {"type": "node", "id": 6982974090, "lat": 17.3694841, "lon": 78.429523, "tags": {"amenity": "atm", "operator": "ICICI Bank"}}, {"type": "node", "id": 6982974091, "lat": 17.3653557, "lon": 78.4286925, "tags": {"amenity": "atm", "operator": "IDBI Bank"}}, {"type": "node", "id": 6982993986, "lat": 17.3641081, "lon": 78.4285768, "tags": {"amenity": "atm", "operator": "Bank of India"}}, {"type": "node", "id": 6982993988, "lat": 17.3686841, "lon": 78.4286557, "tags": {"amenity": "fuel", "name": "Club HP"}}, {"type": "node", "id": 6983255280, "lat": 17.3693586, "lon": 78.4286934, "tags": {"amenity": "restaurant", "level": "4", "name": "Palamuru Grill"}}, {"type": "node", "id": 6993330411, "lat": 17.369644, "lon": 78.4286221}, {"type": "node", "id": 6993330415, "lat": 17.3699638, "lon": 78.4286741}, {"type": "node", "id": 6993330463, "lat": 17.3696161, "lon": 78.4288198}, {"type": "node", "id": 6993331160, "lat": 17.3699421, "lon": 78.4288664}, {"type": "node", "id": 7088395816, "lat": 17.3688252, "lon": 78.4295054}, {"type": "node", "id": 7088395817, "lat": 17.3687939, "lon": 78.4296266}, {"type": "node", "id": 7088395818, "lat": 17.3686966, "lon": 78.4296185}, {"type": "node", "id": 7088395819, "lat": 17.3687005, "lon": 78.4294947}, {"type": "node", "id": 7105419009, "lat": 17.3831137, "lon": 78.4441075, "tags": {"amenity": "place_of_worship", "name": "Masjid e Gulam Rasool", "religion": "muslim"}}, {"type": "node", "id": 7358397116, "lat": 17.3839597, "lon": 78.439861, "tags": {"addr:housenumber": "12-2-417-B-49, Gudi Malkapur Rd, LIC Colony, SBI Colony, Gudi Malkapur, Mehdipatnam, Hyderabad, Telangana 500028", "addr:postcode": "500028", "amenity": "university", "name": "The Divine Touch Pre School"}}, {"type": "node", "id": 7358397117, "lat": 17.3840114, "lon": 78.4389701, "tags": {"addr:housenumber": "422/16/80, Gudi Malkapur Rd, SBI Colony, Gudi Malkapur, Mehdipatnam, Hyderabad, Telangana 500028", "addr:postcode": "500028", "amenity": "university", "name": "St. Mary's High School"}}, {"type": "node", "id": 7358397118, "lat": 17.3833614, "lon": 78.4378852, "tags": {"addr:housenumber": "Gayatri Nagar, Gudimalkapur, Hyderabad, Telangana 500028", "addr:postcode": "500028", "amenity": "university", "name": "MNR School of Excellence"}}, {"type": "node", "id": 7358397119, "lat": 17.3825929, "lon": 78.4385934, "tags": {"addr:housenumber": "Karwan Road Haridas Nagar Gudimalkapur, Mehdipatnam, Hyderabad, Telangana 500028", "addr:postcode": "500028", "amenity": "university", "name": "Krishnaveni Talent School"}}, {"type": "node", "id": 7358397120, "lat": 17.3846701, "lon": 78.4382979, "tags": {"addr:housenumber": "Ushodaya Colony, Gudi Malkapur, Karwan, Hyderabad, Telangana 500067", "addr:postcode": "500028", "amenity": "university", "name": "Vivekananda High School"}}, {"type": "node", "id": 7358874677, "lat": 17.3848705, "lon": 78.4299424, "tags": {"addr:housenumber": "13/6/439/A/111/14, 15 & 16, Pillar no.77, Mehdipatnam Ring Rd, Balaji Nagar, Gudimalkapur, Hyderabad, Telangana 500264", "addr:postcode": "500264", "amenity": "university", "name": "VIP International School"}}, {"type": "node", "id": 7358874678, "lat": 17.3770594, "lon": 78.4312693, "tags": {"addr:housenumber": "House No. 13-8-429, Pillar No. 102, Opposite Shakeel Function Hall, Gudimalkapur, Hyderabad, Telangana 500007", "addr:postcode": "500007", "amenity": "university", "name": "Iqra International School"}}, {"type": "node", "id": 7358874679, "lat": 17.3678618, "lon": 78.4311608, "tags": {"addr:housenumber": "Kantha Reddy Nagar Upparpalli Hyderabad Telangana 500048 Republic of", "amenity": "university", "name": "heera international school"}}, {"type": "node", "id": 7358874680, "lat": 17.366665, "lon": 78.4296755, "tags": {"addr:housenumber": "4-6-26/3, Inner Ring Rd, Mushk Mahal, Attapur, Hyderabad, Telangana 500048", "addr:postcode": "500048", "amenity": "university", "name": "New Brilliant High School"}}, {"type": "node", "id": 7358874681, "lat": 17.3782153, "lon": 78.4356797, "tags": {"addr:housenumber": "13-6-267, 92/2, Karwan Rd, NMDC Colony, Satyanarayan Nagar, Talla Gadda, Gudimalkapur, Hyderabad, Telangana 500006", "addr:postcode": "500006", "amenity": "university", "name": "BHARATHI HIGH SCHOOL"}}, {"type": "node", "id": 7359015216, "lat": 17.3707564, "lon": 78.44202, "tags": {"addr:housenumber": "Municipal Corporation Hyderabad Colony, Jiyaguda, Karwan Sahu, Karwan, Hyderabad, Telangana 500006", "addr:postcode": "500006", "amenity": "university", "name": "Sri Sai Surya High School"}}, {"type": "node", "id": 7359015225, "lat": 17.3688217, "lon": 78.4466279, "tags": {"addr:housenumber": "Ganga Nagar, Tuljaram Nagar, Hyderabad, Telangana 500006", "addr:postcode": "500006", "amenity": "university", "name": "Indian High School"}}, {"type": "node", "id": 8173355147, "lat": 17.3603361, "lon": 78.4421097, "tags": {"amenity": "place_of_worship", "name": "Masjid e Summaiya Ahle Hadees", "name:te": "\u0c2e\u0c3e\u0c38\u0c4d\u0c1c\u0c3f\u0c26\u0c4d \u0c0e \u0c38\u0c41\u0c2e\u0c4d\u0c2e\u0c3f\u0c2f \u0c05\u0c39\u0c32\u0c46 \u0c39\u0c26\u0c40\u0c38\u0c4d", "name:ur": "\u0645\u0633\u062c\u062f \u0633\u0645\u064a\u0629 \u0627\u0647\u0644 \u062d\u062f\u064a\u062b", "religion": "muslim"}}, {"type": "node", "id": 8258993265, "lat": 17.3787615, "lon": 78.4369205}, {"type": "node", "id": 8258993266, "lat": 17.3786924, "lon": 78.4373395}, {"type": "node", "id": 8258993267, "lat": 17.3783646, "lon": 78.4372702}, {"type": "node", "id": 8258993268, "lat": 17.3784513, "lon": 78.4368373}, {"type": "node", "id": 8259012752, "lat": 17.381063, "lon": 78.4393913, "tags": {"amenity": "school", "name": "newgen", "website": "http://www.newgenhighschool.com/"}}, {"type": "node", "id": 8313945307, "lat": 17.368818, "lon": 78.4295976}, {"type": "node", "id": 8386760128, "lat": 17.3535673, "lon": 78.4203417}, {"type": "node", "id": 8386760129, "lat": 17.353051, "lon": 78.4207083}, {"type": "node", "id": 8386760130, "lat": 17.3532878, "lon": 78.4210357}, {"type": "node", "id": 8386760131, "lat": 17.3536249, "lon": 78.4207798}, {"type": "node", "id": 8386760132, "lat": 17.3535417, "lon": 78.4206457}, {"type": "node", "id": 8386760133, "lat": 17.3537209, "lon": 78.4205227}, {"type": "node", "id": 8386801557, "lat": 17.353283, "lon": 78.4205436}, {"type": "node", "id": 8389258263, "lat": 17.3629769, "lon": 78.4283701}, {"type": "node", "id": 8389258264, "lat": 17.3629508, "lon": 78.4285232}, {"type": "node", "id": 8389258265, "lat": 17.362849, "lon": 78.4285027}, {"type": "node", "id": 8389258266, "lat": 17.3628712, "lon": 78.4283496}, {"type": "node", "id": 8389281709, "lat": 17.3608736, "lon": 78.4280726}, {"type": "node", "id": 8389281710, "lat": 17.3607859, "lon": 78.4282019}, {"type": "node", "id": 8389281711, "lat": 17.3606282, "lon": 78.4281365}, {"type": "node", "id": 8389281712, "lat": 17.3607235, "lon": 78.4280014}, {"type": "node", "id": 8389281713, "lat": 17.3607635, "lon": 78.4281042, "tags": {"amenity": "fuel", "brand": "Indian oil", "name": "Petrol Bunk"}}, {"type": "node", "id": 8389339485, "lat": 17.3577435, "lon": 78.4266409}, {"type": "node", "id": 8389339486, "lat": 17.3575564, "lon": 78.4266667}, {"type": "node", "id": 8389339487, "lat": 17.3576024, "lon": 78.4268059}, {"type": "node", "id": 8389339488, "lat": 17.3577435, "lon": 78.4267578}, {"type": "node", "id": 8389339489, "lat": 17.3576649, "lon": 78.4267157, "tags": {"amenity": "place_of_worship", "name": "Kala Hanuman mandir"}}, {"type": "node", "id": 8389353976, "lat": 17.3716276, "lon": 78.428854}, {"type": "node", "id": 8389353977, "lat": 17.3716131, "lon": 78.4290378}, {"type": "node", "id": 8389353978, "lat": 17.3715181, "lon": 78.4290327}, {"type": "node", "id": 8389353979, "lat": 17.371523, "lon": 78.4288523}, {"type": "node", "id": 8389353980, "lat": 17.3715729, "lon": 78.4289433, "tags": {"amenity": "place_of_worship", "name": "Hanuman temple", "religion": "hindu"}}, {"type": "node", "id": 8389354231, "lat": 17.3658819, "lon": 78.4280314}, {"type": "node", "id": 8389354232, "lat": 17.3658187, "lon": 78.4283313}, {"type": "node", "id": 8389354233, "lat": 17.3657035, "lon": 78.428304}, {"type": "node", "id": 8389354234, "lat": 17.3657574, "lon": 78.428012}, {"type": "node", "id": 8389354239, "lat": 17.3657983, "lon": 78.4281697, "tags": {"amenity": "fuel", "name": "Bharat petrol bunk"}}, {"type": "node", "id": 8389404098, "lat": 17.3622482, "lon": 78.422642, "tags": {"amenity": "clinic", "healthcare": "clinic", "name": "kvr polyclinic"}}, {"type": "node", "id": 9852600026, "lat": 17.3646406, "lon": 78.4286144, "tags": {"addr:city": "Hyderguda", "addr:housenumber": "139 pillar , Above IDBI Bank, 3rd Floor", "addr:postcode": "500048", "addr:street": "Hyderabad Elevated Expressway \"P.V. Narasimha Rao\"", "amenity": "hospital", "description": "Exclusive pain clinic treating Knee Pain, SHoulder, Lower back pain, migranes and all chronic pains, Non-Surgically", "email": "help@painfreelife.in", "healthcare": "hospital", "healthcare:speciality": "pain_control", "name": "PRAANAA PAIN CLINIC", "operator": "Dr. Sahitya", "operator:type": "private", "phone": "+91 9182626161", "website": "www.painfreelife.in"}}, {"type": "node", "id": 9913821033, "lat": 17.3772451, "lon": 78.4378689, "tags": {"amenity": "place_of_worship", "name": "Balaji Temple", "religion": "hindu"}}, {"type": "node", "id": 9913821040, "lat": 17.3775174, "lon": 78.4380294, "tags": {"amenity": "events_venue", "name": "B.K. Bhavan"}}, {"type": "node", "id": 9913821046, "lat": 17.3744444, "lon": 78.4375139}, {"type": "node", "id": 9913821047, "lat": 17.3743907, "lon": 78.4377424}, {"type": "node", "id": 9913821048, "lat": 17.374297, "lon": 78.4377199}, {"type": "node", "id": 9913821049, "lat": 17.3743492, "lon": 78.4374914}, {"type": "node", "id": 9913821063, "lat": 17.3787846, "lon": 78.4373588, "tags": {"amenity": "pharmacy", "dispensing": "yes", "healthcare": "pharmacy"}}, {"type": "node", "id": 9913821065, "lat": 17.3781457, "lon": 78.4369801, "tags": {"amenity": "school", "name": "Sri Gayatri School"}}, {"type": "node", "id": 9913821067, "lat": 17.3802769, "lon": 78.4394986, "tags": {"amenity": "school", "name": "Vivekananda School"}}, {"type": "node", "id": 9913821077, "lat": 17.382404, "lon": 78.4389551, "tags": {"amenity": "fast_food"}}, {"type": "node", "id": 9913821102, "lat": 17.3756318, "lon": 78.4444525, "tags": {"amenity": "post_office", "operator": "India Post", "operator:wikidata": "Q3519720"}}, {"type": "node", "id": 10019985224, "lat": 17.3697332, "lon": 78.4231754, "tags": {"amenity": "school", "name": "Sri Chaitanya School, Hyderguda"}}, {"type": "node", "id": 10020269017, "lat": 17.3760094, "lon": 78.4341332, "tags": {"amenity": "community_centre", "name": "The Vintage Palace"}}, {"type": "node", "id": 10112896286, "lat": 17.3836203, "lon": 78.4292848, "tags": {"amenity": "hospital", "name": "Mythri Hospital"}}, {"type": "node", "id": 10262130736, "lat": 17.3638483, "lon": 78.4286225, "tags": {"amenity": "restaurant", "name": "Golden palace restaurant"}}, {"type": "node", "id": 10262130737, "lat": 17.366236, "lon": 78.4274493}, {"type": "node", "id": 10262331660, "lat": 17.3719222, "lon": 78.4433059}, {"type": "node", "id": 10262331661, "lat": 17.3718604, "lon": 78.443297}, {"type": "node", "id": 10262331662, "lat": 17.3718163, "lon": 78.4433461}, {"type": "node", "id": 10262331663, "lat": 17.3718141, "lon": 78.4434184}, {"type": "node", "id": 10262331664, "lat": 17.3718689, "lon": 78.443449}, {"type": "node", "id": 10262331665, "lat": 17.3719194, "lon": 78.4434385}, {"type": "node", "id": 10262331666, "lat": 17.3719571, "lon": 78.4433737}, {"type": "node", "id": 10262331685, "lat": 17.3747908, "lon": 78.4435988}, {"type": "node", "id": 10262331686, "lat": 17.3747852, "lon": 78.4437351}, {"type": "node", "id": 10262331687, "lat": 17.3746864, "lon": 78.4437306}, {"type": "node", "id": 10262331688, "lat": 17.3746921, "lon": 78.4435943}, {"type": "node", "id": 10262331696, "lat": 17.3793316, "lon": 78.4417908}, {"type": "node", "id": 10262331697, "lat": 17.3793254, "lon": 78.4419256}, {"type": "node", "id": 10262331698, "lat": 17.3792611, "lon": 78.4419223}, {"type": "node", "id": 10262331699, "lat": 17.3792227, "lon": 78.4417852}, {"type": "node", "id": 10262331700, "lat": 17.3831846, "lon": 78.4382254, "tags": {"amenity": "restaurant", "name": "Shri golden palace"}}, {"type": "node", "id": 10262331701, "lat": 17.3824479, "lon": 78.4386143, "tags": {"amenity": "restaurant", "name": "udipi"}}, {"type": "node", "id": 10262383310, "lat": 17.3768272, "lon": 78.4397984, "tags": {"amenity": "place_of_worship", "name": "tulja bhavani temple", "religion": "hindu"}}, {"type": "node", "id": 10279304188, "lat": 17.3628399, "lon": 78.4439769}, {"type": "node", "id": 10279304189, "lat": 17.3627612, "lon": 78.4438798}, {"type": "node", "id": 10279304203, "lat": 17.3626729, "lon": 78.4439258, "tags": {"amenity": "school", "name": "newton mission high school"}}, {"type": "node", "id": 10279304204, "lat": 17.3626685, "lon": 78.4437654}, {"type": "node", "id": 10279305411, "lat": 17.3627333, "lon": 78.4440717}, {"type": "node", "id": 10279305412, "lat": 17.3625619, "lon": 78.4438603}, {"type": "node", "id": 10279305450, "lat": 17.3631945, "lon": 78.4439204}, {"type": "node", "id": 10279305451, "lat": 17.3631116, "lon": 78.4438033}, {"type": "node", "id": 10279305452, "lat": 17.3633306, "lon": 78.4438232}, {"type": "node", "id": 10279305453, "lat": 17.3632475, "lon": 78.4436978}, {"type": "node", "id": 10279305456, "lat": 17.3632588, "lon": 78.443711}, {"type": "node", "id": 10279305457, "lat": 17.3631978, "lon": 78.4437364}, {"type": "node", "id": 10279452107, "lat": 17.3598869, "lon": 78.4414484}, {"type": "node", "id": 10279452108, "lat": 17.3596022, "lon": 78.4412902}, {"type": "node", "id": 10279468798, "lat": 17.3754666, "lon": 78.4417726}, {"type": "node", "id": 10279468799, "lat": 17.3755556, "lon": 78.4417693}, {"type": "node", "id": 10279468800, "lat": 17.3755589, "lon": 78.441861}, {"type": "node", "id": 10279468801, "lat": 17.3754675, "lon": 78.4418583}, {"type": "node", "id": 10279481509, "lat": 17.3595165, "lon": 78.4414594}, {"type": "node", "id": 10279481510, "lat": 17.3595319, "lon": 78.4414766}, {"type": "node", "id": 10279481511, "lat": 17.3595049, "lon": 78.4415299}, {"type": "node", "id": 10279481512, "lat": 17.3596368, "lon": 78.4416033}, {"type": "node", "id": 10279481513, "lat": 17.3596688, "lon": 78.44154}, {"type": "node", "id": 10279481514, "lat": 17.3595731, "lon": 78.4414868}, {"type": "node", "id": 10279481515, "lat": 17.3596163, "lon": 78.4414014}, {"type": "node", "id": 10279481516, "lat": 17.359846, "lon": 78.4415292}, {"type": "node", "id": 10279481517, "lat": 17.3597495, "lon": 78.4415722, "tags": {"amenity": "school", "name": "School Ground"}}, {"type": "node", "id": 10279481519, "lat": 17.3616764, "lon": 78.4419501, "tags": {"amenity": "school", "name": "Vidya Bharthi High School"}}, {"type": "node", "id": 10279481522, "lat": 17.3606586, "lon": 78.4409624, "tags": {"amenity": "restaurant", "name": "Mezban Hotel"}}, {"type": "node", "id": 10279481532, "lat": 17.3632143, "lon": 78.443765, "tags": {"amenity": "place_of_worship", "name": "Nizam-E-Mohammedia Masjid", "religion": "muslim"}}, {"type": "node", "id": 10279481533, "lat": 17.3590055, "lon": 78.4427517, "tags": {"amenity": "fuel", "name": "indiana petrol pump"}}, {"type": "node", "id": 10279481534, "lat": 17.3607193, "lon": 78.4408817, "tags": {"amenity": "hospital", "healthcare": "hospital"}}, {"type": "node", "id": 10279737665, "lat": 17.3594936, "lon": 78.4438475, "tags": {"amenity": "place_of_worship", "name": "Mohammedia Masid", "religion": "muslim"}}, {"type": "node", "id": 10279737666, "lat": 17.3593287, "lon": 78.4443429, "tags": {"amenity": "fuel", "name": "Mohini Petrol Pump"}}, {"type": "node", "id": 10279737706, "lat": 17.359433, "lon": 78.4412483, "tags": {"amenity": "place_of_worship", "name": "Bee Saheba Masjid", "religion": "muslim"}}, {"type": "node", "id": 10279761420, "lat": 17.3624767, "lon": 78.4428243, "tags": {"amenity": "place_of_worship", "name": "Masjid E  Azher Shah", "religion": "muslim"}}, {"type": "node", "id": 10279761421, "lat": 17.3644957, "lon": 78.4414593, "tags": {"amenity": "place_of_worship", "name": "Mohammedia Masjid", "religion": "muslim"}}, {"type": "node", "id": 10279761424, "lat": 17.3632601, "lon": 78.4438732}, {"type": "node", "id": 10279761425, "lat": 17.3632147, "lon": 78.4439066}, {"type": "node", "id": 10279761432, "lat": 17.3633057, "lon": 78.4438423}, {"type": "node", "id": 10302637248, "lat": 17.3743767, "lon": 78.44445}, {"type": "node", "id": 10577814637, "lat": 17.371653, "lon": 78.4297834, "tags": {"amenity": "cinema", "name": "Asian M Cube", "operator": "Asian Cinemas"}}, {"type": "node", "id": 10764939245, "lat": 17.3780079, "lon": 78.4480161}, {"type": "node", "id": 10764939246, "lat": 17.3780343, "lon": 78.4481634}, {"type": "node", "id": 10764939247, "lat": 17.3779853, "lon": 78.4481772}, {"type": "node", "id": 10764939248, "lat": 17.3779636, "lon": 78.4480586}, {"type": "node", "id": 10764939249, "lat": 17.3779145, "lon": 78.4480636}, {"type": "node", "id": 10764939250, "lat": 17.3779089, "lon": 78.4480141}, {"type": "node", "id": 10764939251, "lat": 17.3779768, "lon": 78.4480082}, {"type": "node", "id": 10764939252, "lat": 17.378017, "lon": 78.4480669}, {"type": "node", "id": 10764939253, "lat": 17.3779976, "lon": 78.4480818, "tags": {"addr:city": "Natraj Nagar Jirra,", "addr:postcode": "500006", "amenity": "school", "name": "New Eden school"}}, {"type": "node", "id": 10764939254, "lat": 17.3781367, "lon": 78.4478354}, {"type": "node", "id": 10764939255, "lat": 17.3781539, "lon": 78.447973}, {"type": "node", "id": 10764939256, "lat": 17.3780616, "lon": 78.4479648}, {"type": "node", "id": 10764939257, "lat": 17.3780444, "lon": 78.4478985}, {"type": "node", "id": 10764939258, "lat": 17.3780358, "lon": 78.4478485}, {"type": "node", "id": 10764939259, "lat": 17.3781085, "lon": 78.4478976, "tags": {"addr:city": "Natraj Nagar Jirra,", "amenity": "place_of_worship", "name": "Hanuman Temple", "religion": "hindu"}}, {"type": "node", "id": 10764939262, "lat": 17.3749679, "lon": 78.4488247}, {"type": "node", "id": 10764939263, "lat": 17.3749607, "lon": 78.4489658}, {"type": "node", "id": 10764939264, "lat": 17.3748116, "lon": 78.4489677}, {"type": "node", "id": 10764939265, "lat": 17.3748152, "lon": 78.4488153}, {"type": "node", "id": 10764939266, "lat": 17.3748745, "lon": 78.4489018, "tags": {"addr:city": "Ambedkar nagar, Tappa chabhudra", "addr:postcode": "500006", "amenity": "school", "name": "Jasmin Techno School"}}, {"type": "node", "id": 10764939267, "lat": 17.3754026, "lon": 78.4487663}, {"type": "node", "id": 10764939268, "lat": 17.3754026, "lon": 78.4489037}, {"type": "node", "id": 10764939269, "lat": 17.3751044, "lon": 78.448915}, {"type": "node", "id": 10764939270, "lat": 17.3750937, "lon": 78.4487362}, {"type": "node", "id": 10764939271, "lat": 17.3753272, "lon": 78.4487249}, {"type": "node", "id": 10764939272, "lat": 17.3752751, "lon": 78.4488171, "tags": {"addr:city": "Ambedkar nagar colony, Tappa chabhudra", "addr:postcode": "500006", "amenity": "community_centre", "name": "ambedkar nagar centre"}}, {"type": "node", "id": 10764939273, "lat": 17.374941, "lon": 78.4483828}, {"type": "node", "id": 10764939274, "lat": 17.3749341, "lon": 78.4485013}, {"type": "node", "id": 10764939275, "lat": 17.3746953, "lon": 78.448486}, {"type": "node", "id": 10764939276, "lat": 17.3747022, "lon": 78.4483674}, {"type": "node", "id": 10764939277, "lat": 17.3755146, "lon": 78.4482692}, {"type": "node", "id": 10764939278, "lat": 17.3755131, "lon": 78.4485099}, {"type": "node", "id": 10764939279, "lat": 17.3752712, "lon": 78.4485067}, {"type": "node", "id": 10764939280, "lat": 17.3752788, "lon": 78.4482692}, {"type": "node", "id": 10764939281, "lat": 17.3754745, "lon": 78.4485231}, {"type": "node", "id": 10764939282, "lat": 17.3754755, "lon": 78.4486268}, {"type": "node", "id": 10764939283, "lat": 17.3752917, "lon": 78.4486289}, {"type": "node", "id": 10764939284, "lat": 17.3752907, "lon": 78.4485252}, {"type": "node", "id": 10764939285, "lat": 17.3753853, "lon": 78.448572, "tags": {"amenity": "place_of_worship", "religion": "christian"}}, {"type": "node", "id": 10764943813, "lat": 17.3771604, "lon": 78.4479674}, {"type": "node", "id": 10764943814, "lat": 17.3771637, "lon": 78.4480463}, {"type": "node", "id": 10764943815, "lat": 17.3770285, "lon": 78.4480406}, {"type": "node", "id": 10764943816, "lat": 17.3770219, "lon": 78.4479743}, {"type": "node", "id": 10764943817, "lat": 17.3770917, "lon": 78.4479994, "tags": {"addr:city": "Natraj Nagar Jirra,", "addr:postcode": "500006", "amenity": "clinic", "healthcare": "clinic", "name": "Al-kahar clinic"}}, {"type": "node", "id": 10764943823, "lat": 17.3773687, "lon": 78.4490392}, {"type": "node", "id": 10764943824, "lat": 17.3773698, "lon": 78.4490884}, {"type": "node", "id": 10764943825, "lat": 17.3773578, "lon": 78.4491249}, {"type": "node", "id": 10764943826, "lat": 17.377336, "lon": 78.4491489}, {"type": "node", "id": 10764943827, "lat": 17.3773469, "lon": 78.4491775}, {"type": "node", "id": 10764943828, "lat": 17.3773458, "lon": 78.4492632}, {"type": "node", "id": 10764943829, "lat": 17.3771179, "lon": 78.4492335}, {"type": "node", "id": 10764943830, "lat": 17.3771125, "lon": 78.4491295}, {"type": "node", "id": 10764943831, "lat": 17.3771201, "lon": 78.4490301}, {"type": "node", "id": 10764943832, "lat": 17.3772281, "lon": 78.4491295, "tags": {"addr:city": "Natraj Nagar Jirra,", "addr:postcode": "500006", "amenity": "place_of_worship", "name": "Majid -e-Aqsa", "religion": "muslim"}}, {"type": "node", "id": 10764943833, "lat": 17.3778071, "lon": 78.4495214}, {"type": "node", "id": 10764943834, "lat": 17.3777809, "lon": 78.4496151}, {"type": "node", "id": 10764943835, "lat": 17.3777515, "lon": 78.4497579}, {"type": "node", "id": 10764943836, "lat": 17.3776904, "lon": 78.4497877}, {"type": "node", "id": 10764943837, "lat": 17.3776228, "lon": 78.4497705}, {"type": "node", "id": 10764943838, "lat": 17.377577, "lon": 78.4497534}, {"type": "node", "id": 10764943839, "lat": 17.3776097, "lon": 78.4495866}, {"type": "node", "id": 10764943840, "lat": 17.3776413, "lon": 78.4494666}, {"type": "node", "id": 10764943841, "lat": 17.3776991, "lon": 78.4496254, "tags": {"addr:city": "Natraj Nagar Jirra,", "amenity": "place_of_worship", "name": "Nalla Pochamma Temple", "religion": "hindu"}}, {"type": "node", "id": 10789525450, "lat": 17.3665498, "lon": 78.4276294, "tags": {"air_conditioning": "yes", "amenity": "cinema", "name": "SVC Eshwar Theatre"}}, {"type": "node", "id": 10836252947, "lat": 17.3784085, "lon": 78.4379162, "tags": {"amenity": "events_venue", "name": "Mohini Functional Hall"}}, {"type": "node", "id": 10836262027, "lat": 17.3780049, "lon": 78.438844, "tags": {"amenity": "school", "name": "Governament School"}}, {"type": "node", "id": 10836262034, "lat": 17.3803567, "lon": 78.4397296, "tags": {"amenity": "school", "name": "Newgen High School"}}, {"type": "node", "id": 10836262037, "lat": 17.3747351, "lon": 78.4357329, "tags": {"amenity": "grave_yard", "religion": "smashana_vatika"}}, {"type": "node", "id": 10836288167, "lat": 17.3755671, "lon": 78.4356127, "tags": {"amenity": "events_venue", "name": "KS Palace"}}, {"type": "node", "id": 10836288168, "lat": 17.3755248, "lon": 78.4352286, "tags": {"amenity": "events_venue", "name": "Crown Palace"}}, {"type": "node", "id": 10836288169, "lat": 17.3754284, "lon": 78.4347625, "tags": {"amenity": "events_venue", "name": "Mehaboob Palace"}}, {"type": "node", "id": 10836288170, "lat": 17.3767787, "lon": 78.4323172, "tags": {"amenity": "events_venue", "name": "Grand Garden"}}, {"type": "node", "id": 10836288171, "lat": 17.3769088, "lon": 78.4318993, "tags": {"amenity": "events_venue", "name": "Ratan Max"}}, {"type": "node", "id": 10836288172, "lat": 17.3772664, "lon": 78.431813, "tags": {"amenity": "events_venue", "name": "Rose Max"}}, {"type": "node", "id": 10836288173, "lat": 17.3766161, "lon": 78.431408, "tags": {"amenity": "restaurant", "name": "Dragan Food Court"}}, {"type": "node", "id": 10836288174, "lat": 17.3763917, "lon": 78.4308518, "tags": {"amenity": "restaurant", "name": "Saba Cafe"}}, {"type": "node", "id": 10836288175, "lat": 17.3761996, "lon": 78.4310076, "tags": {"amenity": "events_venue", "name": "Shakeel Functional Hall"}}, {"type": "node", "id": 10836288176, "lat": 17.376372, "lon": 78.4305885, "tags": {"amenity": "events_venue", "name": "Mughal Garden Functional Hall"}}, {"type": "node", "id": 10836288177, "lat": 17.3765008, "lon": 78.4304509, "tags": {"amenity": "restaurant", "name": "Aman Hotel"}}, {"type": "node", "id": 10836288178, "lat": 17.3765149, "lon": 78.4296741, "tags": {"amenity": "restaurant", "name": "Mehfil Mandi House"}}, {"type": "node", "id": 10836288179, "lat": 17.3762721, "lon": 78.4300739, "tags": {"amenity": "events_venue", "name": "New Classic Garden"}}, {"type": "node", "id": 10836288192, "lat": 17.3699047, "lon": 78.428839, "tags": {"amenity": "restaurant", "name": "The Chocolate Room"}}, {"type": "node", "id": 10989307976, "lat": 17.3756469, "lon": 78.4377868, "tags": {"addr:district": "Hyderabad", "addr:place": "Karwran - 1, Kulsumpura", "addr:state": "Telangana", "addr:street": "Karwran", "addr:subdistrict": "Asif Nagar", "amenity": "doctors", "healthcare": "doctor", "name": "Government Ayurvedic Dispensary, karwran", "operational_status": "operational", "operator:type": "government", "source": "OpenDataTelangana"}}, {"type": "node", "id": 11294604369, "lat": 17.3650213, "lon": 78.4137103, "tags": {"amenity": "place_of_worship", "name": "Sri Enugula Maisamma Temple"}}, {"type": "node", "id": 11313445484, "lat": 17.3696771, "lon": 78.4288292}, {"type": "node", "id": 11405934845, "lat": 17.3582447, "lon": 78.4466091, "tags": {"amenity": "place_of_worship", "religion": "hindu", "wikidata": "Q119360730"}}, {"type": "way", "id": 254201394, "nodes": [2600029571, 2600029573, 2600029569, 2600029568, 2600029570, 2600029567, 2600029572, 2600029571], "tags": {"amenity": "parking"}}, {"type": "way", "id": 274477839, "nodes": [4175499024, 2791915566, 2791915546, 4175499022, 4175499024], "tags": {"amenity": "place_of_worship", "religion": "hindu"}}, {"type": "way", "id": 274477840, "nodes": [2791915591, 2791915587, 2791915585, 3612554338, 2791915583, 2791915589, 2791915591], "tags": {"amenity": "marketplace", "name": "mekala mandi"}}, {"type": "way", "id": 274477841, "nodes": [2791915542, 2791915568, 2791915552, 2791915570, 2791915558, 3612553334, 3612553230, 316971923, 316971924, 316973328, 2791915531, 2791915542], "tags": {"amenity": "place_of_worship", "religion": "hindu"}}, {"type": "way", "id": 281802017, "nodes": [4192842983, 2857777683, 2857777684, 2857777685, 2857777687, 2857777689, 2857777692, 2857777691, 2857777690, 2857777688, 2857777686, 4192842983], "tags": {"amenity": "place_of_worship", "religion": "hindu"}}, {"type": "way", "id": 282201151, "nodes": [2861479510, 2861479509, 2861479505, 2861479506, 2861479510], "tags": {"amenity": "place_of_worship", "name": "Temple", "religion": "hindu"}}, {"type": "way", "id": 356460179, "nodes": [3619045658, 3619045657, 3619045647, 3619045650, 3619045658], "tags": {"amenity": "restaurant", "building": "yes", "name": "bawarchi hotel"}}, {"type": "way", "id": 357328895, "nodes": [3626274334, 3626274333, 3626273867, 3626273869, 3626274334], "tags": {"amenity": "place_of_worship", "building": "yes", "religion": "hindu"}}, {"type": "way", "id": 357329029, "nodes": [3626273469, 3626273467, 3626273438, 3626273436, 3626273393, 3626273395, 3626273469], "tags": {"amenity": "place_of_worship", "building": "yes", "religion": "hindu"}}, {"type": "way", "id": 357691681, "nodes": [3628644827, 3628644812, 3628644498, 3628644513, 3628644827], "tags": {"amenity": "place_of_worship", "building": "yes", "name": "jam singh temple", "religion": "hindu"}}, {"type": "way", "id": 361381752, "nodes": [3658653188, 3658653187, 3658653185, 3658653186, 3658653188], "tags": {"amenity": "place_of_worship", "building": "yes", "religion": "hindu"}}, {"type": "way", "id": 362515707, "nodes": [3668069412, 3668069431, 3668069428, 3668069411, 3668069412], "tags": {"amenity": "hospital", "healthcare": "hospital", "name": "khuteja hospitals"}}, {"type": "way", "id": 362515777, "nodes": [3668070053, 3668070049, 3668070036, 3668070038, 3668070045, 10302637248, 3668070053], "tags": {"amenity": "place_of_worship", "building": "yes", "name": "matha temple", "religion": "hindu"}}, {"type": "way", "id": 670634598, "nodes": [6280085610, 6280085611, 6280085612, 3547294209, 4176020268, 6280085610], "tags": {"amenity": "place_of_worship", "name": "Venkateshewara Temple", "religion": "hindu"}}, {"type": "way", "id": 747389098, "nodes": [6993330415, 6993331160, 11313445484, 6993330463, 6993330411, 6993330415], "tags": {"access": "customers", "amenity": "parking", "parking": "surface"}}, {"type": "way", "id": 758940469, "nodes": [7088395816, 8313945307, 7088395817, 7088395818, 7088395819, 7088395816], "tags": {"amenity": "fast_food", "brand": "Domino's", "brand:ks": "\u0688\u0648\u0645\u06cc\u0646\u0648\u0632", "brand:pa": "\u0a21\u0a4b\u0a2e\u0a40\u0a28\u0a4b\u0a1c\u0a3c", "brand:ur": "\u0688\u0648\u0645\u06cc\u0646\u0648\u0632", "brand:wikidata": "Q839466", "brand:wikipedia": "en:Domino's Pizza", "building": "yes", "cuisine": "pizza", "name": "Domino's", "name:ks": "\u0688\u0648\u0645\u06cc\u0646\u0648\u0632", "name:pa": "\u0a21\u0a4b\u0a2e\u0a40\u0a28\u0a4b\u0a1c\u0a3c", "name:ur": "\u0688\u0648\u0645\u06cc\u0646\u0648\u0632", "takeaway": "yes"}}, {"type": "way", "id": 888332258, "nodes": [8258993265, 8258993266, 8258993267, 8258993268, 8258993265], "tags": {"amenity": "events_venue", "building": "yes", "name": "Mohini Function Hall"}}, {"type": "way", "id": 902979412, "nodes": [8386760128, 8386801557, 8386760129, 8386760130, 8386760131, 8386760132, 8386760133, 8386760128], "tags": {"amenity": "cinema", "brand": "Cinepolis", "brand:wikidata": "Q5686673", "name": "Cinepolis-mantra mall"}}, {"type": "way", "id": 903251726, "nodes": [8389258263, 8389258264, 8389258265, 8389258266, 8389258263], "tags": {"amenity": "restaurant", "building": "yes", "name": "Mehfil"}}, {"type": "way", "id": 903252738, "nodes": [8389281709, 8389281710, 8389281711, 8389281712, 8389281709], "tags": {"amenity": "fuel"}}, {"type": "way", "id": 903260674, "nodes": [8389339485, 8389339486, 8389339487, 8389339488, 8389339485], "tags": {"amenity": "place_of_worship", "building": "yes"}}, {"type": "way", "id": 903262283, "nodes": [8389354231, 8389354232, 8389354233, 8389354234, 8389354231], "tags": {"amenity": "fuel"}}, {"type": "way", "id": 903263138, "nodes": [8389353976, 8389353977, 8389353978, 8389353979, 8389353976], "tags": {"amenity": "place_of_worship", "building": "yes", "religion": "hindu"}}, {"type": "way", "id": 1081673936, "nodes": [9913821046, 9913821047, 9913821048, 9913821049, 9913821046], "tags": {"amenity": "place_of_worship", "building": "yes", "name": "Krishna temple", "religion": "hindu"}}, {"type": "way", "id": 1122014051, "nodes": [8386760128, 8386760133, 8386760132, 8386760131, 8386760130, 8386760129, 8386801557, 8386760128], "tags": {"amenity": "cinema", "brand": "Cinepolis", "brand:wikidata": "Q5686673", "building": "yes", "name": "Cinepolis"}}, {"type": "way", "id": 1122014052, "nodes": [3619241927, 3619241920, 3619241475, 10262130737, 3619241907, 3619241927], "tags": {"amenity": "theatre", "building": "yes", "name": "Eashwar theater"}}, {"type": "way", "id": 1122033436, "nodes": [10262331660, 10262331661, 10262331662, 10262331663, 10262331664, 10262331665, 10262331666, 10262331660], "tags": {"amenity": "place_of_worship", "building": "yes", "name": "jain temple", "religion": "buddhist"}}, {"type": "way", "id": 1122033441, "nodes": [10262331685, 10262331686, 10262331687, 10262331688, 10262331685], "tags": {"amenity": "place_of_worship", "building": "yes", "name": "matha temple", "religion": "hindu"}}, {"type": "way", "id": 1122033444, "nodes": [10262331696, 10262331697, 10262331698, 10262331699, 10262331696], "tags": {"amenity": "place_of_worship", "building": "yes", "religion": "hindu"}}, {"type": "way", "id": 1122033446, "nodes": [3628644827, 3628644812, 3628644498, 3628644513, 3628644827], "tags": {"amenity": "place_of_worship", "building": "yes", "religion": "hindu"}}, {"type": "way", "id": 1124048925, "nodes": [10279304188, 10279305411, 10279305412, 10279304204, 10279304189, 10279304188], "tags": {"amenity": "school", "building": "yes"}}, {"type": "way", "id": 1124048943, "nodes": [10279305450, 10279761425, 10279761424, 10279761432, 10279305452, 10279305456, 10279305453, 10279305457, 10279305451, 10279305450], "tags": {"amenity": "place_of_worship", "building": "yes", "name": "Nizam-E-Mohammedia Masjid", "religion": "muslim"}}, {"type": "way", "id": 1124063177, "nodes": [10279452107, 10279452108, 10279481509, 10279481510, 10279481511, 10279481512, 10279481513, 10279481514, 10279481515, 10279481516, 10279452107], "tags": {"amenity": "school", "building": "yes", "name": "Govt High School"}}, {"type": "way", "id": 1124064031, "nodes": [10279468798, 10279468799, 10279468800, 10279468801, 10279468798], "tags": {"amenity": "place_of_worship", "building": "yes", "name": "Sri Hanuman and Shiva Temple", "religion": "hindu"}}, {"type": "way", "id": 1157549417, "nodes": [10764939245, 10764939252, 10764939246, 10764939247, 10764939248, 10764939249, 10764939250, 10764939251, 10764939245], "tags": {"amenity": "school"}}, {"type": "way", "id": 1157549418, "nodes": [10764939254, 10764939255, 10764939256, 10764939257, 10764939258, 10764939254], "tags": {"addr:city": "Natraj Nagar Jirra,", "addr:postcode": "500006", "amenity": "place_of_worship", "building": "yes", "religion": "hindu"}}, {"type": "way", "id": 1157549420, "nodes": [10764939262, 10764939263, 10764939264, 10764939265, 10764939262], "tags": {"addr:city": "Ambedkar nagar colony, Tappa chabhudra", "addr:postcode": "500006", "amenity": "school"}}, {"type": "way", "id": 1157549421, "nodes": [10764939267, 10764939268, 10764939269, 10764939270, 10764939271, 10764939267], "tags": {"addr:city": "Ambedkar nagar colony, Tappa chabhudra", "addr:postcode": "500006", "amenity": "community_centre", "building": "yes"}}, {"type": "way", "id": 1157549422, "nodes": [10764939273, 10764939274, 10764939275, 10764939276, 10764939273], "tags": {"addr:city": "Ambedkar nagar colony, Tappa chabhudra", "addr:postcode": "500006", "amenity": "police", "building": "yes"}}, {"type": "way", "id": 1157549423, "nodes": [10764939277, 10764939278, 10764939279, 10764939280, 10764939277], "tags": {"addr:city": "Ambedkar nagar, Tappa chabhudra", "addr:postcode": "500006", "amenity": "conference_centre", "building": "yes", "name": "Naseeb convention"}}, {"type": "way", "id": 1157549424, "nodes": [10764939281, 10764939282, 10764939283, 10764939284, 10764939281], "tags": {"amenity": "place_of_worship", "building": "yes", "religion": "christian"}}, {"type": "way", "id": 1157549430, "nodes": [10764943813, 10764943814, 10764943815, 10764943816, 10764943813], "tags": {"amenity": "clinic", "building": "yes", "healthcare": "clinic"}}, {"type": "way", "id": 1157549432, "nodes": [10764943823, 10764943824, 10764943825, 10764943826, 10764943827, 10764943828, 10764943829, 10764943830, 10764943831, 10764943823], "tags": {"amenity": "place_of_worship", "building": "yes", "religion": "muslim"}}, {"type": "way", "id": 1157549433, "nodes": [10764943833, 10764943834, 10764943835, 10764943836, 10764943837, 10764943838, 10764943839, 10764943840, 10764943833], "tags": {"addr:city": "Natraj Nagar Jirra,", "addr:postcode": "500006", "amenity": "place_of_worship", "building": "yes", "religion": "hindu"}}]}