{"version": 0.6, "generator": "Overpass API 0.7.61.5 4133829e", "osm3s": {"timestamp_osm_base": "2024-02-21T13:08:00Z", "copyright": "The data included in this document is from www.openstreetmap.org. The data is made available under ODbL."}, "elements": [{"type": "node", "id": 5434569250, "lat": 17.5987572, "lon": 78.4173247, "tags": {"amenity": "college", "name": "(MLRITM) Marri Laxma Reddy Institute of Technology & Management"}}, {"type": "node", "id": 5434577650, "lat": 17.5998438, "lon": 78.4173891, "tags": {"amenity": "college", "name": "Institute of Aeronautical Engineering"}}, {"type": "node", "id": 5434579095, "lat": 17.5997803, "lon": 78.4174933, "tags": {"amenity": "college", "name": "Institute of Aeronautical Engineering"}}, {"type": "node", "id": 5434581432, "lat": 17.5986731, "lon": 78.4175937, "tags": {"amenity": "college", "name": "MLRITM Marri lakshma reddy institute of technology and management"}}, {"type": "node", "id": 5434581576, "lat": 17.5997314, "lon": 78.4174971, "tags": {"amenity": "college", "name": "Institute of Aeronautical Engineering"}}, {"type": "node", "id": 6811749091, "lat": 17.5765848, "lon": 78.4228728, "tags": {"addr:district": "Medchal Malkajgiri", "addr:full": "Near Orange Medical & General store, Gandi Maisamma, Narsapur Road, Hyderabad", "addr:postcode": "500043", "addr:state": "Telangana", "amenity": "clinic", "contact:mobile": "8686622449", "name": "Vijaya Gayatri Clinic", "source": "OpenGovernmentData"}}, {"type": "node", "id": 6822126647, "lat": 17.5767105, "lon": 78.4222408, "tags": {"amenity": "bank", "name": "Andhra Bank", "source": "survey"}}, {"type": "node", "id": 6850830288, "lat": 17.576965, "lon": 78.421959, "tags": {"amenity": "bank", "name": "State Bank of India", "source": "survey"}}, {"type": "node", "id": 9460735879, "lat": 17.5775904, "lon": 78.4290486}, {"type": "node", "id": 9460735880, "lat": 17.5775986, "lon": 78.4298328}, {"type": "node", "id": 9460735881, "lat": 17.5768734, "lon": 78.4295824}, {"type": "node", "id": 9460735882, "lat": 17.5771386, "lon": 78.4290637}, {"type": "node", "id": 9960782562, "lat": 17.5701711, "lon": 78.4319123, "tags": {"amenity": "cafe", "name": "tea time"}}, {"type": "node", "id": 11572365801, "lat": 17.5729804, "lon": 78.4235432, "tags": {"amenity": "fuel", "brand": "Indian Oil", "brand:wikidata": "Q1289348", "name": "Indian Oil"}}, {"type": "way", "id": 1026127567, "nodes": [9460735879, 9460735880, 9460735881, 9460735882, 9460735879], "tags": {"amenity": "community_centre", "building": "yes", "name": "Old Age Home"}}]}