{"version": 0.6, "generator": "Overpass API 0.7.61.5 4133829e", "osm3s": {"timestamp_osm_base": "2024-02-21T13:07:00Z", "copyright": "The data included in this document is from www.openstreetmap.org. The data is made available under ODbL."}, "elements": [{"type": "node", "id": 2199508165, "lat": 17.3283971, "lon": 78.5998203, "tags": {"amenity": "atm", "name": "State Bank"}}, {"type": "node", "id": 2217950104, "lat": 17.3285711, "lon": 78.5994206, "tags": {"amenity": "atm", "name": "ICICI"}}, {"type": "node", "id": 2217950132, "lat": 17.3298207, "lon": 78.5954456, "tags": {"amenity": "atm", "name": "Andhra Bank", "operator": "Andhra Bank"}}, {"type": "node", "id": 2217950136, "lat": 17.3273001, "lon": 78.6053012, "tags": {"amenity": "toilets", "name": "Sulabh"}}, {"type": "node", "id": 2217950165, "lat": 17.3303532, "lon": 78.5940267, "tags": {"amenity": "atm", "name": "HDFC", "operator": "HDFC"}}, {"type": "node", "id": 2217950173, "lat": 17.3284458, "lon": 78.5996995, "tags": {"amenity": "atm", "name": "AXIS"}}, {"type": "node", "id": 2217960504, "lat": 17.3328265, "lon": 78.5885178, "tags": {"addr:city": "Hyderabad", "addr:postcode": "500070", "addr:street": "Bhagyalatha colony,Kanchan Bagh, Hayathnagar", "amenity": "fuel", "brand": "Bharat Petroleum", "brand:wikidata": "Q854826", "fuel:diesel": "yes", "name": "Bharat Petroleum petrol pump"}}, {"type": "node", "id": 2949081831, "lat": 17.3260251, "lon": 78.5993841, "tags": {"amenity": "place_of_worship", "name": "Mosque", "religion": "muslim"}}, {"type": "node", "id": 3535184560, "lat": 17.3302139, "lon": 78.5974194, "tags": {"amenity": "community_centre", "name": "VInayaka Nagar Community Hall", "vinayaknagar": "community hall"}}, {"type": "node", "id": 3625018268, "lat": 17.3176408, "lon": 78.6112422}, {"type": "node", "id": 3625018271, "lat": 17.317699, "lon": 78.6110375}, {"type": "node", "id": 3625018283, "lat": 17.3178859, "lon": 78.6113186}, {"type": "node", "id": 3625018284, "lat": 17.3179441, "lon": 78.611114}, {"type": "node", "id": 4496299255, "lat": 17.3408327, "lon": 78.6039917, "tags": {"amenity": "place_of_worship", "name": "Veeranna Gutta", "religion": "hindu"}}, {"type": "node", "id": 4496471892, "lat": 17.3223319, "lon": 78.6034148, "tags": {"amenity": "school", "name": "Zee School"}}, {"type": "node", "id": 4541673559, "lat": 17.3134481, "lon": 78.6154752, "tags": {"amenity": "place_of_worship", "name": "Ranganayakula Gutta", "religion": "hindu"}}, {"type": "node", "id": 4583920522, "lat": 17.3156469, "lon": 78.5889448, "tags": {"amenity": "place_of_worship", "name": "Dargah", "religion": "muslim"}}, {"type": "node", "id": 6248330050, "lat": 17.3306272, "lon": 78.6087266, "tags": {"addr:city": "Haythnagar", "addr:postcode": "501505", "amenity": "school", "name": "City Model High School"}}, {"type": "node", "id": 6308250716, "lat": 17.3187718, "lon": 78.6122015, "tags": {"amenity": "place_of_worship"}}, {"type": "node", "id": 6308250717, "lat": 17.3219367, "lon": 78.6135963, "tags": {"amenity": "school"}}, {"type": "node", "id": 6308250718, "lat": 17.3220737, "lon": 78.6148663, "tags": {"amenity": "community_centre"}}, {"type": "node", "id": 6308345580, "lat": 17.328667, "lon": 78.599351, "tags": {"addr:district": "Hyderabad", "addr:full": "#4-9-437/1/NR, RTC Colony, Opp. New Bawarchi Restaurant, Hayath Nagar", "addr:postcode": "501505", "addr:state": "Telangana", "amenity": "hospital", "contact:phone": "040-24202345", "name": "Krishnaveni Hospitals", "source": "OpenGovernmentData"}}, {"type": "node", "id": 6308345581, "lat": 17.3290882, "lon": 78.5988267, "tags": {"amenity": "place_of_worship"}}, {"type": "node", "id": 6308345582, "lat": 17.3281012, "lon": 78.5988253, "tags": {"amenity": "restaurant"}}, {"type": "node", "id": 6308345583, "lat": 17.3276128, "lon": 78.6027803, "tags": {"amenity": "police"}}, {"type": "node", "id": 6308345685, "lat": 17.3303825, "lon": 78.6077343, "tags": {"amenity": "fuel"}}, {"type": "node", "id": 6308345686, "lat": 17.326031, "lon": 78.6076847, "tags": {"amenity": "restaurant"}}, {"type": "node", "id": 6308345687, "lat": 17.322203, "lon": 78.6112869, "tags": {"amenity": "fuel"}}, {"type": "node", "id": 6308345694, "lat": 17.3144828, "lon": 78.6119628, "tags": {"amenity": "place_of_worship"}}, {"type": "node", "id": 6531706878, "lat": 17.331248, "lon": 78.5882561, "tags": {"addr:district": "Hyderabad", "addr:full": "Shivalayam Temple Road, Vanasthalipuram, Hayathnagar", "addr:postcode": "500070", "addr:state": "Telangana", "amenity": "hospital", "healthcare": "hospital", "name": "Bhagyalatha Hospital", "source": "OpenGovernmentData"}}, {"type": "node", "id": 6537312813, "lat": 17.3279207, "lon": 78.6017188, "tags": {"addr:district": "Hyderabad", "addr:full": "H No: 4-9-321, Plot No 4 & 7, Hayath Nagar", "addr:postcode": "501505", "addr:state": "Telangana", "amenity": "hospital", "contact:phone": "040-67451111", "name": "Sunrise Hospitals", "source": "OpenGovernmentData", "website": "https://www.sunrisehospitals.org/"}}, {"type": "node", "id": 6548877079, "lat": 17.3270322, "lon": 78.6032966, "tags": {"addr:district": "Hyderabad", "addr:full": "NH65, Opp. Police Station, Hayathnagar", "addr:postcode": "501505", "addr:state": "Telangana", "amenity": "hospital", "name": "Shadow Hospitals", "operator:type": "private", "source": "OpenGovernmentData"}}, {"type": "node", "id": 6639594129, "lat": 17.3286824, "lon": 78.6053444, "tags": {"addr:district": "Rangareddy", "addr:place": "Hayathnagar", "addr:state": "Telangana", "addr:street": "Kuntloor Road", "addr:subdistrict": "Hayathnagar", "amenity": "health_post", "healthcare": "yes", "name": "SubCentre Hayathnagar", "operational_status": "operational", "operator:type": "government", "source": "OpenDataTelangana"}}, {"type": "node", "id": 6811749124, "lat": 17.3291568, "lon": 78.5930459, "tags": {"addr:district": "Ranga Reddy", "addr:full": "Bus Depot Road,Padmavathi Nagar, Hayathnagar", "addr:postcode": "501505", "addr:state": "Telangana", "amenity": "clinic", "name": "Padmavathi Clinic, Hayathnagar", "source": "OpenGovernmentData"}}, {"type": "node", "id": 6934841180, "lat": 17.3334812, "lon": 78.6102356}, {"type": "node", "id": 6934841181, "lat": 17.3330116, "lon": 78.6114523}, {"type": "node", "id": 6934841182, "lat": 17.3331632, "lon": 78.6101935}, {"type": "node", "id": 6934846409, "lat": 17.3285488, "lon": 78.6048317, "tags": {"amenity": "place_of_worship", "name": "ellamma gudi", "religion": "hindu"}}, {"type": "node", "id": 6944299609, "lat": 17.3333293, "lon": 78.6114943}, {"type": "node", "id": 7246431783, "lat": 17.3160977, "lon": 78.6017116, "tags": {"amenity": "fuel"}}, {"type": "node", "id": 7246431784, "lat": 17.3158113, "lon": 78.6022405, "tags": {"amenity": "grave_yard"}}, {"type": "node", "id": 7246440885, "lat": 17.3172139, "lon": 78.6015898, "tags": {"amenity": "place_of_worship", "religion": "hindu"}}, {"type": "node", "id": 7246495498, "lat": 17.3308637, "lon": 78.6077269}, {"type": "node", "id": 7246495499, "lat": 17.3309335, "lon": 78.607785}, {"type": "node", "id": 7246495500, "lat": 17.3308801, "lon": 78.6078668}, {"type": "node", "id": 7246495501, "lat": 17.3308103, "lon": 78.607785}, {"type": "node", "id": 7246495502, "lat": 17.3308801, "lon": 78.6077872, "tags": {"amenity": "fast_food", "name": "Sri sai bakery and fastfood"}}, {"type": "node", "id": 7246501994, "lat": 17.331208, "lon": 78.6088074}, {"type": "node", "id": 7246501995, "lat": 17.330754, "lon": 78.6087493}, {"type": "node", "id": 7246501996, "lat": 17.3306657, "lon": 78.6093109}, {"type": "node", "id": 7246501997, "lat": 17.3307725, "lon": 78.6093626}, {"type": "node", "id": 7246501998, "lat": 17.3309122, "lon": 78.609369}, {"type": "node", "id": 7246501999, "lat": 17.3309471, "lon": 78.6094551}, {"type": "node", "id": 7246502000, "lat": 17.3309451, "lon": 78.6096272}, {"type": "node", "id": 7246502001, "lat": 17.3309163, "lon": 78.6097628}, {"type": "node", "id": 7246502002, "lat": 17.3308834, "lon": 78.6098875}, {"type": "node", "id": 7246502003, "lat": 17.3308834, "lon": 78.6099844}, {"type": "node", "id": 7246502004, "lat": 17.3313661, "lon": 78.6099865}, {"type": "node", "id": 7246502005, "lat": 17.3314442, "lon": 78.6096874}, {"type": "node", "id": 7246502006, "lat": 17.3315202, "lon": 78.6094486}, {"type": "node", "id": 7246502007, "lat": 17.3315695, "lon": 78.6093217}, {"type": "node", "id": 7246502008, "lat": 17.3314072, "lon": 78.6090764}, {"type": "node", "id": 7246502009, "lat": 17.3312141, "lon": 78.6093174, "tags": {"amenity": "parking_space", "capacity": "300"}}, {"type": "node", "id": 8397022091, "lat": 17.3194865, "lon": 78.5953285, "tags": {"amenity": "community_centre", "name": "Gayathrinagar Community Hall"}}, {"type": "node", "id": 9728625183, "lat": 17.3254611, "lon": 78.5904586}, {"type": "node", "id": 9728625184, "lat": 17.3250911, "lon": 78.5905089}, {"type": "node", "id": 9728625185, "lat": 17.3250671, "lon": 78.5906649}, {"type": "node", "id": 9728625186, "lat": 17.324774, "lon": 78.59068}, {"type": "node", "id": 9728625187, "lat": 17.3248029, "lon": 78.5910323}, {"type": "node", "id": 9728625188, "lat": 17.3255812, "lon": 78.5910122}, {"type": "node", "id": 9728706278, "lat": 17.3166037, "lon": 78.5818078}, {"type": "node", "id": 9728706279, "lat": 17.3148631, "lon": 78.5828803}, {"type": "node", "id": 9728706280, "lat": 17.3175345, "lon": 78.5847231}, {"type": "node", "id": 9728706281, "lat": 17.3185026, "lon": 78.5832606}, {"type": "node", "id": 9731596625, "lat": 17.3219078, "lon": 78.5927685}, {"type": "node", "id": 9731596626, "lat": 17.3217597, "lon": 78.5927575}, {"type": "node", "id": 9731596627, "lat": 17.3217562, "lon": 78.5928284}, {"type": "node", "id": 9731596628, "lat": 17.3219043, "lon": 78.5928382}, {"type": "node", "id": 9731596629, "lat": 17.3259657, "lon": 78.587559}, {"type": "node", "id": 9731596630, "lat": 17.3259736, "lon": 78.5877756}, {"type": "node", "id": 9731596631, "lat": 17.3257485, "lon": 78.5877564}, {"type": "node", "id": 9731596632, "lat": 17.3257569, "lon": 78.5875535}, {"type": "node", "id": 9731596633, "lat": 17.3281338, "lon": 78.585384}, {"type": "node", "id": 9731596634, "lat": 17.3281455, "lon": 78.5850508}, {"type": "node", "id": 9731596635, "lat": 17.3279382, "lon": 78.5850409}, {"type": "node", "id": 9731596636, "lat": 17.3279358, "lon": 78.5852038}, {"type": "node", "id": 9731596637, "lat": 17.3277049, "lon": 78.5852063}, {"type": "node", "id": 9731596638, "lat": 17.3277189, "lon": 78.5853734}, {"type": "node", "id": 9732170006, "lat": 17.3274333, "lon": 78.5874526, "tags": {"amenity": "bank", "name": "Telangana grammina bank"}}, {"type": "node", "id": 9732170007, "lat": 17.3282885, "lon": 78.587643, "tags": {"amenity": "bank", "brand": "Union Bank of India", "brand:wikidata": "Q2004078", "name": "Union Bank of India"}}, {"type": "node", "id": 9732170008, "lat": 17.3320997, "lon": 78.5890645, "tags": {"amenity": "bank", "brand": "Bank of Baroda", "brand:wikidata": "Q2003797", "name": "Bank of Baroda"}}, {"type": "node", "id": 9732170009, "lat": 17.3323395, "lon": 78.5892485, "tags": {"amenity": "bank", "brand": "Canara Bank", "brand:wikidata": "Q2003777", "name": "Canara Bank"}}, {"type": "node", "id": 9914161642, "lat": 17.3311371, "lon": 78.5881597, "tags": {"amenity": "restaurant", "name": "Tasty Touch"}}, {"type": "node", "id": 9914161643, "lat": 17.3313325, "lon": 78.5883686, "tags": {"amenity": "ice_cream", "name": "Scoops Ice cream Parlour"}}, {"type": "node", "id": 9914161651, "lat": 17.3343024, "lon": 78.5891926, "tags": {"addr:city": "Hyderabad", "addr:housenumber": "Bhagyalatha colony,", "addr:postcode": "501505", "addr:street": "Hayathnagar_khalsa", "amenity": "research_institute", "name": "CRIDA Research Farm"}}, {"type": "node", "id": 9914161656, "lat": 17.3320559, "lon": 78.5890402, "tags": {"amenity": "atm", "brand": "Bank of Baroda", "brand:wikidata": "Q2003797", "name": "Bank of Baroda", "operator": "Bank of Baroda", "operator:wikidata": "Q2003797"}}, {"type": "node", "id": 10992544223, "lat": 17.3262276, "lon": 78.5934396, "tags": {"amenity": "bus_station", "bus": "yes", "name": "TSRTC BUS DEPOT , HAYATNAGR 1", "public_transport": "station"}}, {"type": "node", "id": 10992544224, "lat": 17.3250571, "lon": 78.5940827, "tags": {"amenity": "bus_station", "bus": "yes", "name": "TSRTC BUS DEPOT , HAYATNAGR 2", "public_transport": "station"}}, {"type": "node", "id": 11484547681, "lat": 17.3224517, "lon": 78.6212531}, {"type": "node", "id": 11484547682, "lat": 17.3223678, "lon": 78.6216812}, {"type": "node", "id": 11484547683, "lat": 17.3207764, "lon": 78.6213891}, {"type": "node", "id": 11484547684, "lat": 17.3208197, "lon": 78.6207399}, {"type": "way", "id": 357159617, "nodes": [3625018284, 3625018283, 3625018268, 3625018271, 3625018284], "tags": {"amenity": "school"}}, {"type": "way", "id": 740707571, "nodes": [6934841180, 6944299609, 6934841181, 6934841182, 6934841180], "tags": {"addr:city": "Hyderabad", "addr:street": "Kuntloor Road", "amenity": "place_of_worship", "building": "yes", "name": "mother diary"}}, {"type": "way", "id": 776648903, "nodes": [7246501994, 7246501995, 7246501996, 7246501997, 7246501998, 7246501999, 7246502000, 7246502001, 7246502002, 7246502003, 7246502004, 7246502005, 7246502006, 7246502007, 7246502008, 7246501994], "tags": {"amenity": "parking_space", "capacity": "300"}}, {"type": "way", "id": 776650861, "nodes": [7246495498, 7246495499, 7246495500, 7246495501, 7246495498], "tags": {"amenity": "fast_food", "building": "yes", "name": "Sri Sai bakery"}}, {"type": "way", "id": 1058758359, "nodes": [9728625183, 9728625184, 9728625185, 9728625186, 9728625187, 9728625188, 9728625183], "tags": {"amenity": "college"}}, {"type": "way", "id": 1058768932, "nodes": [9728706278, 9728706279, 9728706280, 9728706281, 9728706278], "tags": {"amenity": "grave_yard", "name": "shabe nagar gravyard"}}, {"type": "way", "id": 1059144542, "nodes": [9731596625, 9731596626, 9731596627, 9731596628, 9731596625], "tags": {"amenity": "place_of_worship", "building": "yes", "name": "sai baba temple", "religion": "hindu"}}, {"type": "way", "id": 1059144543, "nodes": [9731596629, 9731596630, 9731596631, 9731596632, 9731596629], "tags": {"amenity": "place_of_worship", "building": "yes", "layer": "1", "religion": "hindu"}}, {"type": "way", "id": 1059144544, "nodes": [9731596633, 9731596634, 9731596635, 9731596636, 9731596637, 9731596638, 9731596633], "tags": {"amenity": "place_of_worship", "building": "yes", "layer": "1", "name": "Hanuman temple", "religion": "hindu"}}, {"type": "way", "id": 1236769153, "nodes": [11484547681, 11484547682, 11484547683, 11484547684, 11484547681], "tags": {"amenity": "parking"}}]}