{"version": 0.6, "generator": "Overpass API 0.7.61.5 4133829e", "osm3s": {"timestamp_osm_base": "2024-02-21T13:07:00Z", "copyright": "The data included in this document is from www.openstreetmap.org. The data is made available under ODbL."}, "elements": [{"type": "node", "id": 4284086492, "lat": 17.5589088, "lon": 78.4414499, "tags": {"amenity": "bank", "name": "South Indian Bank"}}, {"type": "node", "id": 5367619622, "lat": 17.5592607, "lon": 78.4366123, "tags": {"amenity": "fuel"}}, {"type": "node", "id": 5831438485, "lat": 17.5647206, "lon": 78.4298233, "tags": {"amenity": "fuel"}}, {"type": "node", "id": 6811749037, "lat": 17.559986, "lon": 78.4379617, "tags": {"addr:district": "Medchal Malkajgiri", "addr:full": "Doolapally Road,Bahadurpally, Sundar Rao Nagar", "addr:postcode": "500043", "addr:state": "Telangana", "amenity": "clinic", "contact:mobile": "9666800152", "name": "Sri Akshith Clinic", "source": "OpenGovernmentData"}}, {"type": "node", "id": 6811749091, "lat": 17.5765848, "lon": 78.4228728, "tags": {"addr:district": "Medchal Malkajgiri", "addr:full": "Near Orange Medical & General store, Gandi Maisamma, Narsapur Road, Hyderabad", "addr:postcode": "500043", "addr:state": "Telangana", "amenity": "clinic", "contact:mobile": "8686622449", "name": "Vijaya Gayatri Clinic", "source": "OpenGovernmentData"}}, {"type": "node", "id": 6811749112, "lat": 17.5599256, "lon": 78.4383837, "tags": {"addr:district": "Medchal Malkajgiri", "addr:full": "Near Tirumala Kirana Store, Doolapally Road, Bahadurpally", "addr:postcode": "500043", "addr:state": "Telangana", "amenity": "clinic", "contact:mobile": "9247731952", "name": "Jyothi Clinic", "source": "OpenGovernmentData"}}, {"type": "node", "id": 6822126499, "lat": 17.5598693, "lon": 78.4385776, "tags": {"amenity": "restaurant", "name": "Hotel Surya", "source": "survey"}}, {"type": "node", "id": 6822126511, "lat": 17.559927, "lon": 78.437858, "tags": {"amenity": "place_of_worship", "name": "Vijaya Mahamanthra Temple", "religion": "hindu", "source": "survey"}}, {"type": "node", "id": 6822126647, "lat": 17.5767105, "lon": 78.4222408, "tags": {"amenity": "bank", "name": "Andhra Bank", "source": "survey"}}, {"type": "node", "id": 6850830288, "lat": 17.576965, "lon": 78.421959, "tags": {"amenity": "bank", "name": "State Bank of India", "source": "survey"}}, {"type": "node", "id": 6850830317, "lat": 17.5599332, "lon": 78.4375047, "tags": {"amenity": "post_office", "name": "Post Office Bahadurpally", "source": "survey"}}, {"type": "node", "id": 9460735879, "lat": 17.5775904, "lon": 78.4290486}, {"type": "node", "id": 9460735880, "lat": 17.5775986, "lon": 78.4298328}, {"type": "node", "id": 9460735881, "lat": 17.5768734, "lon": 78.4295824}, {"type": "node", "id": 9460735882, "lat": 17.5771386, "lon": 78.4290637}, {"type": "node", "id": 9960782562, "lat": 17.5701711, "lon": 78.4319123, "tags": {"amenity": "cafe", "name": "tea time"}}, {"type": "node", "id": 11572365801, "lat": 17.5729804, "lon": 78.4235432, "tags": {"amenity": "fuel", "brand": "Indian Oil", "brand:wikidata": "Q1289348", "name": "Indian Oil"}}, {"type": "way", "id": 1026127567, "nodes": [9460735879, 9460735880, 9460735881, 9460735882, 9460735879], "tags": {"amenity": "community_centre", "building": "yes", "name": "Old Age Home"}}]}