{"version": 0.6, "generator": "Overpass API 0.7.61.5 4133829e", "osm3s": {"timestamp_osm_base": "2024-02-21T12:49:45Z", "copyright": "The data included in this document is from www.openstreetmap.org. The data is made available under ODbL."}, "elements": [{"type": "node", "id": 321709784, "lat": 17.4408307, "lon": 78.4870942, "tags": {"amenity": "parking"}}, {"type": "node", "id": 321709797, "lat": 17.4387971, "lon": 78.4888125, "tags": {"amenity": "parking"}}, {"type": "node", "id": 321710431, "lat": 17.4329496, "lon": 78.5045162}, {"type": "node", "id": 321711823, "lat": 17.4427323, "lon": 78.5064355, "tags": {"amenity": "place_of_worship", "religion": "christian"}}, {"type": "node", "id": 324834915, "lat": 17.4414402, "lon": 78.4935002, "tags": {"amenity": "restaurant", "diet:vegetarian": "only", "name": "Taj Tristar", "name:te": "\u0c24\u0c3e\u0c1c\u0c4d \u0c1f\u0c4d\u0c30\u0c48 \u0c38\u0c4d\u0c1f\u0c3e\u0c30\u0c4d", "tourism": "hotel"}}, {"type": "node", "id": 525052103, "lat": 17.4423612, "lon": 78.4936495, "tags": {"amenity": "restaurant", "diet:vegetarian": "only", "name": "Taj Belson", "name:te": "\u0c24\u0c3e\u0c1c\u0c4d \u0c2c\u0c46\u0c32\u0c4d\u0c38\u0c28\u0c4d", "tourism": "hotel"}}, {"type": "node", "id": 525059781, "lat": 17.4484772, "lon": 78.4928118}, {"type": "node", "id": 525059783, "lat": 17.4483317, "lon": 78.4928226, "tags": {"amenity": "restaurant", "diet:vegetarian": "only", "name": "Utsav Restaurant"}}, {"type": "node", "id": 582824404, "lat": 17.4430832, "lon": 78.4855137, "tags": {"amenity": "fire_station", "name": "S P Road Fire Station"}}, {"type": "node", "id": 582824405, "lat": 17.4395738, "lon": 78.4985352, "tags": {"amenity": "cinema", "name": "Prashanth theatre", "name:en": "Prashanth theatre", "name:te": "\u0c2a\u0c4d\u0c30\u0c36\u0c3e\u0c02\u0c24\u0c4d \u0c25\u0c3f\u0c2f\u0c47\u0c1f\u0c30\u0c4d"}}, {"type": "node", "id": 582824598, "lat": 17.4404726, "lon": 78.4935719, "tags": {"amenity": "cinema", "name": "Manju Cinema", "name:te": "\u0c2e\u0c02\u0c1c\u0c41 \u0c38\u0c3f\u0c28\u0c3f\u0c2e\u0c3e"}}, {"type": "node", "id": 649056266, "lat": 17.4541644, "lon": 78.4981718, "tags": {"amenity": "restaurant", "cuisine": "ice_cream", "name": "Icecream Club"}}, {"type": "node", "id": 762994061, "lat": 17.4407222, "lon": 78.4857384, "tags": {"amenity": "dentist", "name": "Dental Paradise", "name:te": "\u0c21\u0c46\u0c02\u0c1f\u0c32\u0c4d \u0c2a\u0c3e\u0c30\u0c21\u0c48\u0c1c\u0c4d"}}, {"type": "node", "id": 762994074, "lat": 17.4404012, "lon": 78.4865035, "tags": {"amenity": "school", "name": "Wesley High School", "name:te": "\u0c35\u0c46\u0c38\u0c4d\u0c32\u0c40 \u0c39\u0c48 \u0c38\u0c4d\u0c15\u0c42\u0c32\u0c4d"}}, {"type": "node", "id": 762995567, "lat": 17.441951, "lon": 78.4855009, "tags": {"amenity": "restaurant", "cuisine": "indian", "name": "Chatees 36"}}, {"type": "node", "id": 813571150, "lat": 17.4436222, "lon": 78.4802638, "tags": {"amenity": "atm", "operator": "Citibank"}}, {"type": "node", "id": 813571228, "lat": 17.4435568, "lon": 78.4877615, "tags": {"amenity": "fuel", "brand": "Indian Oil", "brand:wikidata": "Q1289348", "brand:wikipedia": "en:Indian Oil Corporation", "name": "Indian Oil"}}, {"type": "node", "id": 813571286, "lat": 17.4430364, "lon": 78.4905722, "tags": {"amenity": "fuel", "name": "Bharat Petroleum"}}, {"type": "node", "id": 813571472, "lat": 17.4427994, "lon": 78.5042129, "tags": {"amenity": "toilets", "fee": "yes"}}, {"type": "node", "id": 813571521, "lat": 17.4409489, "lon": 78.5052645, "tags": {"amenity": "fuel", "brand": "Bharat Petroleum", "brand:wikidata": "Q854826", "brand:wikipedia": "en:Bharat Petroleum", "name": "Bharat Petroleum", "operator": "Indian Oil"}}, {"type": "node", "id": 813571553, "lat": 17.4397896, "lon": 78.5089043, "tags": {"amenity": "fuel", "brand": "Bharat Petroleum", "brand:wikidata": "Q854826", "brand:wikipedia": "en:Bharat Petroleum", "fuel:cng": "yes", "fuel:diesel": "yes", "name": "Bharat Petroleum", "operator": "Bharat Petroleum"}}, {"type": "node", "id": 813571613, "lat": 17.4378187, "lon": 78.5108106, "tags": {"amenity": "atm", "cash_in": "no", "drive_through": "no", "operator": "Canara Bank"}}, {"type": "node", "id": 813571662, "lat": 17.4352319, "lon": 78.5144447, "tags": {"amenity": "toilets", "fee": "yes"}}, {"type": "node", "id": 813571710, "lat": 17.4368946, "lon": 78.5173462, "tags": {"amenity": "bank", "atm": "yes", "brand": "Canara Bank", "brand:pa": "\u0a15\u0a47\u0a28\u0a30\u0a3e \u0a2c\u0a48\u0a02\u0a15", "brand:ur": "\u06a9\u06cc\u0646\u0631\u0627 \u0628\u06cc\u0646\u06a9", "brand:wikidata": "Q2003777", "brand:wikipedia": "en:Canara Bank", "brand:wikipedia:pa": "\u0a15\u0a47\u0a28\u0a30\u0a3e \u0a2c\u0a48\u0a02\u0a15", "name": "Canara Bank", "name:pa": "\u0a15\u0a47\u0a28\u0a30\u0a3e \u0a2c\u0a48\u0a02\u0a15", "name:ur": "\u06a9\u06cc\u0646\u0631\u0627 \u0628\u06cc\u0646\u06a9", "website": "https://www.canarabank.com/"}}, {"type": "node", "id": 817353632, "lat": 17.4432794, "lon": 78.4798416, "tags": {"amenity": "fast_food", "cuisine": "pizza", "name": "Pizza Hut"}}, {"type": "node", "id": 817354552, "lat": 17.4436154, "lon": 78.4804254, "tags": {"amenity": "pharmacy", "dispensing": "no", "name": "Apollo"}}, {"type": "node", "id": 817354574, "lat": 17.4431269, "lon": 78.4893065, "tags": {"amenity": "bank", "atm": "yes", "brand:wikidata": "Q1340361", "brand:wikipedia": "en:State Bank of India", "name": "State Bank of India", "short_name": "SBI", "website": "https://www.sbi.co.in"}}, {"type": "node", "id": 854960920, "lat": 17.4418602, "lon": 78.4988827, "tags": {"amenity": "restaurant", "name": "Garden Restaurant"}}, {"type": "node", "id": 854960941, "lat": 17.4401551, "lon": 78.4955399}, {"type": "node", "id": 854960945, "lat": 17.4392041, "lon": 78.4952509}, {"type": "node", "id": 854960956, "lat": 17.4391638, "lon": 78.4968058}, {"type": "node", "id": 854960959, "lat": 17.4394292, "lon": 78.4970748}, {"type": "node", "id": 854960963, "lat": 17.4400434, "lon": 78.4970105}, {"type": "node", "id": 886337163, "lat": 17.442076, "lon": 78.5055212, "tags": {"amenity": "place_of_worship", "name": "ISKCON", "religion": "hindu"}}, {"type": "node", "id": 886337190, "lat": 17.439245, "lon": 78.5048872}, {"type": "node", "id": 886337194, "lat": 17.4384773, "lon": 78.5047424}, {"type": "node", "id": 886337197, "lat": 17.4376495, "lon": 78.5043105}, {"type": "node", "id": 886337202, "lat": 17.4379988, "lon": 78.5029145}, {"type": "node", "id": 886337205, "lat": 17.4394292, "lon": 78.5031169}, {"type": "node", "id": 886358982, "lat": 17.4407086, "lon": 78.5045814, "tags": {"amenity": "cinema", "building": "yes", "name": "Sangeet (Permanently Closed)"}}, {"type": "node", "id": 886401086, "lat": 17.4578019, "lon": 78.4843602, "tags": {"amenity": "place_of_worship", "religion": "muslim"}}, {"type": "node", "id": 886404629, "lat": 17.4567886, "lon": 78.4844353, "tags": {"amenity": "atm", "operator": "ICICI Bank"}}, {"type": "node", "id": 889674219, "lat": 17.4408665, "lon": 78.4971168, "tags": {"amenity": "restaurant", "diet:vegetarian": "only", "name": "Kamath Hotel", "name:en": "Kamath Hotel", "name:te": "\u0c15\u0c3e\u0c2e\u0c24\u0c4d \u0c39\u0c4b\u0c1f\u0c32\u0c4d"}}, {"type": "node", "id": 889676523, "lat": 17.4421971, "lon": 78.4903362, "tags": {"amenity": "restaurant", "cuisine": "chinese", "name": "Nanking"}}, {"type": "node", "id": 890130387, "lat": 17.4435874, "lon": 78.483779}, {"type": "node", "id": 890130393, "lat": 17.4444574, "lon": 78.4838005}, {"type": "node", "id": 890130395, "lat": 17.4444574, "lon": 78.4839829}, {"type": "node", "id": 890130397, "lat": 17.4457675, "lon": 78.4837576}, {"type": "node", "id": 890130399, "lat": 17.4456652, "lon": 78.4849485}, {"type": "node", "id": 890130400, "lat": 17.4450715, "lon": 78.4864505}, {"type": "node", "id": 890130401, "lat": 17.4448975, "lon": 78.4868153}, {"type": "node", "id": 890130402, "lat": 17.4446938, "lon": 78.4871876}, {"type": "node", "id": 890130403, "lat": 17.443922, "lon": 78.4872871}, {"type": "node", "id": 890130404, "lat": 17.4436428, "lon": 78.4872317}, {"type": "node", "id": 890130405, "lat": 17.4435362, "lon": 78.486944}, {"type": "node", "id": 891324851, "lat": 17.4419971, "lon": 78.4858784, "tags": {"amenity": "restaurant", "diet:vegetarian": "only", "name": "Chilly's Restaurant"}}, {"type": "node", "id": 902311398, "lat": 17.4556983, "lon": 78.4984034, "tags": {"addr:street": "Vikrampuri", "amenity": "hospital", "emergency": "yes", "name": "Oxygen Hospital"}}, {"type": "node", "id": 928699174, "lat": 17.4550905, "lon": 78.4855131, "tags": {"amenity": "fuel", "brand": "Indian Oil", "brand:wikidata": "Q1289348", "brand:wikipedia": "en:Indian Oil Corporation", "operator": "Indian Oil Corporation"}}, {"type": "node", "id": 928699178, "lat": 17.455822, "lon": 78.4849223, "tags": {"amenity": "restaurant", "cuisine": "indian", "name": "Pakwaan"}}, {"type": "node", "id": 932859836, "lat": 17.4477084, "lon": 78.4922873}, {"type": "node", "id": 932859838, "lat": 17.4467813, "lon": 78.4919331}, {"type": "node", "id": 932859860, "lat": 17.4471585, "lon": 78.4928615}, {"type": "node", "id": 986848593, "lat": 17.4347862, "lon": 78.4883576, "tags": {"amenity": "restaurant"}}, {"type": "node", "id": 1038396449, "lat": 17.4287605, "lon": 78.4882351, "tags": {"amenity": "bank", "atm": "yes", "brand:wikidata": "Q2003549", "brand:wikipedia": "en:Axis Bank", "name": "Axis Bank", "name:en": "Axis Bank", "website": "https://www.axisbank.com"}}, {"type": "node", "id": 1038396678, "lat": 17.4361643, "lon": 78.4884749, "tags": {"amenity": "police", "name": "Ramgopalpet Police Station"}}, {"type": "node", "id": 1038396679, "lat": 17.4357767, "lon": 78.4883632, "tags": {"amenity": "fast_food", "brand": "KFC", "brand:pa": "\u0a15\u0a47\u0a10\u0a2b\u0a38\u0a40", "brand:ur": "\u06a9\u06cc\u0646\u0679\u06a9\u06cc \u0641\u0631\u0627\u0626\u06cc\u0688 \u0686\u06a9\u0646", "brand:wikidata": "Q524757", "brand:wikipedia": "en:KFC", "brand:wikipedia:pa": "\u0a15\u0a47\u0a10\u0a2b\u0a38\u0a40", "brand:wikipedia:ur": "\u06a9\u06cc\u0646\u0679\u06a9\u06cc \u0641\u0631\u0627\u0626\u06cc\u0688 \u0686\u06a9\u0646", "cuisine": "chicken", "name": "KFC", "name:pa": "\u0a15\u0a47\u0a10\u0a2b\u0a38\u0a40", "name:ur": "\u06a9\u06cc\u0646\u0679\u06a9\u06cc \u0641\u0631\u0627\u0626\u06cc\u0688 \u0686\u06a9\u0646", "takeaway": "yes"}}, {"type": "node", "id": 1038397148, "lat": 17.439912, "lon": 78.4880414, "tags": {"amenity": "fuel"}}, {"type": "node", "id": 1038397980, "lat": 17.4409765, "lon": 78.4879985, "tags": {"amenity": "restaurant", "name": "Nakshatra", "name:te": "\u0c28\u0c15\u0c4d\u0c37\u0c24\u0c4d\u0c30"}}, {"type": "node", "id": 1038398856, "lat": 17.4422252, "lon": 78.4876551, "tags": {"amenity": "bank", "brand": "Bank of Maharashtra", "brand:wikidata": "Q2004304", "brand:wikipedia": "en:Bank of Maharashtra", "name": "Bank of Maharashtra", "name:en": "Bank of Maharashtra", "website": "https://www.bankofmaharashtra.in/"}}, {"type": "node", "id": 1242169223, "lat": 17.4430424, "lon": 78.4896911, "tags": {"amenity": "atm", "operator": "UTI"}}, {"type": "node", "id": 1242176694, "lat": 17.4412511, "lon": 78.4952808, "tags": {"amenity": "post_box", "designation": "Main Branch", "operator": "Indian Postal"}}, {"type": "node", "id": 1242176707, "lat": 17.4418625, "lon": 78.4952906, "tags": {"amenity": "bank", "atm": "yes", "name": "SBI administrative office-II"}}, {"type": "node", "id": 1257610296, "lat": 17.4387277, "lon": 78.4992644}, {"type": "node", "id": 1257610299, "lat": 17.4387584, "lon": 78.4993529}, {"type": "node", "id": 1257610300, "lat": 17.4387354, "lon": 78.499318}, {"type": "node", "id": 1257610301, "lat": 17.4387584, "lon": 78.4992027}, {"type": "node", "id": 1257610302, "lat": 17.4390885, "lon": 78.4990203}, {"type": "node", "id": 1257610303, "lat": 17.4397155, "lon": 78.4989774}, {"type": "node", "id": 1333758091, "lat": 17.4567641, "lon": 78.4994603, "tags": {"alt_name": "Kentucky Fried Chicken", "alt_name:en": "Kentucky Fried Chicken", "alt_name:hi": "\u0915\u0947\u0902\u091f\u0941\u0915\u0940 \u092b\u094d\u0930\u093e\u0907\u0921 \u091a\u093f\u0915\u0928", "alt_name:pa": "\u0a15\u0a48\u0a02\u0a1f\u0a41\u0a15\u0a40 \u0a2b\u0a4d\u0a30\u0a3e\u0a08\u0a21 \u0a1a\u0a3f\u0a15\u0a28", "alt_name:pnb": "\u06a9\u06cc\u0646\u0679\u06a9\u06cc \u0641\u0631\u0627\u0626\u06cc\u0688 \u0686\u06a9\u0646", "alt_name:ur": "\u06a9\u06cc\u0646\u0679\u06a9\u06cc \u0641\u0631\u0627\u0626\u06cc\u0688 \u0686\u06a9\u0646", "amenity": "fast_food", "brand": "KFC", "brand:en": "KFC", "brand:hi": "\u0915\u0947\u090f\u092b\u0938\u0940", "brand:pa": "\u0a15\u0a47\u0a10\u0a2b\u0a38\u0a40", "brand:pnb": "\u06a9\u06d2 \u0627\u06cc\u0641 \u0633\u06cc", "brand:ur": "\u06a9\u06d2 \u0627\u06cc\u0641 \u0633\u06cc", "brand:wikidata": "Q524757", "brand:wikipedia": "en:KFC", "brand:wikipedia:pa": "\u0a15\u0a47\u0a10\u0a2b\u0a38\u0a40", "brand:wikipedia:ur": "\u06a9\u06cc\u0646\u0679\u06a9\u06cc \u0641\u0631\u0627\u0626\u06cc\u0688 \u0686\u06a9\u0646", "cuisine": "chicken", "name": "KFC", "name:en": "KFC", "name:hi": "\u0915\u0947\u090f\u092b\u0938\u0940", "name:pa": "\u0a15\u0a47\u0a10\u0a2b\u0a38\u0a40", "name:pnb": "\u06a9\u06d2 \u0627\u06cc\u0641 \u0633\u06cc", "name:ur": "\u06a9\u06d2 \u0627\u06cc\u0641 \u0633\u06cc", "takeaway": "yes"}}, {"type": "node", "id": 1333758097, "lat": 17.4524188, "lon": 78.4949541}, {"type": "node", "id": 1334561741, "lat": 17.4421759, "lon": 78.5047802, "tags": {"amenity": "bank", "atm": "yes", "brand": "Corporation Bank", "brand:wikidata": "Q2003387", "brand:wikipedia": "en:Corporation Bank", "level": "0", "name": "Corporation Bank", "name:en": "Corporation Bank", "opening_hours": "24/7", "website": "https://corpbank.com/", "wheelchair": "no"}}, {"type": "node", "id": 1416850704, "lat": 17.4412663, "lon": 78.5003508, "tags": {"amenity": "restaurant", "name": "Pickles"}}, {"type": "node", "id": 1502798798, "lat": 17.4458873, "lon": 78.5076449, "tags": {"amenity": "library", "name": "French Library"}}, {"type": "node", "id": 1502798799, "lat": 17.4441752, "lon": 78.5108908}, {"type": "node", "id": 1502798800, "lat": 17.4451003, "lon": 78.5080615}, {"type": "node", "id": 1502798802, "lat": 17.4453352, "lon": 78.5075859}, {"type": "node", "id": 1502798803, "lat": 17.4453934, "lon": 78.507414}, {"type": "node", "id": 1502798804, "lat": 17.4455283, "lon": 78.507662}, {"type": "node", "id": 1502798805, "lat": 17.4455906, "lon": 78.5074988}, {"type": "node", "id": 1502798806, "lat": 17.4456079, "lon": 78.5112477}, {"type": "node", "id": 1502798813, "lat": 17.4464787, "lon": 78.5086098}, {"type": "node", "id": 1602532197, "lat": 17.447423, "lon": 78.5164319, "tags": {"amenity": "waste_basket"}}, {"type": "node", "id": 1611088566, "lat": 17.4410803, "lon": 78.4931204, "tags": {"amenity": "toilets"}}, {"type": "node", "id": 1866901270, "lat": 17.4566387, "lon": 78.4993902, "tags": {"amenity": "bank", "atm": "yes", "brand": "ICICI Bank", "brand:wikidata": "Q1653258", "name": "ICICI Bank", "name:en": "ICICI Bank", "short_name": "ICICI", "website": "https://www.icicibank.com"}}, {"type": "node", "id": 1866942754, "lat": 17.4543463, "lon": 78.4892836, "tags": {"amenity": "veterinary"}}, {"type": "node", "id": 1866942817, "lat": 17.4572336, "lon": 78.4895573}, {"type": "node", "id": 1866942818, "lat": 17.4573601, "lon": 78.4890919}, {"type": "node", "id": 1866942819, "lat": 17.4581458, "lon": 78.4897216}, {"type": "node", "id": 1866942820, "lat": 17.4582547, "lon": 78.4893358}, {"type": "node", "id": 1866944231, "lat": 17.4570126, "lon": 78.4872314}, {"type": "node", "id": 1866944232, "lat": 17.45721, "lon": 78.4864407}, {"type": "node", "id": 1866944233, "lat": 17.4575683, "lon": 78.4874521}, {"type": "node", "id": 1866944234, "lat": 17.4574198, "lon": 78.4865239}, {"type": "node", "id": 1947410130, "lat": 17.4554659, "lon": 78.4982977, "tags": {"amenity": "pharmacy", "brand": "Apollo Pharmacy", "brand:wikidata": "Q62562612", "healthcare": "pharmacy", "name": "Apollo Pharmacy", "source": "survey"}}, {"type": "node", "id": 2014860758, "lat": 17.4431928, "lon": 78.4800077, "tags": {"amenity": "restaurant", "cuisine": "indian", "name": "Chutneys"}}, {"type": "node", "id": 2214136534, "lat": 17.4359536, "lon": 78.5000501, "tags": {"amenity": "bus_station", "bus": "yes", "internet_access": "no", "name": "Secunderabad", "name:hi": "\u0938\u093f\u0915\u0902\u0926\u0930\u093e\u092c\u093e\u0926", "name:pa": "\u0a38\u0a3f\u0a15\u0a70\u0a26\u0a30\u0a3e\u0a2c\u0a3e\u0a26", "name:te": "\u0c38\u0c3f\u0c15\u0c3f\u0c02\u0c26\u0c4d\u0c30\u0c3e\u0c2c\u0c3e\u0c26\u0c4d", "network": "Secunderabad-Medchal-Lingampalli", "operator": "TSRTC", "public_transport": "station"}}, {"type": "node", "id": 2446524797, "lat": 17.4432701, "lon": 78.4905593, "tags": {"amenity": "fuel", "name": "Paradise Cross Roads"}}, {"type": "node", "id": 2623238085, "lat": 17.440189, "lon": 78.4890707}, {"type": "node", "id": 2623238088, "lat": 17.4401965, "lon": 78.4894044}, {"type": "node", "id": 2623238090, "lat": 17.4406349, "lon": 78.4894009}, {"type": "node", "id": 2623238092, "lat": 17.4406338, "lon": 78.4890641}, {"type": "node", "id": 2623238096, "lat": 17.4404088, "lon": 78.4891583}, {"type": "node", "id": 2623238098, "lat": 17.4404962, "lon": 78.4891658}, {"type": "node", "id": 2623238100, "lat": 17.4405084, "lon": 78.4891751}, {"type": "node", "id": 2623238101, "lat": 17.4405151, "lon": 78.4892744}, {"type": "node", "id": 2623238103, "lat": 17.4405017, "lon": 78.4892837}, {"type": "node", "id": 2623238105, "lat": 17.4403179, "lon": 78.4892931}, {"type": "node", "id": 2623238107, "lat": 17.440309, "lon": 78.4892826}, {"type": "node", "id": 2623238108, "lat": 17.4403057, "lon": 78.4891833}, {"type": "node", "id": 2623238109, "lat": 17.4403135, "lon": 78.4891693}, {"type": "node", "id": 2623238111, "lat": 17.4404206, "lon": 78.4891598}, {"type": "node", "id": 2623239335, "lat": 17.4401902, "lon": 78.4891038}, {"type": "node", "id": 2623239338, "lat": 17.4401855, "lon": 78.4893901}, {"type": "node", "id": 2623240027, "lat": 17.4402266, "lon": 78.4894044}, {"type": "node", "id": 2623253895, "lat": 17.4401889, "lon": 78.4894527}, {"type": "node", "id": 2623253896, "lat": 17.4401884, "lon": 78.4895003}, {"type": "node", "id": 2623253897, "lat": 17.4401538, "lon": 78.4895}, {"type": "node", "id": 2623253898, "lat": 17.4401543, "lon": 78.4894523}, {"type": "node", "id": 2623253919, "lat": 17.4406791, "lon": 78.4891384}, {"type": "node", "id": 2623574124, "lat": 17.4404266, "lon": 78.4932206}, {"type": "node", "id": 2623574125, "lat": 17.4407004, "lon": 78.4933037}, {"type": "node", "id": 2623574126, "lat": 17.4405647, "lon": 78.4937114}, {"type": "node", "id": 2623574127, "lat": 17.440662, "lon": 78.4937409}, {"type": "node", "id": 2623574128, "lat": 17.4406338, "lon": 78.4938133}, {"type": "node", "id": 2623574129, "lat": 17.4402756, "lon": 78.4936899}, {"type": "node", "id": 2623574130, "lat": 17.4402244, "lon": 78.4936658}, {"type": "node", "id": 2623574131, "lat": 17.4403703, "lon": 78.4932018}, {"type": "node", "id": 2710845165, "lat": 17.4425125, "lon": 78.4951502}, {"type": "node", "id": 2710845166, "lat": 17.4424902, "lon": 78.4954529}, {"type": "node", "id": 2710845167, "lat": 17.442294, "lon": 78.4954327}, {"type": "node", "id": 2710845168, "lat": 17.4423099, "lon": 78.4951302}, {"type": "node", "id": 2710846678, "lat": 17.4418625, "lon": 78.4956866, "tags": {"amenity": "restaurant", "name": "udupi tiffins", "name:te": "\u0c09\u0c21\u0c41\u0c2a\u0c3f \u0c1f\u0c3f\u0c2b\u0c3f\u0c28\u0c4d\u0c38\u0c4d"}}, {"type": "node", "id": 2710850786, "lat": 17.4417807, "lon": 78.4951618, "tags": {"amenity": "atm", "name": "SBI atm"}}, {"type": "node", "id": 2710979365, "lat": 17.4297701, "lon": 78.4872362}, {"type": "node", "id": 2710979367, "lat": 17.4295609, "lon": 78.4872472}, {"type": "node", "id": 2710979368, "lat": 17.4295907, "lon": 78.4871229}, {"type": "node", "id": 2710984727, "lat": 17.4367916, "lon": 78.4910386, "tags": {"amenity": "place_of_worship", "name": "Sri Ujjaini Mahankali Devasthanam", "religion": "hindu"}}, {"type": "node", "id": 2710991851, "lat": 17.4401265, "lon": 78.486189}, {"type": "node", "id": 2710991852, "lat": 17.4402289, "lon": 78.4867254}, {"type": "node", "id": 2710991853, "lat": 17.4392053, "lon": 78.4869186}, {"type": "node", "id": 2710991854, "lat": 17.4391848, "lon": 78.4862963}, {"type": "node", "id": 2791962057, "lat": 17.4365665, "lon": 78.4831508}, {"type": "node", "id": 2791962060, "lat": 17.4366445, "lon": 78.4831897}, {"type": "node", "id": 2791962076, "lat": 17.4374173, "lon": 78.4833935}, {"type": "node", "id": 2791962080, "lat": 17.4376017, "lon": 78.4829348}, {"type": "node", "id": 2791962082, "lat": 17.4376589, "lon": 78.4834667}, {"type": "node", "id": 2791962088, "lat": 17.4377234, "lon": 78.4821876}, {"type": "node", "id": 2791962095, "lat": 17.4378995, "lon": 78.4814901}, {"type": "node", "id": 2792122604, "lat": 17.4416817, "lon": 78.4818747}, {"type": "node", "id": 2792122606, "lat": 17.4416904, "lon": 78.4822558}, {"type": "node", "id": 2792122607, "lat": 17.4417021, "lon": 78.4814815}, {"type": "node", "id": 2792122615, "lat": 17.4418661, "lon": 78.4814508}, {"type": "node", "id": 2792122618, "lat": 17.4418798, "lon": 78.4809122}, {"type": "node", "id": 2794625656, "lat": 17.4411113, "lon": 78.48316}, {"type": "node", "id": 2794625659, "lat": 17.440875, "lon": 78.483131}, {"type": "node", "id": 2794625662, "lat": 17.4408465, "lon": 78.4833855}, {"type": "node", "id": 2794625664, "lat": 17.4410828, "lon": 78.4834146}, {"type": "node", "id": 2794648002, "lat": 17.443216, "lon": 78.4825249}, {"type": "node", "id": 2794648003, "lat": 17.4432249, "lon": 78.4808904}, {"type": "node", "id": 2794648004, "lat": 17.4419411, "lon": 78.4808538}, {"type": "node", "id": 2794648005, "lat": 17.4419412, "lon": 78.4809135}, {"type": "node", "id": 2794648008, "lat": 17.4426101, "lon": 78.4814695}, {"type": "node", "id": 2794648009, "lat": 17.4425449, "lon": 78.4824774}, {"type": "node", "id": 2794648010, "lat": 17.4430601, "lon": 78.4826043}, {"type": "node", "id": 2794664326, "lat": 17.4414612, "lon": 78.4869676}, {"type": "node", "id": 2794664327, "lat": 17.4414572, "lon": 78.4872007}, {"type": "node", "id": 2794664328, "lat": 17.4413161, "lon": 78.4872161}, {"type": "node", "id": 2794664329, "lat": 17.4413337, "lon": 78.4872685}, {"type": "node", "id": 2794664330, "lat": 17.4414866, "lon": 78.4873887}, {"type": "node", "id": 2794664331, "lat": 17.4417717, "lon": 78.4873733}, {"type": "node", "id": 2794664332, "lat": 17.4416277, "lon": 78.4874318}, {"type": "node", "id": 2794664334, "lat": 17.4415483, "lon": 78.4874318, "tags": {"amenity": "fast_food", "cuisine": "indian", "name": "Paradise Takeaway", "takeaway": "only"}}, {"type": "node", "id": 2794664335, "lat": 17.4419726, "lon": 78.4873391, "tags": {"amenity": "restaurant", "name": "Zam Zam Hotel"}}, {"type": "node", "id": 2794664336, "lat": 17.4418334, "lon": 78.4854476, "tags": {"amenity": "bank", "atm": "yes", "brand": "HDFC Bank", "brand:wikidata": "Q631047", "brand:wikipedia": "en:HDFC Bank", "name": "HDFC Bank", "short_name": "HDFC", "website": "https://www.hdfcbank.com"}}, {"type": "node", "id": 2794664337, "lat": 17.4420157, "lon": 78.4852905, "tags": {"amenity": "bar", "name": "Budget Bar"}}, {"type": "node", "id": 2794664339, "lat": 17.440247, "lon": 78.4854909, "tags": {"amenity": "atm", "name": "State Bank of Hyderabad (ATM)"}}, {"type": "node", "id": 2794745060, "lat": 17.4402139, "lon": 78.4817062, "tags": {"amenity": "atm", "name": "ICICI Bank (ATM)"}}, {"type": "node", "id": 2794745063, "lat": 17.4404871, "lon": 78.4819554, "tags": {"amenity": "pharmacy", "name": "Shalini Pharmacy"}}, {"type": "node", "id": 2794745066, "lat": 17.4401111, "lon": 78.4824751, "tags": {"amenity": "pharmacy", "name": "Bhavani Medical Stores"}}, {"type": "node", "id": 2794745076, "lat": 17.440072, "lon": 78.4836573, "tags": {"amenity": "fast_food", "name": "Hot Chips"}}, {"type": "node", "id": 2794877125, "lat": 17.4407095, "lon": 78.4900713, "tags": {"amenity": "atm", "name": "Corporation Bank"}}, {"type": "node", "id": 2859741870, "lat": 17.4240251, "lon": 78.503935}, {"type": "node", "id": 2859741871, "lat": 17.4240664, "lon": 78.5047199}, {"type": "node", "id": 2859741872, "lat": 17.4250924, "lon": 78.504757}, {"type": "node", "id": 2859741873, "lat": 17.4252693, "lon": 78.504207}, {"type": "node", "id": 2921460710, "lat": 17.4410924, "lon": 78.4930006}, {"type": "node", "id": 2921460711, "lat": 17.4411501, "lon": 78.493167}, {"type": "node", "id": 2921460712, "lat": 17.4414291, "lon": 78.4917552}, {"type": "node", "id": 2921460713, "lat": 17.4429685, "lon": 78.493515}, {"type": "node", "id": 2921460715, "lat": 17.443007, "lon": 78.4918157}, {"type": "node", "id": 3010555002, "lat": 17.4564567, "lon": 78.4987648, "tags": {"amenity": "bank", "atm": "yes", "brand": "HDFC Bank", "brand:wikidata": "Q631047", "brand:wikipedia": "en:HDFC Bank", "name": "HDFC Bank", "short_name": "HDFC", "website": "https://www.hdfcbank.com"}}, {"type": "node", "id": 3147189451, "lat": 17.4400747, "lon": 78.495429}, {"type": "node", "id": 3147189452, "lat": 17.4402108, "lon": 78.4956673}, {"type": "node", "id": 3182207744, "lat": 17.4364397, "lon": 78.482699}, {"type": "node", "id": 3182218374, "lat": 17.4378433, "lon": 78.4815322}, {"type": "node", "id": 3182222862, "lat": 17.4370821, "lon": 78.4833077}, {"type": "node", "id": 3191278264, "lat": 17.4297569, "lon": 78.4871142}, {"type": "node", "id": 3200943741, "lat": 17.4244702, "lon": 78.4917485, "tags": {"amenity": "fuel"}}, {"type": "node", "id": 3200948743, "lat": 17.4273842, "lon": 78.5018042, "tags": {"amenity": "fuel"}}, {"type": "node", "id": 3200948982, "lat": 17.4367067, "lon": 78.516726, "tags": {"amenity": "fuel", "name": "unigas"}}, {"type": "node", "id": 3200986133, "lat": 17.4245466, "lon": 78.4867774, "tags": {"amenity": "fountain"}}, {"type": "node", "id": 3200986817, "lat": 17.4251997, "lon": 78.4870378, "tags": {"amenity": "cafe"}}, {"type": "node", "id": 3200986902, "lat": 17.4251653, "lon": 78.4871679, "tags": {"amenity": "place_of_worship"}}, {"type": "node", "id": 3393374929, "lat": 17.4413866, "lon": 78.4919122}, {"type": "node", "id": 3485578427, "lat": 17.4405532, "lon": 78.4956244}, {"type": "node", "id": 3485578428, "lat": 17.440522, "lon": 78.4956927}, {"type": "node", "id": 3485578429, "lat": 17.4404652, "lon": 78.49566}, {"type": "node", "id": 3485578430, "lat": 17.4404964, "lon": 78.4955876}, {"type": "node", "id": 3485594751, "lat": 17.4504535, "lon": 78.4984533}, {"type": "node", "id": 3485594752, "lat": 17.4504527, "lon": 78.498686}, {"type": "node", "id": 3485594753, "lat": 17.450333, "lon": 78.4986907}, {"type": "node", "id": 3485594754, "lat": 17.4503394, "lon": 78.4984494}, {"type": "node", "id": 3485602743, "lat": 17.450794, "lon": 78.4980215}, {"type": "node", "id": 3485602744, "lat": 17.4509123, "lon": 78.4981632}, {"type": "node", "id": 3485602745, "lat": 17.4509467, "lon": 78.4981678}, {"type": "node", "id": 3485602746, "lat": 17.4509487, "lon": 78.4980413}, {"type": "node", "id": 3485621635, "lat": 17.4536418, "lon": 78.500622}, {"type": "node", "id": 3485621636, "lat": 17.4535583, "lon": 78.5007516}, {"type": "node", "id": 3485621637, "lat": 17.4534714, "lon": 78.5007008}, {"type": "node", "id": 3485621638, "lat": 17.453546, "lon": 78.5005625}, {"type": "node", "id": 3533084115, "lat": 17.4289946, "lon": 78.5120703, "tags": {"addr:district": "Hyderabad", "addr:full": "H. No: 11-4-523, Near Gandhi Statue and Chilkalguda Bus Stop, Chilkalguda, Secunderabad", "addr:postcode": "500025", "addr:state": "Telangana", "amenity": "hospital", "contact:email": "info@lifespring.in", "contact:phone": "+91 7893851613", "healthcare": "hospital", "name": "Life Spring Hospitals", "source": "OpenGovernmentData"}}, {"type": "node", "id": 3616810583, "lat": 17.4586918, "lon": 78.4998171}, {"type": "node", "id": 3616810590, "lat": 17.4587198, "lon": 78.499644}, {"type": "node", "id": 3616810622, "lat": 17.4588396, "lon": 78.4998434}, {"type": "node", "id": 3616810636, "lat": 17.4588676, "lon": 78.4996703}, {"type": "node", "id": 3617414879, "lat": 17.459562, "lon": 78.4909261}, {"type": "node", "id": 3617414881, "lat": 17.4595739, "lon": 78.4907788}, {"type": "node", "id": 3617415308, "lat": 17.4597374, "lon": 78.4909418}, {"type": "node", "id": 3617415313, "lat": 17.4597493, "lon": 78.4907944}, {"type": "node", "id": 3618839259, "lat": 17.4566372, "lon": 78.4921113}, {"type": "node", "id": 3618839266, "lat": 17.4567099, "lon": 78.4917838}, {"type": "node", "id": 3618839273, "lat": 17.4567404, "lon": 78.4920571}, {"type": "node", "id": 3618839281, "lat": 17.4567791, "lon": 78.4918887}, {"type": "node", "id": 3618839288, "lat": 17.4568012, "lon": 78.4921501}, {"type": "node", "id": 3618839292, "lat": 17.4568173, "lon": 78.4920753}, {"type": "node", "id": 3618839514, "lat": 17.4569807, "lon": 78.4919345}, {"type": "node", "id": 3618839517, "lat": 17.4569983, "lon": 78.4918493}, {"type": "node", "id": 3618962720, "lat": 17.4411012, "lon": 78.5043377}, {"type": "node", "id": 3618962732, "lat": 17.4411245, "lon": 78.5041274}, {"type": "node", "id": 3618962770, "lat": 17.4412309, "lon": 78.5043536}, {"type": "node", "id": 3618962778, "lat": 17.4412542, "lon": 78.5041432}, {"type": "node", "id": 3618963151, "lat": 17.4414164, "lon": 78.4973343}, {"type": "node", "id": 3618963164, "lat": 17.4414973, "lon": 78.4967979}, {"type": "node", "id": 3618963914, "lat": 17.4420799, "lon": 78.4974727}, {"type": "node", "id": 3618963919, "lat": 17.4421843, "lon": 78.4969024}, {"type": "node", "id": 3619028596, "lat": 17.4577351, "lon": 78.4933616}, {"type": "node", "id": 3619028599, "lat": 17.457753, "lon": 78.4931264}, {"type": "node", "id": 3619028602, "lat": 17.4578386, "lon": 78.4933702}, {"type": "node", "id": 3619028604, "lat": 17.4578564, "lon": 78.493135}, {"type": "node", "id": 3619511151, "lat": 17.4246408, "lon": 78.4911339, "tags": {"addr:city": "Secunderabad", "addr:unit": "Kavadiguda", "amenity": "bank", "atm": "yes", "name": "State Bank of India", "operator": "SBI"}}, {"type": "node", "id": 3619549990, "lat": 17.4349313, "lon": 78.5065075}, {"type": "node", "id": 3619550003, "lat": 17.4350139, "lon": 78.5067982}, {"type": "node", "id": 3619550048, "lat": 17.4354726, "lon": 78.5063385}, {"type": "node", "id": 3619550068, "lat": 17.4355552, "lon": 78.5066292}, {"type": "node", "id": 3619607032, "lat": 17.4360901, "lon": 78.4884287}, {"type": "node", "id": 3619607034, "lat": 17.4360997, "lon": 78.4882566}, {"type": "node", "id": 3619607044, "lat": 17.4363211, "lon": 78.488443}, {"type": "node", "id": 3619607045, "lat": 17.4363308, "lon": 78.4882709}, {"type": "node", "id": 3624601015, "lat": 17.4389054, "lon": 78.4982112}, {"type": "node", "id": 3624601016, "lat": 17.4388993, "lon": 78.4983044}, {"type": "node", "id": 3624601017, "lat": 17.439031, "lon": 78.4982202}, {"type": "node", "id": 3624601018, "lat": 17.4390249, "lon": 78.4983134}, {"type": "node", "id": 3624601039, "lat": 17.439918, "lon": 78.498165}, {"type": "node", "id": 3624601040, "lat": 17.439957, "lon": 78.4980232}, {"type": "node", "id": 3624601045, "lat": 17.4400296, "lon": 78.4982653}, {"type": "node", "id": 3624601046, "lat": 17.4400465, "lon": 78.4982039}, {"type": "node", "id": 3624601048, "lat": 17.4400747, "lon": 78.4980588}, {"type": "node", "id": 3624601050, "lat": 17.4400933, "lon": 78.497991}, {"type": "node", "id": 3624601058, "lat": 17.4402084, "lon": 78.4983194}, {"type": "node", "id": 3624601063, "lat": 17.4402829, "lon": 78.4980483}, {"type": "node", "id": 3624642227, "lat": 17.4267026, "lon": 78.5160813}, {"type": "node", "id": 3624642228, "lat": 17.4267037, "lon": 78.5161365}, {"type": "node", "id": 3624642231, "lat": 17.4267215, "lon": 78.5161288}, {"type": "node", "id": 3624642247, "lat": 17.4267516, "lon": 78.5162572}, {"type": "node", "id": 3624642251, "lat": 17.426758, "lon": 78.5160276}, {"type": "node", "id": 3624642256, "lat": 17.4267657, "lon": 78.5162511}, {"type": "node", "id": 3624642258, "lat": 17.426768, "lon": 78.5160527}, {"type": "node", "id": 3624642266, "lat": 17.426791, "lon": 78.5163147}, {"type": "node", "id": 3624642297, "lat": 17.4268586, "lon": 78.5159837}, {"type": "node", "id": 3624642304, "lat": 17.4268696, "lon": 78.5160113}, {"type": "node", "id": 3624642325, "lat": 17.4269029, "lon": 78.5162341}, {"type": "node", "id": 3624642329, "lat": 17.4269137, "lon": 78.5162611}, {"type": "node", "id": 3624642395, "lat": 17.427074, "lon": 78.5159221}, {"type": "node", "id": 3624642425, "lat": 17.4271543, "lon": 78.5161244}, {"type": "node", "id": 3624691519, "lat": 17.4404466, "lon": 78.4859754}, {"type": "node", "id": 3624691532, "lat": 17.4405578, "lon": 78.4862098}, {"type": "node", "id": 3624691538, "lat": 17.4406209, "lon": 78.4858919}, {"type": "node", "id": 3624691563, "lat": 17.440743, "lon": 78.4861721}, {"type": "node", "id": 3624692073, "lat": 17.4414062, "lon": 78.4865667}, {"type": "node", "id": 3624692074, "lat": 17.4414088, "lon": 78.486353}, {"type": "node", "id": 3624692083, "lat": 17.441446, "lon": 78.4863535}, {"type": "node", "id": 3624692084, "lat": 17.4414467, "lon": 78.4862911}, {"type": "node", "id": 3624692091, "lat": 17.4414996, "lon": 78.4862918}, {"type": "node", "id": 3624692092, "lat": 17.4415005, "lon": 78.4862205}, {"type": "node", "id": 3624692297, "lat": 17.4415609, "lon": 78.4865688}, {"type": "node", "id": 3624692298, "lat": 17.4415627, "lon": 78.4864147}, {"type": "node", "id": 3624692313, "lat": 17.4417456, "lon": 78.4864172}, {"type": "node", "id": 3624692314, "lat": 17.441748, "lon": 78.4862238}, {"type": "node", "id": 3624692365, "lat": 17.4461423, "lon": 78.4857148}, {"type": "node", "id": 3624692367, "lat": 17.4461626, "lon": 78.4858557}, {"type": "node", "id": 3624692374, "lat": 17.446253, "lon": 78.4858043}, {"type": "node", "id": 3624692375, "lat": 17.4462582, "lon": 78.4858406}, {"type": "node", "id": 3624692390, "lat": 17.4463407, "lon": 78.4857904}, {"type": "node", "id": 3624692392, "lat": 17.4463533, "lon": 78.4858776}, {"type": "node", "id": 3624692704, "lat": 17.4464761, "lon": 78.4858581}, {"type": "node", "id": 3624692705, "lat": 17.4464806, "lon": 78.4858896}, {"type": "node", "id": 3624692717, "lat": 17.4466945, "lon": 78.4858558}, {"type": "node", "id": 3624692720, "lat": 17.4466975, "lon": 78.4858769}, {"type": "node", "id": 3624692732, "lat": 17.4467553, "lon": 78.4856178}, {"type": "node", "id": 3624692736, "lat": 17.4467904, "lon": 78.4858622}, {"type": "node", "id": 3624694434, "lat": 17.4554642, "lon": 78.4829116}, {"type": "node", "id": 3624694435, "lat": 17.4554655, "lon": 78.4828256}, {"type": "node", "id": 3624694438, "lat": 17.4554706, "lon": 78.4829127}, {"type": "node", "id": 3624694442, "lat": 17.4554867, "lon": 78.4830002}, {"type": "node", "id": 3624694444, "lat": 17.455488, "lon": 78.482913}, {"type": "node", "id": 3624694461, "lat": 17.4555641, "lon": 78.4828434}, {"type": "node", "id": 3624694465, "lat": 17.4555724, "lon": 78.4829936}, {"type": "node", "id": 3652228398, "lat": 17.4443109, "lon": 78.4987676}, {"type": "node", "id": 3652228414, "lat": 17.4443773, "lon": 78.498435}, {"type": "node", "id": 3652228416, "lat": 17.4444515, "lon": 78.4987985}, {"type": "node", "id": 3652228418, "lat": 17.4445179, "lon": 78.4984659}, {"type": "node", "id": 3653736746, "lat": 17.443661, "lon": 78.4987084}, {"type": "node", "id": 3653736755, "lat": 17.44372, "lon": 78.4984969}, {"type": "node", "id": 3653736768, "lat": 17.4437918, "lon": 78.4984828}, {"type": "node", "id": 3653736775, "lat": 17.4438908, "lon": 78.4984676}, {"type": "node", "id": 3653736784, "lat": 17.4441044, "lon": 78.498902}, {"type": "node", "id": 3653736798, "lat": 17.4441748, "lon": 78.4984535}, {"type": "node", "id": 3654090579, "lat": 17.4462768, "lon": 78.4956733}, {"type": "node", "id": 3654090580, "lat": 17.4464443, "lon": 78.4958278}, {"type": "node", "id": 3654090581, "lat": 17.4465039, "lon": 78.4957568}, {"type": "node", "id": 3654090582, "lat": 17.4465515, "lon": 78.4953461}, {"type": "node", "id": 3654090583, "lat": 17.4465704, "lon": 78.4958181}, {"type": "node", "id": 3654090586, "lat": 17.4467855, "lon": 78.495562}, {"type": "node", "id": 3654091826, "lat": 17.4511472, "lon": 78.4960864}, {"type": "node", "id": 3655193068, "lat": 17.4401606, "lon": 78.4976879}, {"type": "node", "id": 3655193071, "lat": 17.4401869, "lon": 78.4971182}, {"type": "node", "id": 3655193075, "lat": 17.4402251, "lon": 78.4974368}, {"type": "node", "id": 3655193081, "lat": 17.4402523, "lon": 78.4969569}, {"type": "node", "id": 3655193099, "lat": 17.4403352, "lon": 78.4977372}, {"type": "node", "id": 3655193114, "lat": 17.4403997, "lon": 78.497486}, {"type": "node", "id": 3655194041, "lat": 17.4405223, "lon": 78.4972677}, {"type": "node", "id": 3655194060, "lat": 17.4405877, "lon": 78.4971065}, {"type": "node", "id": 3655194661, "lat": 17.4489638, "lon": 78.4930947}, {"type": "node", "id": 3655194664, "lat": 17.4490588, "lon": 78.4928975}, {"type": "node", "id": 3655194671, "lat": 17.4490345, "lon": 78.49323}, {"type": "node", "id": 3655194674, "lat": 17.4493436, "lon": 78.4936872}, {"type": "node", "id": 3655194679, "lat": 17.4499508, "lon": 78.4938061}, {"type": "node", "id": 3655194680, "lat": 17.450025, "lon": 78.4933005}, {"type": "node", "id": 3655369027, "lat": 17.441767, "lon": 78.5041126}, {"type": "node", "id": 3655369029, "lat": 17.441783, "lon": 78.5037008}, {"type": "node", "id": 3655369039, "lat": 17.4419305, "lon": 78.5041196}, {"type": "node", "id": 3655369040, "lat": 17.4419317, "lon": 78.5040883}, {"type": "node", "id": 3655369061, "lat": 17.4420672, "lon": 78.5040941}, {"type": "node", "id": 3655369064, "lat": 17.4420821, "lon": 78.5037136}, {"type": "node", "id": 3658594093, "lat": 17.4468051, "lon": 78.4956624}, {"type": "node", "id": 3658594095, "lat": 17.4468186, "lon": 78.4951489}, {"type": "node", "id": 3658594100, "lat": 17.4468816, "lon": 78.4951507}, {"type": "node", "id": 3658594101, "lat": 17.4468841, "lon": 78.4950546}, {"type": "node", "id": 3658594102, "lat": 17.4469016, "lon": 78.4954001}, {"type": "node", "id": 3658594103, "lat": 17.4469037, "lon": 78.4953173}, {"type": "node", "id": 3658594110, "lat": 17.4470402, "lon": 78.4956692}, {"type": "node", "id": 3658594112, "lat": 17.4470472, "lon": 78.4954043}, {"type": "node", "id": 3658594114, "lat": 17.4470493, "lon": 78.4953215}, {"type": "node", "id": 3658594115, "lat": 17.4470562, "lon": 78.4950595}, {"type": "node", "id": 3658594192, "lat": 17.4477594, "lon": 78.4930366}, {"type": "node", "id": 3658594208, "lat": 17.4479409, "lon": 78.4925711}, {"type": "node", "id": 3658594218, "lat": 17.4480068, "lon": 78.4932867}, {"type": "node", "id": 3658594226, "lat": 17.4480687, "lon": 78.4931745}, {"type": "node", "id": 3658594230, "lat": 17.4480863, "lon": 78.4932058}, {"type": "node", "id": 3658594233, "lat": 17.4481194, "lon": 78.4932378}, {"type": "node", "id": 3658594237, "lat": 17.4481454, "lon": 78.493036}, {"type": "node", "id": 3658594238, "lat": 17.4481566, "lon": 78.493459}, {"type": "node", "id": 3658594241, "lat": 17.4481617, "lon": 78.4931901}, {"type": "node", "id": 3658594246, "lat": 17.4481922, "lon": 78.4926787}, {"type": "node", "id": 3658594247, "lat": 17.4481996, "lon": 78.4931362}, {"type": "node", "id": 3658594251, "lat": 17.44822, "lon": 78.4926075}, {"type": "node", "id": 3658594252, "lat": 17.4482245, "lon": 78.4930603}, {"type": "node", "id": 3658594254, "lat": 17.4482478, "lon": 78.4927136}, {"type": "node", "id": 3658594258, "lat": 17.4482793, "lon": 78.4926329}, {"type": "node", "id": 3658594262, "lat": 17.4483844, "lon": 78.4930746}, {"type": "node", "id": 3658594266, "lat": 17.4484757, "lon": 78.493156}, {"type": "node", "id": 3658643016, "lat": 17.4571648, "lon": 78.4955781}, {"type": "node", "id": 3658643017, "lat": 17.4572739, "lon": 78.4955214}, {"type": "node", "id": 3658643018, "lat": 17.4572646, "lon": 78.4957888}, {"type": "node", "id": 3658643125, "lat": 17.4573737, "lon": 78.495732}, {"type": "node", "id": 3659715181, "lat": 17.4344768, "lon": 78.5008386}, {"type": "node", "id": 3659715182, "lat": 17.4344911, "lon": 78.5005875}, {"type": "node", "id": 3659715183, "lat": 17.4346905, "lon": 78.5008519}, {"type": "node", "id": 3659715184, "lat": 17.4347048, "lon": 78.5006008}, {"type": "node", "id": 3661096838, "lat": 17.440825, "lon": 78.4866628}, {"type": "node", "id": 3661096839, "lat": 17.4409178, "lon": 78.4866284}, {"type": "node", "id": 3661096840, "lat": 17.4409471, "lon": 78.4868689}, {"type": "node", "id": 3661096845, "lat": 17.4410725, "lon": 78.4870082}, {"type": "node", "id": 3661096847, "lat": 17.4410992, "lon": 78.4870441}, {"type": "node", "id": 3661096850, "lat": 17.44127, "lon": 78.4871931}, {"type": "node", "id": 3661096852, "lat": 17.4413696, "lon": 78.4871264}, {"type": "node", "id": 3661096853, "lat": 17.441438, "lon": 78.4869486}, {"type": "node", "id": 3661096854, "lat": 17.4414447, "lon": 78.4871264}, {"type": "node", "id": 3661096855, "lat": 17.4415047, "lon": 78.4869277}, {"type": "node", "id": 3661096856, "lat": 17.4415053, "lon": 78.4869472}, {"type": "node", "id": 3661096857, "lat": 17.4415134, "lon": 78.4866808}, {"type": "node", "id": 3661096858, "lat": 17.4415211, "lon": 78.4869279}, {"type": "node", "id": 3661096859, "lat": 17.4415841, "lon": 78.4869666}, {"type": "node", "id": 3661096860, "lat": 17.4415843, "lon": 78.4869952}, {"type": "node", "id": 3661096861, "lat": 17.4416208, "lon": 78.486995}, {"type": "node", "id": 3661096862, "lat": 17.4416209, "lon": 78.4870111}, {"type": "node", "id": 3661096863, "lat": 17.4417731, "lon": 78.4870099}, {"type": "node", "id": 3662779513, "lat": 17.456691, "lon": 78.4951964}, {"type": "node", "id": 3662779514, "lat": 17.4566799, "lon": 78.4954442}, {"type": "node", "id": 3662779515, "lat": 17.4563976, "lon": 78.4954302}, {"type": "node", "id": 3662779516, "lat": 17.4564088, "lon": 78.4951824}, {"type": "node", "id": 3681791850, "lat": 17.4376497, "lon": 78.4827504}, {"type": "node", "id": 3681791856, "lat": 17.4377009, "lon": 78.4822656}, {"type": "node", "id": 3947022829, "lat": 17.4376074, "lon": 78.483926}, {"type": "node", "id": 3947022830, "lat": 17.4376142, "lon": 78.4837038}, {"type": "node", "id": 3947022834, "lat": 17.4378748, "lon": 78.4837119}, {"type": "node", "id": 3947022835, "lat": 17.4378757, "lon": 78.4839306}, {"type": "node", "id": 3947022839, "lat": 17.4400399, "lon": 78.4838161}, {"type": "node", "id": 3947022840, "lat": 17.4400455, "lon": 78.4836922}, {"type": "node", "id": 3947022841, "lat": 17.4402442, "lon": 78.4838253}, {"type": "node", "id": 3947022842, "lat": 17.4402486, "lon": 78.4837027}, {"type": "node", "id": 4123648934, "lat": 17.4311283, "lon": 78.5131637}, {"type": "node", "id": 4123648935, "lat": 17.4313314, "lon": 78.512712}, {"type": "node", "id": 4123648937, "lat": 17.431363, "lon": 78.5132708}, {"type": "node", "id": 4123648944, "lat": 17.4315536, "lon": 78.5128348}, {"type": "node", "id": 4142413037, "lat": 17.429394, "lon": 78.5122349}, {"type": "node", "id": 4142413040, "lat": 17.4294075, "lon": 78.5121818}, {"type": "node", "id": 4142413053, "lat": 17.4294928, "lon": 78.5122625}, {"type": "node", "id": 4142413059, "lat": 17.4295063, "lon": 78.5122094}, {"type": "node", "id": 4146007084, "lat": 17.4387847, "lon": 78.4987364}, {"type": "node", "id": 4146007191, "lat": 17.438834, "lon": 78.4985547}, {"type": "node", "id": 4146007201, "lat": 17.4388915, "lon": 78.4987682}, {"type": "node", "id": 4146007203, "lat": 17.4389407, "lon": 78.4985865}, {"type": "node", "id": 4146007233, "lat": 17.439599, "lon": 78.4979234}, {"type": "node", "id": 4146007235, "lat": 17.4398288, "lon": 78.4980258}, {"type": "node", "id": 4146007239, "lat": 17.4394916, "lon": 78.498188}, {"type": "node", "id": 4146007241, "lat": 17.4397215, "lon": 78.4982904}, {"type": "node", "id": 4146119497, "lat": 17.4406307, "lon": 78.489065}, {"type": "node", "id": 4146119498, "lat": 17.4406336, "lon": 78.4891383}, {"type": "node", "id": 4146119509, "lat": 17.4406793, "lon": 78.4890642}, {"type": "node", "id": 4146185285, "lat": 17.4407129, "lon": 78.4903709}, {"type": "node", "id": 4146185286, "lat": 17.4407299, "lon": 78.4902416}, {"type": "node", "id": 4146188491, "lat": 17.4407876, "lon": 78.4903817}, {"type": "node", "id": 4146188493, "lat": 17.4407912, "lon": 78.4903548}, {"type": "node", "id": 4146188495, "lat": 17.4408306, "lon": 78.4903605}, {"type": "node", "id": 4146188499, "lat": 17.4408441, "lon": 78.4902581}, {"type": "node", "id": 4146434972, "lat": 17.440926, "lon": 78.5008028}, {"type": "node", "id": 4146434975, "lat": 17.4409522, "lon": 78.5006144}, {"type": "node", "id": 4146434994, "lat": 17.4412203, "lon": 78.5008477}, {"type": "node", "id": 4146434995, "lat": 17.4412465, "lon": 78.5006593}, {"type": "node", "id": 4146479964, "lat": 17.4399864, "lon": 78.4977331}, {"type": "node", "id": 4146479965, "lat": 17.4400065, "lon": 78.4976718}, {"type": "node", "id": 4146479975, "lat": 17.4401054, "lon": 78.497776}, {"type": "node", "id": 4146479976, "lat": 17.4401255, "lon": 78.4977148}, {"type": "node", "id": 4146795959, "lat": 17.4420125, "lon": 78.5023027}, {"type": "node", "id": 4146795960, "lat": 17.4420142, "lon": 78.5022431}, {"type": "node", "id": 4146795962, "lat": 17.4420331, "lon": 78.5023203}, {"type": "node", "id": 4146795963, "lat": 17.4420335, "lon": 78.5023034}, {"type": "node", "id": 4146795964, "lat": 17.4420338, "lon": 78.502171}, {"type": "node", "id": 4146795966, "lat": 17.4422464, "lon": 78.5021776}, {"type": "node", "id": 4146795969, "lat": 17.4422477, "lon": 78.5023269}, {"type": "node", "id": 4146795970, "lat": 17.442249, "lon": 78.5020841}, {"type": "node", "id": 4146795973, "lat": 17.4423273, "lon": 78.5021725}, {"type": "node", "id": 4146795975, "lat": 17.4423267, "lon": 78.5023293}, {"type": "node", "id": 4146795976, "lat": 17.4423298, "lon": 78.5020866}, {"type": "node", "id": 4146795979, "lat": 17.4423846, "lon": 78.5021936}, {"type": "node", "id": 4146795980, "lat": 17.4423851, "lon": 78.5021742}, {"type": "node", "id": 4146795983, "lat": 17.4425192, "lon": 78.5023352}, {"type": "node", "id": 4146795984, "lat": 17.442523, "lon": 78.5021978}, {"type": "node", "id": 4148327367, "lat": 17.4393543, "lon": 78.4938563}, {"type": "node", "id": 4148327368, "lat": 17.4393769, "lon": 78.4937519}, {"type": "node", "id": 4148327370, "lat": 17.4393847, "lon": 78.4937545}, {"type": "node", "id": 4148327371, "lat": 17.4394003, "lon": 78.4938714}, {"type": "node", "id": 4148327372, "lat": 17.4394106, "lon": 78.4936388}, {"type": "node", "id": 4148327374, "lat": 17.4394234, "lon": 78.4936429}, {"type": "node", "id": 4148327377, "lat": 17.4394383, "lon": 78.4935929}, {"type": "node", "id": 4148327380, "lat": 17.4394643, "lon": 78.4936569}, {"type": "node", "id": 4148327389, "lat": 17.4395346, "lon": 78.4936799}, {"type": "node", "id": 4148327390, "lat": 17.4395497, "lon": 78.4936295}, {"type": "node", "id": 4148792617, "lat": 17.4363596, "lon": 78.4889873}, {"type": "node", "id": 4148792627, "lat": 17.4363789, "lon": 78.4888418}, {"type": "node", "id": 4148792644, "lat": 17.4364212, "lon": 78.4889963}, {"type": "node", "id": 4148792655, "lat": 17.4364405, "lon": 78.4888508}, {"type": "node", "id": 4148957361, "lat": 17.4352557, "lon": 78.493343}, {"type": "node", "id": 4148957372, "lat": 17.4352858, "lon": 78.493158}, {"type": "node", "id": 4148957388, "lat": 17.4353533, "lon": 78.4933605}, {"type": "node", "id": 4148957397, "lat": 17.4353834, "lon": 78.4931754}, {"type": "node", "id": 4151251715, "lat": 17.4249993, "lon": 78.5147416}, {"type": "node", "id": 4151251716, "lat": 17.425024, "lon": 78.5145987}, {"type": "node", "id": 4151251717, "lat": 17.4250918, "lon": 78.5147591}, {"type": "node", "id": 4151251718, "lat": 17.4251165, "lon": 78.5146163}, {"type": "node", "id": 4187300504, "lat": 17.4395483, "lon": 78.5048737, "tags": {"addr:district": "Hyderabad", "addr:full": "Pollicetty Towers, St.John's Road, Bhagyanagar Colony, Beside Keyes High School, Secunderabad", "addr:postcode": "500003", "addr:state": "Telangana", "amenity": "hospital", "emergency": "yes", "healthcare": "hospital", "medical_system": "Allopathic", "name": "Apollo Hospital", "operator:type": "private", "phone": "040 27718888", "source": "OpenGovernmentData", "website": "https://www.apollohospitals.com"}}, {"type": "node", "id": 4187311996, "lat": 17.4412403, "lon": 78.5006168, "tags": {"amenity": "bank"}}, {"type": "node", "id": 4196826121, "lat": 17.4405743, "lon": 78.485778, "tags": {"amenity": "restaurant", "cuisine": "South_Indian", "name": "Anand Bhavan", "name:te": "\u0c06\u0c28\u0c02\u0c26\u0c4d \u0c2d\u0c35\u0c28\u0c4d", "smoking": "outside", "takeaway": "yes"}}, {"type": "node", "id": 4196826123, "lat": 17.4409028, "lon": 78.4859077, "tags": {"amenity": "restaurant", "cuisine": "south_Indian", "name": "Rang Rasiya", "name:te": "\u0c30\u0c02\u0c17\u0c4d \u0c30\u0c38\u0c3f\u0c2f\u0c3e", "phone": "+91 9912227868", "smoking": "no", "takeaway": "yes"}}, {"type": "node", "id": 4225073689, "lat": 17.4413935, "lon": 78.4979088, "tags": {"amenity": "bank", "atm": "yes", "brand": "ICICI Bank", "brand:wikidata": "Q1653258", "brand:wikipedia": "en:ICICI Bank", "description": "Secunderabad Branch", "name": "ICICI Bank", "name:en": "ICICI Bank", "short_name": "ICICI", "website": "https://www.icicibank.com"}}, {"type": "node", "id": 4225073691, "lat": 17.4416635, "lon": 78.4982768, "tags": {"amenity": "bar", "name": "Madhushala Bar", "outdoor_seating": "no"}}, {"type": "node", "id": 4225073694, "lat": 17.4405548, "lon": 78.4977456, "tags": {"amenity": "bank", "brand": "State Bank of India", "brand:wikidata": "Q1340361", "brand:wikipedia": "en:State Bank of India", "name": "State Bank of India", "name:te": "\u0c38\u0c4d\u0c1f\u0c47\u0c1f\u0c4d \u0c2c\u0c4d\u0c2f\u0c3e\u0c02\u0c15\u0c4d \u0c05\u0c2b\u0c4d \u0c07\u0c02\u0c21\u0c3f\u0c2f\u0c3e", "short_name": "SBI"}}, {"type": "node", "id": 4303556591, "lat": 17.4360262, "lon": 78.4909597, "tags": {"addr:city": "Secunderabad", "addr:postcode": "500003", "addr:street": "Subash Road", "amenity": "police", "name": "Mahankali Police Station", "name:te": "\u0c2e\u0c39\u0c3e\u0c02\u0c15\u0c3e\u0c02\u0c32\u0c3f \u0c2a\u0c4b\u0c32\u0c40\u0c38\u0c4d \u0c38\u0c4d\u0c1f\u0c47\u0c37\u0c28\u0c4d"}}, {"type": "node", "id": 4416333791, "lat": 17.432773, "lon": 78.4929081, "tags": {"amenity": "fuel", "name": "petrol bunk", "name:en": "petrol bunk"}}, {"type": "node", "id": 4576708789, "lat": 17.4414309, "lon": 78.4906151, "tags": {"amenity": "pub", "name": "SP road Secunderabad pub", "name:en": "SP road Secunderabad pub"}}, {"type": "node", "id": 4609043303, "lat": 17.4409844, "lon": 78.4875751, "tags": {"amenity": "toilets"}}, {"type": "node", "id": 4614088290, "lat": 17.44104, "lon": 78.4869806, "tags": {"highway": "emergency_access_point", "name": "Accidents & Emergency"}}, {"type": "node", "id": 4614088291, "lat": 17.4411877, "lon": 78.4869447}, {"type": "node", "id": 4614088292, "lat": 17.4413417, "lon": 78.4870986}, {"type": "node", "id": 4614088293, "lat": 17.4411636, "lon": 78.4869206}, {"type": "node", "id": 4614088294, "lat": 17.4409723, "lon": 78.4866864}, {"type": "node", "id": 4614088300, "lat": 17.441481, "lon": 78.4879056, "tags": {"amenity": "fast_food", "name": "Dadu's", "name:te": "\u0c26\u0c3e\u0c26\u0c42\u0c38\u0c4d"}}, {"type": "node", "id": 4614309652, "lat": 17.4406542, "lon": 78.4806992, "tags": {"amenity": "bank", "atm": "yes", "branch": "Sindhi Colony", "brand": "ICICI", "brand:wikidata": "Q1653258", "name": "ICICI Bank", "name:en": "ICICI Bank", "short_name": "ICICI", "website": "https://www.icicibank.com", "wikidata": "Q1653258", "wikipedia": "en:ICICI Bank"}}, {"type": "node", "id": 4614310917, "lat": 17.440538, "lon": 78.4817501, "tags": {"amenity": "cafe", "name": "Cafe Coffee Day"}}, {"type": "node", "id": 4614311068, "lat": 17.4411766, "lon": 78.4821203, "tags": {"amenity": "bank", "atm": "yes", "brand:wikidata": "Q2003476", "brand:wikipedia": "en:Andhra Bank", "name": "Andhra Bank", "name:en": "Andhra Bank", "website": "https://www.andhrabank.in"}}, {"type": "node", "id": 4614311148, "lat": 17.440592, "lon": 78.4820593, "tags": {"amenity": "restaurant", "name": "Om Siddhi Vinayak Tiffin Centre"}}, {"type": "node", "id": 4614311149, "lat": 17.4402511, "lon": 78.4820918, "tags": {"amenity": "fast_food", "name": "San's Pizza Den"}}, {"type": "node", "id": 4614311308, "lat": 17.4406414, "lon": 78.4808181, "tags": {"amenity": "bank", "atm": "yes", "branch": "Sindhi Colony", "brand": "SBI", "brand:wikidata": "Q1340361", "brand:wikipedia": "en:State Bank of India", "name": "State Bank of India", "short_name": "SBI"}}, {"type": "node", "id": 4614311310, "lat": 17.4402864, "lon": 78.4797682, "tags": {"amenity": "pharmacy", "name": "Kamakshi Medicals"}}, {"type": "node", "id": 4614442637, "lat": 17.4398266, "lon": 78.4841159, "tags": {"amenity": "clinic", "name": "Dr Mirchandani"}}, {"type": "node", "id": 4615616804, "lat": 17.4402612, "lon": 78.4801574}, {"type": "node", "id": 4615616805, "lat": 17.4402693, "lon": 78.4802505}, {"type": "node", "id": 4615616806, "lat": 17.4403688, "lon": 78.4802409}, {"type": "node", "id": 4615616807, "lat": 17.4403607, "lon": 78.4801479}, {"type": "node", "id": 4615639506, "lat": 17.4430496, "lon": 78.4830973, "tags": {"amenity": "place_of_worship", "name": "Veer Hanuman Temple", "religion": "hindu"}}, {"type": "node", "id": 4616437274, "lat": 17.4418737, "lon": 78.5021432, "tags": {"amenity": "place_of_worship", "denomination": "catholic", "name": "Divine Mercy Adoration Chapel", "religion": "christian"}}, {"type": "node", "id": 4616439356, "lat": 17.4420317, "lon": 78.5022436}, {"type": "node", "id": 4695120289, "lat": 17.4591464, "lon": 78.494254, "tags": {"amenity": "community_centre", "internet_access": "wlan", "name": "Gunrock Enclave Community Center", "name:en": "Gunrock Enclave Community Center"}}, {"type": "node", "id": 4715099192, "lat": 17.4439091, "lon": 78.5043433, "tags": {"addr:district": "Hyderabad", "addr:full": "241, Uma Plaza, Road No. 9, West Maredpally, Secunderabad", "addr:postcode": "500026", "addr:state": "Telangana", "alt_name": "Pushpagiri Vitreo Retinal Institute", "amenity": "hospital", "contact:email": "pvri.india@gmail.com", "contact:phone": "040-27804949/5959", "healthcare": "hospital", "name": "Pushpagiri Eye Institute", "shop": "optician", "source": "OpenGovernmentData", "website": "https://pvri.org"}}, {"type": "node", "id": 4914585975, "lat": 17.4334742, "lon": 78.4969684}, {"type": "node", "id": 4914585976, "lat": 17.4334588, "lon": 78.4971213}, {"type": "node", "id": 4914585977, "lat": 17.4334895, "lon": 78.4973413}, {"type": "node", "id": 4914585978, "lat": 17.4339169, "lon": 78.4973198}, {"type": "node", "id": 4914585979, "lat": 17.434183, "lon": 78.4972769}, {"type": "node", "id": 4914585980, "lat": 17.434618, "lon": 78.4970409}, {"type": "node", "id": 4914585981, "lat": 17.4347818, "lon": 78.4967807}, {"type": "node", "id": 4914585982, "lat": 17.4346871, "lon": 78.4965795}, {"type": "node", "id": 4914585983, "lat": 17.4348816, "lon": 78.4965017}, {"type": "node", "id": 4914585984, "lat": 17.4349584, "lon": 78.4965178}, {"type": "node", "id": 4914585985, "lat": 17.4349942, "lon": 78.4962469}, {"type": "node", "id": 4914585986, "lat": 17.4348202, "lon": 78.4962711}, {"type": "node", "id": 4914585987, "lat": 17.4337608, "lon": 78.4961396}, {"type": "node", "id": 4914585999, "lat": 17.4331722, "lon": 78.5044464}, {"type": "node", "id": 4914586000, "lat": 17.4329649, "lon": 78.5036311}, {"type": "node", "id": 4914586001, "lat": 17.4327397, "lon": 78.5036927}, {"type": "node", "id": 4914586010, "lat": 17.4344354, "lon": 78.502183}, {"type": "node", "id": 4914586011, "lat": 17.4343903, "lon": 78.5021424}, {"type": "node", "id": 4914586012, "lat": 17.4342572, "lon": 78.5015818}, {"type": "node", "id": 4914586013, "lat": 17.4341062, "lon": 78.5012392}, {"type": "node", "id": 4914586014, "lat": 17.4341235, "lon": 78.5020398}, {"type": "node", "id": 4914586015, "lat": 17.4344184, "lon": 78.5022631}, {"type": "node", "id": 4914586016, "lat": 17.4344696, "lon": 78.5020217}, {"type": "node", "id": 4914586017, "lat": 17.4343161, "lon": 78.5014129}, {"type": "node", "id": 4914586018, "lat": 17.4342291, "lon": 78.5012358}, {"type": "node", "id": 4914586019, "lat": 17.4340071, "lon": 78.5013156}, {"type": "node", "id": 4914586020, "lat": 17.4339693, "lon": 78.5014263}, {"type": "node", "id": 4952633421, "lat": 17.4551627, "lon": 78.5088274, "tags": {"addr:housenumber": "8A", "addr:postcode": "500026", "addr:street": "Santoshima Colony", "amenity": "car_rental", "email": "info@cabulo.in", "internet_access": "wlan", "name": "Cabulo", "name:en": "Cabulo", "opening_hours": "24/7", "operator": "Durga Prasad", "phone": "8886555337", "website": "https://www.cabulo.in/"}}, {"type": "node", "id": 5072821279, "lat": 17.4254695, "lon": 78.4866729}, {"type": "node", "id": 5072821280, "lat": 17.4253748, "lon": 78.4871531}, {"type": "node", "id": 5072821281, "lat": 17.4253134, "lon": 78.4875044}, {"type": "node", "id": 5072821282, "lat": 17.4252391, "lon": 78.4878719}, {"type": "node", "id": 5072821283, "lat": 17.4250811, "lon": 78.4886653, "tags": {"name": "Kavadiguda X Roads"}}, {"type": "node", "id": 5072821284, "lat": 17.4264906, "lon": 78.4869787}, {"type": "node", "id": 5072821285, "lat": 17.4255258, "lon": 78.4864611}, {"type": "node", "id": 5072821286, "lat": 17.4261502, "lon": 78.4881294}, {"type": "node", "id": 5072821287, "lat": 17.4256729, "lon": 78.4894504}, {"type": "node", "id": 5199965768, "lat": 17.4381129, "lon": 78.5096602}, {"type": "node", "id": 5199965769, "lat": 17.4381016, "lon": 78.50962}, {"type": "node", "id": 5199965770, "lat": 17.4380782, "lon": 78.509586}, {"type": "node", "id": 5199965771, "lat": 17.4380454, "lon": 78.509562}, {"type": "node", "id": 5199965772, "lat": 17.4380068, "lon": 78.5095508}, {"type": "node", "id": 5199965773, "lat": 17.4379669, "lon": 78.5095535}, {"type": "node", "id": 5199965774, "lat": 17.437933, "lon": 78.5097817}, {"type": "node", "id": 5199965775, "lat": 17.4379681, "lon": 78.5097965}, {"type": "node", "id": 5199965776, "lat": 17.4380058, "lon": 78.5097991}, {"type": "node", "id": 5199965777, "lat": 17.4380424, "lon": 78.5097892}, {"type": "node", "id": 5199965778, "lat": 17.4380742, "lon": 78.5097677}, {"type": "node", "id": 5199965779, "lat": 17.438098, "lon": 78.5097369}, {"type": "node", "id": 5199965780, "lat": 17.4379302, "lon": 78.50957}, {"type": "node", "id": 5199965781, "lat": 17.4379007, "lon": 78.5095983}, {"type": "node", "id": 5199965782, "lat": 17.4378818, "lon": 78.5096352}, {"type": "node", "id": 5199965783, "lat": 17.4378756, "lon": 78.5096766}, {"type": "node", "id": 5199965784, "lat": 17.4378829, "lon": 78.5097179}, {"type": "node", "id": 5199965785, "lat": 17.4379028, "lon": 78.5097542}, {"type": "node", "id": 5199965786, "lat": 17.4381113, "lon": 78.5096998}, {"type": "node", "id": 5220057980, "lat": 17.4566207, "lon": 78.4839582, "tags": {"amenity": "bank", "atm": "yes", "name": "ICICI Bank"}}, {"type": "node", "id": 5289026745, "lat": 17.4415788, "lon": 78.5005956, "tags": {"amenity": "fuel", "brand": "Bharat Petroleum", "brand:wikidata": "Q854826", "brand:wikipedia": "en:Bharat Petroleum", "name": "Bharat Petroleum"}}, {"type": "node", "id": 5289033245, "lat": 17.4389161, "lon": 78.5031436, "tags": {"amenity": "school", "name": "St. Mary's High School"}}, {"type": "node", "id": 5289289911, "lat": 17.4412304, "lon": 78.5005384, "tags": {"amenity": "fast_food", "brand": "Domino's", "brand:ks": "\u0688\u0648\u0645\u06cc\u0646\u0648\u0632", "brand:pa": "\u0a21\u0a4b\u0a2e\u0a40\u0a28\u0a4b\u0a1c\u0a3c", "brand:ur": "\u0688\u0648\u0645\u06cc\u0646\u0648\u0632", "brand:wikidata": "Q839466", "brand:wikipedia": "en:Domino's Pizza", "cuisine": "pizza", "name": "Domino's", "name:ks": "\u0688\u0648\u0645\u06cc\u0646\u0648\u0632", "name:pa": "\u0a21\u0a4b\u0a2e\u0a40\u0a28\u0a4b\u0a1c\u0a3c", "name:ur": "\u0688\u0648\u0645\u06cc\u0646\u0648\u0632", "takeaway": "yes"}}, {"type": "node", "id": 5289291959, "lat": 17.4416613, "lon": 78.500761, "tags": {"amenity": "fast_food", "brand": "Subway", "brand:pa": "\u0a38\u0a2c\u0a35\u0a47\u0a05", "brand:ur": "\u0633\u0628 \u0648\u06d2", "brand:wikidata": "Q244457", "brand:wikipedia": "en:Subway (restaurant)", "cuisine": "sandwich", "name": "Subway", "name:pa": "\u0a38\u0a2c\u0a35\u0a47\u0a05", "name:ur": "\u0633\u0628 \u0648\u06d2", "takeaway": "yes"}}, {"type": "node", "id": 5434420849, "lat": 17.4388588, "lon": 78.5027097, "tags": {"amenity": "college", "name": "st marys college of education", "name:te": "\u0c38\u0c47\u0c02\u0c1f\u0c4d \u0c2e\u0c47\u0c30\u0c40 \u0c15\u0c3e\u0c32\u0c47\u0c1c\u0c40 \u0c05\u0c2b\u0c4d \u0c0e\u0c21\u0c4d\u0c2f\u0c41\u0c15\u0c47\u0c37\u0c28\u0c4d"}}, {"type": "node", "id": 5434424323, "lat": 17.4435713, "lon": 78.500774, "tags": {"amenity": "courthouse", "name": "City civil courts complex"}}, {"type": "node", "id": 5596353860, "lat": 17.4387618, "lon": 78.4856916, "tags": {"amenity": "school", "name": "marvadi high school", "name:te": "\u0c2e\u0c3e\u0c30\u0c4d\u0c35\u0c3e\u0c21\u0c3f \u0c39\u0c48 \u0c38\u0c4d\u0c15\u0c42\u0c32\u0c4d"}}, {"type": "node", "id": 5892276139, "lat": 17.4589185, "lon": 78.5003757, "tags": {"amenity": "ice_cream", "delivery": "yes", "name": "Oh so stoned", "outdoor_seating": "no", "takeaway": "yes"}}, {"type": "node", "id": 5957976497, "lat": 17.4309781, "lon": 78.5050407}, {"type": "node", "id": 5957976498, "lat": 17.4309625, "lon": 78.5050791}, {"type": "node", "id": 5957976499, "lat": 17.4309393, "lon": 78.5050667}, {"type": "node", "id": 5957976500, "lat": 17.4309576, "lon": 78.5050289}, {"type": "node", "id": 5957976501, "lat": 17.4308789, "lon": 78.504902}, {"type": "node", "id": 5957976502, "lat": 17.4308633, "lon": 78.5049259}, {"type": "node", "id": 5957976503, "lat": 17.430845, "lon": 78.5049141}, {"type": "node", "id": 5957976504, "lat": 17.430859, "lon": 78.504892}, {"type": "node", "id": 5957976505, "lat": 17.4309354, "lon": 78.5050742}, {"type": "node", "id": 5957976506, "lat": 17.430796, "lon": 78.5049925}, {"type": "node", "id": 5957976507, "lat": 17.4308375, "lon": 78.5049214}, {"type": "node", "id": 5957976508, "lat": 17.4308966, "lon": 78.5049541}, {"type": "node", "id": 5957976509, "lat": 17.43088, "lon": 78.5049863}, {"type": "node", "id": 5957976510, "lat": 17.4309951, "lon": 78.5049942}, {"type": "node", "id": 5957976511, "lat": 17.4309773, "lon": 78.5050314}, {"type": "node", "id": 5957976512, "lat": 17.4308896, "lon": 78.5049835}, {"type": "node", "id": 5957976513, "lat": 17.4309095, "lon": 78.5049468}, {"type": "node", "id": 5957976514, "lat": 17.430916, "lon": 78.5049248}, {"type": "node", "id": 5957976515, "lat": 17.4309015, "lon": 78.5049468}, {"type": "node", "id": 5957976516, "lat": 17.4308687, "lon": 78.5049276}, {"type": "node", "id": 5957976517, "lat": 17.4308829, "lon": 78.504904}, {"type": "node", "id": 6154835392, "lat": 17.440235, "lon": 78.5077847, "tags": {"amenity": "cafe", "name": "Metro Bawarchi Irani Chai Cafe"}}, {"type": "node", "id": 6185287780, "lat": 17.4423939, "lon": 78.4967364}, {"type": "node", "id": 6185287781, "lat": 17.4428362, "lon": 78.4967541}, {"type": "node", "id": 6185287782, "lat": 17.4423957, "lon": 78.4973767}, {"type": "node", "id": 6185287783, "lat": 17.4428004, "lon": 78.4973622}, {"type": "node", "id": 6185287784, "lat": 17.4417011, "lon": 78.4973943}, {"type": "node", "id": 6205211485, "lat": 17.4404997, "lon": 78.4938821, "tags": {"amenity": "cafe", "name": "Blue Moon Irani Chai Cafe", "name:te": "\u0c2c\u0c4d\u0c32\u0c41 \u0c2e\u0c42\u0c28\u0c4d \u0c07\u0c30\u0c3e\u0c28\u0c40 \u0c1a\u0c3e\u0c2f\u0c4d \u0c15\u0c47\u0c2b\u0c4d"}}, {"type": "node", "id": 6450769485, "lat": 17.4288187, "lon": 78.4983748, "tags": {"amenity": "school", "name": "Government Boys High School"}}, {"type": "node", "id": 6479951769, "lat": 17.4553191, "lon": 78.5008281, "tags": {"addr:district": "Hyderabad", "addr:full": "Plot C 17, Vikrampuri Colony, Secunderabad", "addr:state": "Telangana", "amenity": "hospital", "contact:tollfree": "1801 2122", "fax": "040 27899090", "healthcare:speciality": "General Pediatrics;Neonatology;Pediatric Neurology;Anasthesia and Pain Management;Pediatric Gastroenterology;Pediatric Nephrology;Hematology & Oncology;ENT;Psychiatry;Pediatric Cardiology;Speech & Language Therapy;Physiotherapy and Rehabilitation Unit etc", "medical_system": "Allopathic", "name": "Rainbow Hospital for Women and Children, Secunderabad", "operator:type": "private", "phone": "040 27895050;040 27896060", "source": "OpenGovernmentData", "website": "https://www.rainbowhospitals.in/"}}, {"type": "node", "id": 6482396588, "lat": 17.4416735, "lon": 78.4984318, "tags": {"amenity": "atm", "opening_hours": "24/7", "operator": "HDFC"}}, {"type": "node", "id": 6484699042, "lat": 17.447062, "lon": 78.5082445, "tags": {"addr:district": "Hyderabad", "addr:full": "Road No.4, West Marredpally, Secunderabad", "addr:postcode": "500026", "addr:state": "Telangana", "amenity": "hospital", "email": "geethahospitals@gmail.com", "fax": "040 27716287", "name": "Geetha Multi Speciality Hospital", "phone": "040-27800703; 040-27801272; 040-27802138", "source": "OpenGovernmentData", "website": "https://www.geethahospitals.com/"}}, {"type": "node", "id": 6484867650, "lat": 17.4593374, "lon": 78.5004204, "tags": {"addr:district": "Hyderabad", "addr:full": "Plot No A-7, Vikrampuri Colony, Karkhana", "addr:postcode": "500009", "addr:state": "Telangana", "amenity": "hospital", "name": "Nest Children's Hospital", "source": "OpenGovernmentData"}}, {"type": "node", "id": 6484884147, "lat": 17.4396489, "lon": 78.4991692, "tags": {"addr:district": "Hyderabad", "addr:full": "9-1-192, St. Marys Road, Secunderabad", "addr:postcode": "500003", "addr:state": "Telangana", "amenity": "hospital", "email": "info@mamatafertility.com", "healthcare": "hospital", "name": "Mamata Fertility Hospital", "old_name": "Infertility Institute and Research Centre Pvt. Ltd (IIRC)", "phone": "040-45678899; 040-27701414; 040-27700150; 040-27719471", "source": "OpenGovernmentData", "website": "https://www.mamatafertility.com/"}}, {"type": "node", "id": 6485236733, "lat": 17.4500557, "lon": 78.5115261, "tags": {"addr:district": "Hyderabad", "addr:full": "Plot No 23 & 24, Sanjeev Hosping Colony East Marredpally", "addr:postcode": "500026", "addr:state": "Telangana", "amenity": "hospital", "name": "Tanvi Eye Center", "source": "OpenGovernmentData"}}, {"type": "node", "id": 6485663642, "lat": 17.4409578, "lon": 78.5020941, "tags": {"addr:district": "Hyderabad", "addr:full": "Plot No. 43, Opp. St Mary's Church, S.D Road", "addr:postcode": "500003", "addr:state": "Telangana", "amenity": "hospital", "healthcare": "hospital", "name": "Madhava Nursing Home", "source": "OpenGovernmentData"}}, {"type": "node", "id": 6485873602, "lat": 17.4350761, "lon": 78.5028817, "tags": {"addr:district": "Hyderabad", "addr:full": "9-4-269, Regimental Bazar, Opp Main Gate", "addr:postcode": "500025", "addr:state": "Telangana", "amenity": "hospital", "healthcare": "hospital", "name": "Saluja Hospital", "source": "OpenGovernmentData"}}, {"type": "node", "id": 6487281382, "lat": 17.4502892, "lon": 78.5099416, "tags": {"addr:district": "Secunderabad", "addr:full": "1st & 2nd Floor, Gude\u2019s Plaza, Above ICICI Bank, #77, Seshachala Colony, East Marredpally main Road", "addr:postcode": "500026", "addr:state": "Telangana", "amenity": "hospital", "name": "NephroPlus Dialysis Centre", "phone": "040-40063765", "source": "OpenGovernmentData", "website": "https://www.nephroplus.com/"}}, {"type": "node", "id": 6487654694, "lat": 17.4549634, "lon": 78.5087728, "tags": {"addr:district": "Hyderabad", "addr:full": "Plot No. 18, Indrapuri Railway Colony, West Marredpally", "addr:postcode": "500026", "addr:state": "Telangana", "amenity": "hospital", "fax": "040 27712131", "name": "Sree Maruthi Nursing Home", "source": "OpenGovernmentData"}}, {"type": "node", "id": 6487670042, "lat": 17.4565491, "lon": 78.5014417, "tags": {"addr:district": "Hyderabad", "addr:full": "E-30,31 Vikrampuri Colony", "addr:postcode": "500003", "addr:state": "Telangana", "amenity": "hospital", "fax": "27814173", "name": "Parvathi Multispeciality Hospital", "source": "OpenGovernmentData"}}, {"type": "node", "id": 6490450001, "lat": 17.424671, "lon": 78.5044035, "tags": {"amenity": "college", "name": "Gandhi Medical College"}}, {"type": "node", "id": 6490857331, "lat": 17.4281006, "lon": 78.5170508, "tags": {"addr:district": "Hyderabad", "addr:full": "11-1-15, Seethaphalmandi", "addr:postcode": "500061", "addr:state": "Telangana", "amenity": "hospital", "healthcare": "hospital", "name": "Krishna Maternity And Nursing Home", "source": "OpenGovernmentData"}}, {"type": "node", "id": 6491348622, "lat": 17.4364471, "lon": 78.4961886, "tags": {"addr:district": "Hyderabad", "addr:full": "H.No. 7-1-684 & 685/A, Market Street, Secunderabad", "addr:postcode": "500003", "addr:state": "Telangana", "amenity": "hospital", "name": "Aravind Nursing Home", "source": "OpenGovernmentData"}}, {"type": "node", "id": 6494422626, "lat": 17.4458107, "lon": 78.504999, "tags": {"addr:city": "Hyderabad", "addr:district": "Rangareddy", "addr:full": "10-2-256, West Maredpally", "addr:postcode": "500026", "addr:state": "Telangana", "amenity": "hospital", "contact:phone": "04066329777; 27800716", "email": "secunderabadnursinghome@gmail.com", "fax": "27800717", "name": "SECUNDERABAD NURSING HOME", "operator:type": "private", "phone": "04040061181", "source": "OpenGovernmentData"}}, {"type": "node", "id": 6494810755, "lat": 17.4404883, "lon": 78.4978656, "tags": {"addr:district": "Hyderabad", "addr:full": "Door No 8-1-5/7, Janak Plaza, Clock Tower, Secunderabad", "addr:postcode": "500003", "addr:state": "Telangana", "amenity": "hospital", "fax": "0877 27801920", "health_facility:type": "Separate Divisions for Each Speciality;State Of The Art Operation Theatres;Post Op Lounge with Beds;Advanced Eye Care Equipment;Complete Range of Optical Frames and Lenses;Exclusive Childrens Eye Care;24 7 Pharmacy;Ambulance Services", "healthcare": "hospital", "healthcare:speciality": "Cataract Services;Refractive Surgery;Cornea Services;Glaucoma Services;Retina Services;Paediatric Ophthalmology and Squint Services;Oculoplasty Services;UVEITIS;Neuro Ophthalmology;Vision Rehabilitation Services;Computer Vision Syndrome Clinic", "medical_system": "Allopathic", "name": "Vasan Healthcare Private Limited, Secunderabad", "name:te": "\u0c35\u0c3e\u0c38\u0c28\u0c4d \u0c39\u0c46\u0c32\u0c4d\u0c24\u0c4d \u0c15\u0c47\u0c30\u0c4d \u0c2a\u0c4d\u0c30\u0c48\u0c35\u0c47\u0c1f\u0c4d \u0c32\u0c3f\u0c2e\u0c3f\u0c1f\u0c46\u0c21\u0c4d \u0c38\u0c3f\u0c15\u0c3f\u0c02\u0c26\u0c4d\u0c30\u0c3e\u0c2c\u0c3e\u0c26\u0c4d", "operator:type": "private", "phone": "040 30957400", "source": "OpenGovernmentData", "website": "www.vasaneye.com"}}, {"type": "node", "id": 6496953497, "lat": 17.4465502, "lon": 78.5133715, "tags": {"addr:district": "Hyderabad", "addr:full": "10-3-32/9/32, Near Tagore's Home Junior College, East Marredpally", "addr:postcode": "500026", "addr:state": "Telangana", "amenity": "hospital", "name": "Taraporewalla Nursing Home", "source": "OpenGovernmentData"}}, {"type": "node", "id": 6496960846, "lat": 17.4478066, "lon": 78.508915, "tags": {"addr:district": "Hyderabad", "addr:full": "10-3-4, Entrenchment Road, East Marredpally, Opp Playground, Secunderabad,", "addr:postcode": "500026", "addr:state": "Telangana", "amenity": "hospital", "email": "info@shenoyhospitals.com", "name": "Shenoy Nursing Home", "phone": "040 4151 9999", "source": "OpenGovernmentData", "website": "https://www.shenoyhospitals.com/"}}, {"type": "node", "id": 6497294673, "lat": 17.4416577, "lon": 78.4908745, "tags": {"addr:district": "Hyderabad", "addr:full": "Plot Number 111, Karan Centre, S. D. Road, Landmark: Near Grand Solitaire Annex Hotel & Near Minerva Complex", "addr:postcode": "500003", "addr:state": "Telangana", "amenity": "hospital", "healthcare": "hospital", "name": "BSR ENT & Eye Nursing Home", "source": "OpenGovernmentData"}}, {"type": "node", "id": 6498031548, "lat": 17.4381142, "lon": 78.5049681, "tags": {"addr:district": "Hyderabad", "addr:full": "10-3-72, St. John's Road, Opp Keyes High School, Chilakalguda, Secunderabad", "addr:postcode": "500025", "addr:state": "Telangana", "amenity": "hospital", "healthcare": "hospital", "name": "Shubhodaya Nursing Home", "source": "OpenGovernmentData"}}, {"type": "node", "id": 6505503898, "lat": 17.45035, "lon": 78.5034782, "tags": {"addr:district": "Hyderabad", "addr:full": "Street No:4, Road No:7, New Muncipal Park, West Maredpally", "addr:postcode": "500026", "addr:state": "Telangana", "amenity": "hospital", "name": "Lions Patny Hospital", "source": "OpenGovernmentData"}}, {"type": "node", "id": 6505570504, "lat": 17.4591328, "lon": 78.5007772, "tags": {"addr:district": "Hyderabad", "addr:full": "H.No.3-7-218 & 219, Behind Satyam Computer, ( Dc Greens )Kharkhana, Rangapaddy", "addr:postcode": "500015", "addr:state": "Telangana", "amenity": "hospital", "fax": "040 66318453", "name": "Soumya Multispeciality Hospital", "source": "OpenGovernmentData"}}, {"type": "node", "id": 6506106769, "lat": 17.4486471, "lon": 78.4849052, "tags": {"addr:district": "Hyderabad", "addr:full": "1-14-158/1, Opp Pearl Palace, Beside Idgah, Balamrai, Near Paradise", "addr:postcode": "500003", "addr:state": "Telangana", "amenity": "hospital", "name": "J S Mahaveer Hospital", "source": "OpenGovernmentData"}}, {"type": "node", "id": 6507570343, "lat": 17.4422795, "lon": 78.5043204, "tags": {"addr:district": "Hyderabad", "addr:full": "F-14, First Floor, Deepthi Apartments, Beside St.Ann's High School, S.P.Road", "addr:postcode": "500003", "addr:state": "Telangana", "amenity": "hospital", "contact:email": "contact@drgowd.com", "contact:mobile": "+91 8886664790", "contact:phone": "040 66338377; 040 66312447", "healthcare": "hospital", "name": "The Dental Venue Multi Speciality Hospital (unit of Dr.Gowd\u2019s)", "source": "OpenGovernmentData", "website": "https://www.drgowd.com/"}}, {"type": "node", "id": 6510472444, "lat": 17.4466871, "lon": 78.5027158, "tags": {"addr:district": "Hyderabad", "addr:full": "Plot No 185, Road No 1, Near Kennedy School, West Marredpally", "addr:postcode": "500026", "addr:state": "Telangana", "amenity": "hospital", "email": "saibaba_goud@hotmail.com", "name": "Sai Jyothi Eye Institute", "phone": "040 2771 9170 ; 040 27701686", "source": "OpenGovernmentData", "website": "http://www.saijyothieyeinstitute.com"}}, {"type": "node", "id": 6510820223, "lat": 17.4505451, "lon": 78.5032415, "tags": {"addr:district": "Hyderabad", "addr:full": "Beside Lions Club Hospital, West Marredpally,Secunderabad", "addr:postcode": "500026", "addr:state": "Telangana", "amenity": "hospital", "name": "Basant Sahney Hospitals", "source": "OpenGovernmentData"}}, {"type": "node", "id": 6513267731, "lat": 17.4504779, "lon": 78.5062201, "tags": {"addr:district": "Hyderabad", "addr:full": "10-1-254, Near Check Post, West Marredpally", "addr:postcode": "500026", "addr:state": "Telangana", "amenity": "hospital", "fax": "040 27716646", "name": "Lions Dundoo Eye Institute", "source": "OpenGovernmentData"}}, {"type": "node", "id": 6527939380, "lat": 17.4403693, "lon": 78.4825905, "tags": {"addr:district": "Hyderabad", "addr:full": "Krishna Nagar Colony, Prenderghast Road", "addr:postcode": "500003", "addr:state": "Telangana", "amenity": "clinic", "fixme": "could someone locate the clinic accurately", "name": "VSM Day Eye Care Clinic", "source": "OpenGovernmentData"}}, {"type": "node", "id": 6536382529, "lat": 17.4398649, "lon": 78.5030686, "tags": {"amenity": "place_of_worship", "building": "church", "name": "Emmanuel House of Worship", "religion": "christian"}}, {"type": "node", "id": 6541517719, "lat": 17.4329329, "lon": 78.5158499, "tags": {"addr:district": "Hyderabad", "addr:full": "12-8-257/15/1/A, Near Mettuguda", "addr:postcode": "500017", "addr:state": "Telangana", "addr:street": "Mettuguda", "addr:subdistrict": "Maredpalle", "amenity": "clinic", "name": "Urban Primary Health Centre, Mettuguda", "source": "OpenGovernmentData"}}, {"type": "node", "id": 6548826056, "lat": 17.4389273, "lon": 78.5060866, "tags": {"addr:city": "Hyderabad", "addr:full": "#10-3-167/A, Lane opp apollo hospitals, St.Johns road, Secunderabad", "addr:postcode": "500025", "addr:state": "Telangana", "amenity": "hospital", "contact:phone": "040-27830534, 040-27831534, +91-7207375534", "healthcare": "hospital", "name": "KASTURI MULTISPECIALITY HOSPITAL", "operator:type": "private", "source": "OpenGovernmentData", "website": "https://kasturihospitals.com/"}}, {"type": "node", "id": 6549022044, "lat": 17.4344248, "lon": 78.4897238, "tags": {"addr:district": "Hyderabad", "addr:full": "4-5-172-B, Ranigunj, Near Ranigunj", "addr:postcode": "500026", "addr:state": "Telangana", "addr:street": "Ranigunj", "addr:subdistrict": "Secunderabad", "amenity": "clinic", "name": "Urban Primary Health Centre, Pan Bazar", "source": "OpenGovernmentData"}}, {"type": "node", "id": 6549100481, "lat": 17.4333724, "lon": 78.4874345, "tags": {"addr:district": "Hyderabad", "addr:full": "2-3-28-30 Ranigunj, Secunderabad, Near Minister Road", "addr:postcode": "500003", "addr:state": "Telangana", "addr:street": "James Street Railway Station", "addr:subdistrict": "Secunderabad", "amenity": "clinic", "name": "Dr.Paul Doss Maternity and Family Welfare Centre", "source": "OpenGovernmentData"}}, {"type": "node", "id": 6549215300, "lat": 17.45558, "lon": 78.4981728, "tags": {"addr:city": "Secunderabad", "addr:full": "Plot No: 90 P&T COLONY VIKRAMPURI KARKHANA", "addr:postcode": "500009", "addr:state": "Telangana", "amenity": "hospital", "contact:phone": "4027720777", "name": "NAVJEEVAN HOSPITAL", "operator": "Private", "source": "OpenGovernmentData"}}, {"type": "node", "id": 6549358836, "lat": 17.4392005, "lon": 78.4803766, "tags": {"addr:district": "Hyderabad", "addr:full": "1-8-32/62 & 1-8-32/62/1, Minister Road, Secunderabad", "addr:postcode": "500003", "addr:state": "Telangana", "amenity": "hospital", "contact:phone": "040 66023111; 040 66023113", "name": "SECUNDERABAD WOMENS HOSPITAL", "operator:type": "private", "source": "OpenGovernmentData"}}, {"type": "node", "id": 6563212163, "lat": 17.4405701, "lon": 78.4974861, "tags": {"addr:district": "Hyderabad", "addr:full": "8-1-9, Clock Tower, Market Street, Secunderabad", "addr:postcode": "500003", "addr:state": "Telangana", "amenity": "restaurant", "name": "Time Square-The Landmark Hotel", "name:te": "\u0c1f\u0c48\u0c02 \u0c38\u0c4d\u0c15\u0c4d\u0c35\u0c47\u0c30\u0c4d - \u0c26\u0c3f \u0c32\u0c3e\u0c02\u0c21\u0c4d\u0c2e\u0c3e\u0c30\u0c4d\u0c15\u0c4d \u0c39\u0c4b\u0c1f\u0c32\u0c4d", "source": "OpenGovernmentData"}}, {"type": "node", "id": 6598094227, "lat": 17.4365449, "lon": 78.4831135}, {"type": "node", "id": 6598094228, "lat": 17.4365296, "lon": 78.4830679}, {"type": "node", "id": 6598094229, "lat": 17.4365091, "lon": 78.482978}, {"type": "node", "id": 6598094230, "lat": 17.4364899, "lon": 78.4828694}, {"type": "node", "id": 6685486347, "lat": 17.4346769, "lon": 78.5047567, "tags": {"addr:city": "Secunderabad", "addr:postcode": "509001", "amenity": "bus_station", "bus": "yes", "name": "TSRTC BUS STAND , RATHIFILE ( SECUNDRABAD )", "network": "Secunderabad Railway Station", "operator": "TSRTC", "public_transport": "station"}}, {"type": "node", "id": 6685486354, "lat": 17.4400188, "lon": 78.4962092, "tags": {"amenity": "community_centre", "name": "Mahboob College Grounds", "name:te": "\u0c2e\u0c39\u0c2c\u0c42\u0c2c\u0c4d \u0c15\u0c3e\u0c32\u0c47\u0c1c\u0c4d \u0c17\u0c4d\u0c30\u0c4c\u0c02\u0c21\u0c4d\u0c38\u0c4d", "operator": "Mahboob College"}}, {"type": "node", "id": 6685486359, "lat": 17.4412777, "lon": 78.4983217, "tags": {"amenity": "place_of_worship", "name": "Nagadevatha Temple", "religion": "hindu"}}, {"type": "node", "id": 6685486361, "lat": 17.4267722, "lon": 78.5161035, "tags": {"amenity": "cinema", "building": "yes", "name": "Suresh Theatre"}}, {"type": "node", "id": 6685486362, "lat": 17.4401041, "lon": 78.499527, "tags": {"amenity": "place_of_worship", "denomination": "baptist", "name": "Centenary Baptist Church, Secundrabad", "religion": "christian", "service_times": "Su 10:00-13:00, 18:00-20:00"}}, {"type": "node", "id": 6685486365, "lat": 17.4425872, "lon": 78.4989862, "tags": {"amenity": "community_centre", "name": "YMCA Secunderabad", "operator": "YMCA -Young Men Christian Association"}}, {"type": "node", "id": 6690779938, "lat": 17.4260024, "lon": 78.5158694, "tags": {"amenity": "place_of_worship", "name": "Hanuman Temple", "religion": "hindu"}}, {"type": "node", "id": 6710912114, "lat": 17.4404949, "lon": 78.4956406, "tags": {"amenity": "cafe", "cuisine": "regional", "name": "Rio Cafe", "name:te": "\u0c30\u0c3f\u0c2f\u0c4b \u0c15\u0c47\u0c2b\u0c4d"}}, {"type": "node", "id": 6710912129, "lat": 17.4295384, "lon": 78.5149475, "tags": {"amenity": "bank", "name": "Central Bank of India"}}, {"type": "node", "id": 6710912131, "lat": 17.4417292, "lon": 78.4990869, "tags": {"amenity": "restaurant", "cuisine": "regional", "name": "NR Anand Tiffins"}}, {"type": "node", "id": 6710912132, "lat": 17.4295377, "lon": 78.5148471, "tags": {"amenity": "bank", "atm": "yes", "name": "Bank of Baroda"}}, {"type": "node", "id": 6710912136, "lat": 17.4263622, "lon": 78.5154507, "tags": {"amenity": "atm", "name": "Canara Bank ATM"}}, {"type": "node", "id": 6710912141, "lat": 17.4258886, "lon": 78.5148679, "tags": {"amenity": "place_of_worship", "religion": "hindu"}}, {"type": "node", "id": 6710912142, "lat": 17.4415608, "lon": 78.489993, "tags": {"amenity": "fast_food", "cuisine": "regional", "name": "Babu Lalji Dhai Samosa"}}, {"type": "node", "id": 6765562751, "lat": 17.4296174, "lon": 78.5135101}, {"type": "node", "id": 6765562753, "lat": 17.4257389, "lon": 78.5148771, "tags": {"amenity": "fast_food"}}, {"type": "node", "id": 6765562756, "lat": 17.4307134, "lon": 78.5143573}, {"type": "node", "id": 6765562757, "lat": 17.4296148, "lon": 78.5142289}, {"type": "node", "id": 6765562759, "lat": 17.4254761, "lon": 78.5150008, "tags": {"amenity": "cafe", "name": "Shine Cafe", "name:te": "\u0c37\u0c48\u0c28\u0c4d \u0c15\u0c47\u0c2b\u0c4d"}}, {"type": "node", "id": 6765562762, "lat": 17.4308103, "lon": 78.5138707}, {"type": "node", "id": 6765562764, "lat": 17.4303106, "lon": 78.513215, "tags": {"amenity": "police", "name": "Chilkalguda Police Station"}}, {"type": "node", "id": 6765562767, "lat": 17.4292749, "lon": 78.5155821, "tags": {"amenity": "restaurant", "name": "Raghavedndra Vegitarian"}}, {"type": "node", "id": 6765562768, "lat": 17.430881, "lon": 78.5134188}, {"type": "node", "id": 6765562773, "lat": 17.4295332, "lon": 78.5126616, "tags": {"amenity": "restaurant", "name": "Sri Raghavendra Udipi Veg"}}, {"type": "node", "id": 6765562775, "lat": 17.4305638, "lon": 78.5132894}, {"type": "node", "id": 6765562782, "lat": 17.430491, "lon": 78.5135462}, {"type": "node", "id": 6765562784, "lat": 17.426449, "lon": 78.5161457, "tags": {"amenity": "place_of_worship", "name": "Grudwara", "religion": "sikh"}}, {"type": "node", "id": 6773025655, "lat": 17.4295408, "lon": 78.5147385, "tags": {"amenity": "cafe"}}, {"type": "node", "id": 6773025661, "lat": 17.4244858, "lon": 78.515862, "tags": {"amenity": "pharmacy", "dispensing": "yes", "healthcare": "pharmacy", "name": "Med Plus"}}, {"type": "node", "id": 6773025662, "lat": 17.4250888, "lon": 78.5149145, "tags": {"amenity": "clinic", "healthcare": "clinic"}}, {"type": "node", "id": 6773025666, "lat": 17.4295615, "lon": 78.5153003, "tags": {"amenity": "ice_cream"}}, {"type": "node", "id": 6773884882, "lat": 17.4297249, "lon": 78.514429, "tags": {"amenity": "bar", "name": "White House Bar & Restaurant"}}, {"type": "node", "id": 6773884883, "lat": 17.4360316, "lon": 78.5007779, "tags": {"amenity": "bank", "brand": "Union Bank of India", "brand:wikidata": "Q2004078", "brand:wikipedia": "en:Union Bank of India", "name": "Union Bank of India"}}, {"type": "node", "id": 6773898392, "lat": 17.4307259, "lon": 78.5108163, "tags": {"amenity": "atm"}}, {"type": "node", "id": 6773898394, "lat": 17.4307097, "lon": 78.5108082, "tags": {"amenity": "atm", "name": "SBI ATM"}}, {"type": "node", "id": 6774880496, "lat": 17.4408822, "lon": 78.486756, "tags": {"amenity": "fast_food", "name": "Pizza Den"}}, {"type": "node", "id": 6774880498, "lat": 17.4415536, "lon": 78.490045, "tags": {"amenity": "vending_machine", "name": "Sugar Cane Juice", "vending": "drinks"}}, {"type": "node", "id": 6805124044, "lat": 17.4259772, "lon": 78.515197, "tags": {"amenity": "atm", "name": "ICICI ATM"}}, {"type": "node", "id": 6850830247, "lat": 17.45539, "lon": 78.4980702, "tags": {"amenity": "pharmacy", "name": "Health care Medical and General store", "source": "survey"}}, {"type": "node", "id": 6868777694, "lat": 17.4271386, "lon": 78.5171957, "tags": {"amenity": "bicycle_repair_station"}}, {"type": "node", "id": 6868777722, "lat": 17.4272779, "lon": 78.5164933, "tags": {"amenity": "crematorium"}}, {"type": "node", "id": 6868777723, "lat": 17.429749, "lon": 78.5149586, "tags": {"amenity": "driving_school"}}, {"type": "node", "id": 6868777724, "lat": 17.4294616, "lon": 78.5134566, "tags": {"amenity": "place_of_worship"}}, {"type": "node", "id": 6868777725, "lat": 17.4301582, "lon": 78.5120152, "tags": {"amenity": "vending_machine", "vending": "fuel"}}, {"type": "node", "id": 6942502497, "lat": 17.4439035, "lon": 78.4985}, {"type": "node", "id": 6991428585, "lat": 17.4401021, "lon": 78.5004359, "tags": {"amenity": "school", "name": "Seventh-day Adventist high school"}}, {"type": "node", "id": 7003041686, "lat": 17.457032, "lon": 78.5086176, "tags": {"amenity": "cafe", "description": "Bakers & Fresh Fruits Juice", "name": "The Stop 'n Go", "outdoor_seating": "yes", "takeaway": "yes", "wheelchair": "yes"}}, {"type": "node", "id": 7013210185, "lat": 17.4388959, "lon": 78.4885994, "tags": {"amenity": "post_box"}}, {"type": "node", "id": 7013214085, "lat": 17.4407514, "lon": 78.4880518, "tags": {"amenity": "atm", "operator": "Bank of India"}}, {"type": "node", "id": 7013214086, "lat": 17.4424262, "lon": 78.4876145, "tags": {"amenity": "atm"}}, {"type": "node", "id": 7013214987, "lat": 17.4435019, "lon": 78.4866168, "tags": {"amenity": "atm", "operator": "SBI"}}, {"type": "node", "id": 7015155402, "lat": 17.4374781, "lon": 78.4997088, "tags": {"amenity": "atm", "operator": "ICICI Bank"}}, {"type": "node", "id": 7088397079, "lat": 17.4517021, "lon": 78.4995966}, {"type": "node", "id": 7088397080, "lat": 17.4516699, "lon": 78.4997077}, {"type": "node", "id": 7088397081, "lat": 17.4515678, "lon": 78.4996855}, {"type": "node", "id": 7088397082, "lat": 17.4515827, "lon": 78.4995283}, {"type": "node", "id": 7088438498, "lat": 17.4373413, "lon": 78.4860624}, {"type": "node", "id": 7088438499, "lat": 17.4373805, "lon": 78.4861653}, {"type": "node", "id": 7088438500, "lat": 17.4372989, "lon": 78.4861751}, {"type": "node", "id": 7088438501, "lat": 17.4372777, "lon": 78.4860747}, {"type": "node", "id": 7088814385, "lat": 17.4334334, "lon": 78.4873111}, {"type": "node", "id": 7088814386, "lat": 17.4333386, "lon": 78.4872987}, {"type": "node", "id": 7088814387, "lat": 17.4332882, "lon": 78.48757}, {"type": "node", "id": 7088814388, "lat": 17.4334008, "lon": 78.4875845}, {"type": "node", "id": 7279407526, "lat": 17.4342137, "lon": 78.5021599, "tags": {"barrier": "entrance"}}, {"type": "node", "id": 7279419975, "lat": 17.4340896, "lon": 78.5012489, "tags": {"barrier": "lift_gate"}}, {"type": "node", "id": 7279425285, "lat": 17.4341465, "lon": 78.5020868}, {"type": "node", "id": 7279425286, "lat": 17.4341651, "lon": 78.5021126}, {"type": "node", "id": 7279425287, "lat": 17.4341926, "lon": 78.5021441}, {"type": "node", "id": 7279425288, "lat": 17.4342438, "lon": 78.5021753}, {"type": "node", "id": 7279425289, "lat": 17.4342326, "lon": 78.5021696}, {"type": "node", "id": 7279425290, "lat": 17.4342598, "lon": 78.50218}, {"type": "node", "id": 7279425291, "lat": 17.4342751, "lon": 78.5021847}, {"type": "node", "id": 7279425292, "lat": 17.4342962, "lon": 78.5021941}, {"type": "node", "id": 7279425293, "lat": 17.4343087, "lon": 78.5022024}, {"type": "node", "id": 7279425294, "lat": 17.4343199, "lon": 78.5022098}, {"type": "node", "id": 7279425295, "lat": 17.4343356, "lon": 78.5022239}, {"type": "node", "id": 7279425296, "lat": 17.4343458, "lon": 78.5022366}, {"type": "node", "id": 7279425297, "lat": 17.4343554, "lon": 78.5022464}, {"type": "node", "id": 7279425298, "lat": 17.4343733, "lon": 78.5022615}, {"type": "node", "id": 7279425299, "lat": 17.4343884, "lon": 78.5022708}, {"type": "node", "id": 7279425300, "lat": 17.4343967, "lon": 78.5022742}, {"type": "node", "id": 7279425301, "lat": 17.4344069, "lon": 78.5022752}, {"type": "node", "id": 7279425302, "lat": 17.4344133, "lon": 78.5022708}, {"type": "node", "id": 7279425303, "lat": 17.4341331, "lon": 78.5020667}, {"type": "node", "id": 7279425304, "lat": 17.4339674, "lon": 78.5014035}, {"type": "node", "id": 7279425305, "lat": 17.4339719, "lon": 78.501372}, {"type": "node", "id": 7279425306, "lat": 17.433984, "lon": 78.5013445}, {"type": "node", "id": 7279425307, "lat": 17.4340307, "lon": 78.5012915}, {"type": "node", "id": 7279425308, "lat": 17.4340544, "lon": 78.5012707}, {"type": "node", "id": 7330746743, "lat": 17.4427615, "lon": 78.5149164, "tags": {"amenity": "place_of_worship", "name": "Masjid E Noorani", "religion": "muslim"}}, {"type": "node", "id": 7608585725, "lat": 17.4387545, "lon": 78.4989416, "tags": {"amenity": "pharmacy", "healthcare": "pharmacy", "name": "Thirumala Medical Store", "name:te": "\u0c24\u0c3f\u0c30\u0c41\u0c2e\u0c32 \u0c2e\u0c46\u0c21\u0c3f\u0c15\u0c32\u0c4d \u0c38\u0c4d\u0c1f\u0c4b\u0c30\u0c4d"}}, {"type": "node", "id": 7608585730, "lat": 17.4386502, "lon": 78.4972509, "tags": {"amenity": "place_of_worship", "name": "Saibaba Temple", "name:te": "\u0c38\u0c3e\u0c2f\u0c3f \u0c2c\u0c3e\u0c2c\u0c3e \u0c1f\u0c46\u0c02\u0c2a\u0c41\u0c32\u0c4d"}}, {"type": "node", "id": 7642365580, "lat": 17.4425346, "lon": 78.4981452, "tags": {"amenity": "place_of_worship", "name": "Renuka yelamma Temple", "religion": "hindu"}}, {"type": "node", "id": 7642365581, "lat": 17.44278, "lon": 78.4978476, "tags": {"addr:city": "secunderabad", "addr:housenumber": "1-1-1", "addr:postcode": "500003", "addr:street": "S D Road", "amenity": "college", "name": "New Government Jr College"}}, {"type": "node", "id": 7642365582, "lat": 17.441665, "lon": 78.5008233, "tags": {"amenity": "atm", "operator": "SBI"}}, {"type": "node", "id": 7642365583, "lat": 17.4412556, "lon": 78.5005765, "tags": {"addr:city": "Secunderabad", "addr:housenumber": "9-1-166/A", "addr:postcode": "500003", "addr:street": "Sarojini Devi Road", "amenity": "restaurant", "name": "Royal Reve Hotel"}}, {"type": "node", "id": 7642406390, "lat": 17.4420497, "lon": 78.5030995, "tags": {"amenity": "school", "name": "St. Ann's School"}}, {"type": "node", "id": 7644477013, "lat": 17.4415483, "lon": 78.4874318}, {"type": "node", "id": 7644477014, "lat": 17.4417049, "lon": 78.4874265, "tags": {"addr:city": "Secunderabad", "addr:postcode": "500 003", "addr:state": "Telangana", "addr:street": "S D Road", "amenity": "restaurant", "contact:phone": "+91 89770 11117", "cuisine": "indian;kebab;steak_house;ice_cream;barbecue;regional;chicken;coffee_shop;mughlai", "name": "Hotel Persis Paradise", "opening_hours": "11:00-23:00", "outdoor_seating": "yes", "takeaway": "yes", "website": "https://www.paradisefoodcourt.in/"}}, {"type": "node", "id": 7644477015, "lat": 17.4417717, "lon": 78.4872499, "tags": {"name": "Paradise Bakery", "shop": "bakery"}}, {"type": "node", "id": 7644477016, "lat": 17.4414151, "lon": 78.4873345, "tags": {"amenity": "cafe", "name": "Paradise", "name:te": "\u0c2a\u0c3e\u0c30\u0c21\u0c48\u0c1c\u0c4d"}}, {"type": "node", "id": 8013332795, "lat": 17.4497212, "lon": 78.4937612}, {"type": "node", "id": 8013332796, "lat": 17.4497842, "lon": 78.4932001}, {"type": "node", "id": 8013332797, "lat": 17.4490025, "lon": 78.4928509}, {"type": "node", "id": 8013332798, "lat": 17.4489539, "lon": 78.4929542}, {"type": "node", "id": 8013332799, "lat": 17.4489478, "lon": 78.4929837}, {"type": "node", "id": 8013332800, "lat": 17.4489497, "lon": 78.493031}, {"type": "node", "id": 8013337732, "lat": 17.4516601, "lon": 78.4951915}, {"type": "node", "id": 8013337733, "lat": 17.4509488, "lon": 78.4953363}, {"type": "node", "id": 8013337734, "lat": 17.4508848, "lon": 78.4953859}, {"type": "node", "id": 8013337735, "lat": 17.4508426, "lon": 78.4954691}, {"type": "node", "id": 8013337736, "lat": 17.4511982, "lon": 78.496145}, {"type": "node", "id": 8013337737, "lat": 17.4512865, "lon": 78.4962523}, {"type": "node", "id": 8013337738, "lat": 17.4513889, "lon": 78.4963194}, {"type": "node", "id": 8013337739, "lat": 17.4515334, "lon": 78.4963931}, {"type": "node", "id": 8013337740, "lat": 17.4530085, "lon": 78.4965239}, {"type": "node", "id": 8013337741, "lat": 17.4530405, "lon": 78.4965185}, {"type": "node", "id": 8013337742, "lat": 17.4530552, "lon": 78.4965118}, {"type": "node", "id": 8013337743, "lat": 17.4530661, "lon": 78.496493}, {"type": "node", "id": 8013337744, "lat": 17.4530725, "lon": 78.4964696}, {"type": "node", "id": 8013337745, "lat": 17.4530757, "lon": 78.4964461}, {"type": "node", "id": 8013337746, "lat": 17.4530712, "lon": 78.4963596}, {"type": "node", "id": 8013337747, "lat": 17.4529894, "lon": 78.4957212}, {"type": "node", "id": 8013337748, "lat": 17.452815, "lon": 78.4951281}, {"type": "node", "id": 8013337749, "lat": 17.452776, "lon": 78.4950547}, {"type": "node", "id": 8013337750, "lat": 17.4527632, "lon": 78.495001}, {"type": "node", "id": 8013337751, "lat": 17.4527367, "lon": 78.4949796}, {"type": "node", "id": 8013337752, "lat": 17.4526983, "lon": 78.4949668}, {"type": "node", "id": 8013337753, "lat": 17.4516754, "lon": 78.4951848}, {"type": "node", "id": 8013345067, "lat": 17.4441348, "lon": 78.4987084}, {"type": "node", "id": 8042058558, "lat": 17.4463263, "lon": 78.491767}, {"type": "node", "id": 8042058559, "lat": 17.4462022, "lon": 78.4919024}, {"type": "node", "id": 8042058562, "lat": 17.4462879, "lon": 78.4923537}, {"type": "node", "id": 8042058563, "lat": 17.446238, "lon": 78.4923752}, {"type": "node", "id": 8066370079, "lat": 17.458731, "lon": 78.4998827, "tags": {"access": "customers", "amenity": "parking"}}, {"type": "node", "id": 8111036420, "lat": 17.4586049, "lon": 78.4889511}, {"type": "node", "id": 8111036421, "lat": 17.4585934, "lon": 78.4889842}, {"type": "node", "id": 8111036422, "lat": 17.4585633, "lon": 78.4889711}, {"type": "node", "id": 8111036423, "lat": 17.4585736, "lon": 78.4889378}, {"type": "node", "id": 8113744331, "lat": 17.455153, "lon": 78.4855107}, {"type": "node", "id": 8113744332, "lat": 17.4550218, "lon": 78.4855586}, {"type": "node", "id": 8113744333, "lat": 17.4550446, "lon": 78.4856268}, {"type": "node", "id": 8113744334, "lat": 17.4551494, "lon": 78.4856734}, {"type": "node", "id": 8113744335, "lat": 17.4551939, "lon": 78.485657}, {"type": "node", "id": 8113744336, "lat": 17.4551674, "lon": 78.4855624}, {"type": "node", "id": 8113744337, "lat": 17.4551187, "lon": 78.4856009}, {"type": "node", "id": 8113744338, "lat": 17.4545838, "lon": 78.4857161}, {"type": "node", "id": 8113744339, "lat": 17.4545939, "lon": 78.4857665}, {"type": "node", "id": 8113744340, "lat": 17.4545167, "lon": 78.4857912}, {"type": "node", "id": 8113744341, "lat": 17.4545033, "lon": 78.4857384}, {"type": "node", "id": 8113802710, "lat": 17.454299, "lon": 78.4914448, "tags": {"amenity": "place_of_worship", "name": "Shivalaym", "religion": "hindu"}}, {"type": "node", "id": 8113802711, "lat": 17.4565399, "lon": 78.493041}, {"type": "node", "id": 8113802712, "lat": 17.4565423, "lon": 78.4931099}, {"type": "node", "id": 8113802713, "lat": 17.4563701, "lon": 78.4931151}, {"type": "node", "id": 8113802714, "lat": 17.4563743, "lon": 78.4930375}, {"type": "node", "id": 8113802715, "lat": 17.4578224, "lon": 78.4910436}, {"type": "node", "id": 8113802716, "lat": 17.4578094, "lon": 78.4911416}, {"type": "node", "id": 8113829917, "lat": 17.4576931, "lon": 78.4911353}, {"type": "node", "id": 8113829918, "lat": 17.4576981, "lon": 78.4910259}, {"type": "node", "id": 8233048690, "lat": 17.4591866, "lon": 78.5007832, "tags": {"amenity": "hospital", "healthcare": "hospital"}}, {"type": "node", "id": 8233220021, "lat": 17.438665, "lon": 78.5065408, "tags": {"addr:city": "Hyderabad", "addr:postcode": "500003", "addr:street": "Rail Nilayam Road", "amenity": "college", "name": "Gandikota Management Academy"}}, {"type": "node", "id": 8233220022, "lat": 17.4386138, "lon": 78.5065006, "tags": {"addr:city": "Hyderabad", "addr:postcode": "500003", "addr:street": "st johns road", "amenity": "college", "name": "Queen Mary Degree College"}}, {"type": "node", "id": 8233220023, "lat": 17.4384142, "lon": 78.5064255, "tags": {"addr:city": "Hyderabad", "addr:postcode": "500003", "addr:street": "st johns road", "amenity": "college", "name": "i Class Junior College"}}, {"type": "node", "id": 8236601249, "lat": 17.4287806, "lon": 78.488244, "tags": {"amenity": "bank"}}, {"type": "node", "id": 8236632956, "lat": 17.4402772, "lon": 78.4975865, "tags": {"amenity": "hospital", "healthcare": "hospital"}}, {"type": "node", "id": 8272799102, "lat": 17.4403051, "lon": 78.4984432}, {"type": "node", "id": 8272799103, "lat": 17.4400614, "lon": 78.4983794}, {"type": "node", "id": 8272799104, "lat": 17.4400219, "lon": 78.4985447}, {"type": "node", "id": 8272799105, "lat": 17.4402657, "lon": 78.4986085}, {"type": "node", "id": 8386049770, "lat": 17.4390615, "lon": 78.497944, "tags": {"amenity": "school", "name": "Tagores Home High School"}}, {"type": "node", "id": 8386091372, "lat": 17.4548184, "lon": 78.502414, "tags": {"amenity": "school", "name": "Gandhian School"}}, {"type": "node", "id": 8386167910, "lat": 17.4540334, "lon": 78.4987403, "tags": {"amenity": "restaurant", "cuisine": "chinese", "name": "Nanking CR"}}, {"type": "node", "id": 8386555631, "lat": 17.456534, "lon": 78.4988208, "tags": {"amenity": "restaurant", "cuisine": "chinese", "name": "Big Noodle"}}, {"type": "node", "id": 8386652612, "lat": 17.4551205, "lon": 78.5038909, "tags": {"amenity": "bank", "brand": "Syndicate Bank", "brand:wikidata": "Q2004088", "brand:wikipedia": "en:Syndicate Bank", "name": "Syndicate Bank"}}, {"type": "node", "id": 8387042811, "lat": 17.4541207, "lon": 78.4983498, "tags": {"amenity": "restaurant", "name": "Zinger Hut Fried chicken"}}, {"type": "node", "id": 8387042813, "lat": 17.453963, "lon": 78.4996784, "tags": {"amenity": "driving_school", "name": "Singh Motor Driving School"}}, {"type": "node", "id": 8387042814, "lat": 17.4546829, "lon": 78.5019779, "tags": {"amenity": "pharmacy", "brand": "MedPlus", "brand:wikidata": "Q65684234", "brand:wikipedia": "en:MedPlus", "healthcare": "pharmacy", "name": "MedPlus"}}, {"type": "node", "id": 8387042815, "lat": 17.4546208, "lon": 78.5017536, "tags": {"amenity": "pharmacy", "healthcare": "pharmacy", "name": "Gayathri Medical Stores"}}, {"type": "node", "id": 8387042817, "lat": 17.4548974, "lon": 78.5027267, "tags": {"amenity": "ice_cream", "name": "Bombay Kulfi"}}, {"type": "node", "id": 8387042818, "lat": 17.4551497, "lon": 78.5033885, "tags": {"amenity": "pharmacy", "brand": "Apollo Pharmacy", "brand:wikidata": "Q62562612", "healthcare": "pharmacy", "name": "Apollo Pharmacy"}}, {"type": "node", "id": 8387042824, "lat": 17.4560175, "lon": 78.4989182, "tags": {"amenity": "bank", "atm": "yes", "brand": "Axis Bank", "brand:wikidata": "Q2003549", "brand:wikipedia": "en:Axis Bank", "name": "Axis Bank"}}, {"type": "node", "id": 8389425001, "lat": 17.455906, "lon": 78.4835965, "tags": {"amenity": "bar", "name": "Satya Bar and Restaurant"}}, {"type": "node", "id": 8473606293, "lat": 17.447456, "lon": 78.4942058}, {"type": "node", "id": 8556391912, "lat": 17.4462252, "lon": 78.49206}, {"type": "node", "id": 8556391913, "lat": 17.4467651, "lon": 78.4922183}, {"type": "node", "id": 8556391914, "lat": 17.44665, "lon": 78.4920117}, {"type": "node", "id": 8556391915, "lat": 17.4461039, "lon": 78.4933174}, {"type": "node", "id": 8556391916, "lat": 17.4467165, "lon": 78.4948924}, {"type": "node", "id": 8556404517, "lat": 17.4465195, "lon": 78.4918508}, {"type": "node", "id": 8739653947, "lat": 17.458988, "lon": 78.5000445, "tags": {"amenity": "police", "name": "Karkhana Police Station"}}, {"type": "node", "id": 8759181367, "lat": 17.4416653, "lon": 78.4860599, "tags": {"addr:district": "Hyderabad", "addr:full": "Mashallah Building, Paradise Circle, PG Road, Secunderabad", "addr:postcode": "500003", "addr:state": "Telangana", "amenity": "hospital", "name": "Navodaya Hospital", "source": "Local Knowledge"}}, {"type": "node", "id": 8759273395, "lat": 17.4419494, "lon": 78.4899303, "tags": {"addr:district": "Hyderabad", "addr:full": "Oxford Street, Sarojini Devi Road 2nd Floor CVK Park Square, Krishna Complex, Kalasiguda, Secunderabad", "addr:postcode": "500003", "addr:state": "Telangana", "amenity": "hospital", "name": "Oasis Fertility Centre", "source": "Local Knowledge"}}, {"type": "node", "id": 8759287302, "lat": 17.4444622, "lon": 78.5048595, "tags": {"addr:district": "Hyderabad", "addr:full": "Nehru Nagar Colony, West Marredpally, Secunderabad", "addr:postcode": "500026", "addr:state": "Telangana", "amenity": "hospital", "name": "Basant Sahney Hospital", "source": "Local Knowledge"}}, {"type": "node", "id": 8759295434, "lat": 17.4473703, "lon": 78.5035922, "tags": {"addr:district": "Hyderabad", "addr:full": "Aswini Colony, West Marredpally, Secunderabad", "addr:postcode": "500026", "addr:state": "Telangana", "amenity": "doctors", "name": "Dr RajKumar", "source": "Local Knowledge"}}, {"type": "node", "id": 8759738256, "lat": 17.4401505, "lon": 78.4936257, "tags": {"addr:district": "Hyderabad", "addr:full": "127, 4/3, SD Road, Rani Gunj, Secunderabad", "addr:postcode": "500003", "addr:state": "Telangana", "amenity": "hospital", "name": "Madhava Nursing Home", "source": "Local Knowledge"}}, {"type": "node", "id": 8760787195, "lat": 17.4557195, "lon": 78.4992805, "tags": {"addr:district": "Medchal", "addr:full": "Vikrampuri Colony, Karkhana, Secunderabad", "addr:postcode": "500009", "addr:state": "Telangana", "amenity": "hospital", "name": "Rainbow Children's Medicare Pvt Ltd", "source": "Local Knowledge"}}, {"type": "node", "id": 8909212369, "lat": 17.4343506, "lon": 78.4882962, "tags": {"amenity": "clinic", "name": "Fit Life Physiotherapy"}}, {"type": "node", "id": 8935059985, "lat": 17.4401414, "lon": 78.5128765, "tags": {"access": "permit", "amenity": "toilets", "changing_table": "no", "male": "yes", "toilets:disposal": "flush", "wheelchair": "limited"}}, {"type": "node", "id": 8935059986, "lat": 17.4401588, "lon": 78.5130011, "tags": {"access": "permit", "amenity": "toilets", "changing_table": "no", "female": "yes", "toilets:disposal": "flush", "wheelchair": "limited"}}, {"type": "node", "id": 8935105925, "lat": 17.440127, "lon": 78.5125906}, {"type": "node", "id": 8935105926, "lat": 17.4399965, "lon": 78.5129313}, {"type": "node", "id": 8935105927, "lat": 17.4398763, "lon": 78.5125236}, {"type": "node", "id": 8935106032, "lat": 17.4395487, "lon": 78.5146299}, {"type": "node", "id": 8935106033, "lat": 17.4395538, "lon": 78.5147184}, {"type": "node", "id": 8935106034, "lat": 17.4389371, "lon": 78.514756}, {"type": "node", "id": 8935106035, "lat": 17.4389345, "lon": 78.5146675}, {"type": "node", "id": 8935106036, "lat": 17.4385507, "lon": 78.5139325}, {"type": "node", "id": 8935106037, "lat": 17.438543, "lon": 78.5145468}, {"type": "node", "id": 8935106038, "lat": 17.438433, "lon": 78.5145494}, {"type": "node", "id": 8935106039, "lat": 17.4384228, "lon": 78.5139298}, {"type": "node", "id": 8935145523, "lat": 17.4388806, "lon": 78.509485, "tags": {"amenity": "place_of_worship", "religion": "hindu"}}, {"type": "node", "id": 8935145535, "lat": 17.4396508, "lon": 78.5092677, "tags": {"amenity": "bank", "atm": "yes", "brand": "Canara Bank", "brand:pa": "\u0a15\u0a47\u0a28\u0a30\u0a3e \u0a2c\u0a48\u0a02\u0a15", "brand:ur": "\u06a9\u06cc\u0646\u0631\u0627 \u0628\u06cc\u0646\u06a9", "brand:wikidata": "Q2003777", "brand:wikipedia": "en:Canara Bank", "brand:wikipedia:pa": "\u0a15\u0a47\u0a28\u0a30\u0a3e \u0a2c\u0a48\u0a02\u0a15", "drive_through": "no", "name": "Canara Bank", "name:pa": "\u0a15\u0a47\u0a28\u0a30\u0a3e \u0a2c\u0a48\u0a02\u0a15", "name:ur": "\u06a9\u06cc\u0646\u0631\u0627 \u0628\u06cc\u0646\u06a9"}}, {"type": "node", "id": 8935145540, "lat": 17.4409252, "lon": 78.5061483}, {"type": "node", "id": 8935145541, "lat": 17.4408919, "lon": 78.5063629}, {"type": "node", "id": 8935145542, "lat": 17.4408561, "lon": 78.5063575}, {"type": "node", "id": 8935145543, "lat": 17.4408817, "lon": 78.5061483}, {"type": "node", "id": 8941817855, "lat": 17.4475965, "lon": 78.5089418, "tags": {"addr:city": "East Marredpally", "addr:housenumber": "5A Ground Floor", "addr:postcode": "500026", "addr:street": "Main Rd", "amenity": "hospital", "description": "Senior Ayurvedic Doctor specializing in Gastric, Piles, Joint, Skin Complaints and other conditions.", "email": "office@ayurdoctor.in", "emergency": "no", "healthcare": "hospital", "healthcare:speciality": "ayurveda;Piles;general", "name": "Shakti Ayurvedic Clinic", "operator": "Dr Prashant Kumar", "operator:type": "private", "phone": "+91-9848574437", "website": "www.ayurdoctor.in"}}, {"type": "node", "id": 9131094941, "lat": 17.455012, "lon": 78.504132, "tags": {"amenity": "fast_food", "cuisine": "pizza", "name": "Pizza Den"}}, {"type": "node", "id": 9131094943, "lat": 17.4558871, "lon": 78.5051143, "tags": {"amenity": "school", "name": "FIITJEE WORLD SCHOOL"}}, {"type": "node", "id": 9731704310, "lat": 17.4255871, "lon": 78.5077519, "tags": {"amenity": "food_court", "name": "the Joint Shawarma Point"}}, {"type": "node", "id": 9961157197, "lat": 17.4556561, "lon": 78.5007283, "tags": {"amenity": "marketplace", "name": "Anitha Stores"}}, {"type": "node", "id": 10741975968, "lat": 17.4350533, "lon": 78.5163849}, {"type": "node", "id": 10741975969, "lat": 17.4350057, "lon": 78.5163403}, {"type": "node", "id": 10741975970, "lat": 17.4349342, "lon": 78.5164758}, {"type": "node", "id": 10741975971, "lat": 17.4350033, "lon": 78.5164958}, {"type": "node", "id": 10789538087, "lat": 17.4314082, "lon": 78.5129425, "tags": {"amenity": "cinema", "name": "Sridevi Theatre"}}, {"type": "node", "id": 10927780258, "lat": 17.4266018, "lon": 78.4991665, "tags": {"addr:district": "Hyderabad", "addr:place": "Bholakpur", "addr:state": "Telangana", "addr:street": "Bholakpur", "addr:subdistrict": "Secunderabad", "amenity": "health_post", "healthcare": "yes", "name": "Cha Cha Nehru Nagar (Basthi Dawakhana)", "operational_status": "operational", "operator:type": "government", "source": "OpenDataTelangana"}}, {"type": "node", "id": 10979651240, "lat": 17.4362942, "lon": 78.4883948, "tags": {"addr:district": "Hyderabad", "addr:place": "Chuttalbasthi", "addr:state": "Telangana", "addr:street": "Chuttalbasthi", "addr:subdistrict": "Secunderabad", "amenity": "clinic", "healthcare": "clinic", "name": "Urban Primary Health Centre, Chuttalbasthi", "operational_status": "operational", "operator:type": "government", "source": "OpenDataTelangana"}}, {"type": "node", "id": 10980307146, "lat": 17.4338974, "lon": 78.5023934, "tags": {"amenity": "vending_machine", "level_name": "0", "name": "ATVMs", "ref": "ATVMs", "vending": "public_transport_tickets"}}, {"type": "node", "id": 10980307147, "lat": 17.4338974, "lon": 78.5023934, "tags": {"amenity": "vending_machine", "description": "Automatic Vending Machines for tickets", "name": "ATVMs", "vending": "public_transport_tickets"}}, {"type": "node", "id": 10980340002, "lat": 17.4336929, "lon": 78.5016003, "tags": {"amenity": "vending_machine", "description": "Automatic Ticket vending machine", "name": "ATVM's", "vending": "public_transport_tickets"}}, {"type": "node", "id": 10980340003, "lat": 17.4328512, "lon": 78.5033398, "tags": {"amenity": "vending_machine", "description": "Automatic Ticket vending machine", "name": "ATVM's", "vending": "public_transport_tickets"}}, {"type": "node", "id": 10980340004, "lat": 17.434468, "lon": 78.5042806, "tags": {"amenity": "vending_machine", "description": "Automatic Ticket vending machine", "name": "ATVM's", "vending": "public_transport_tickets"}}, {"type": "node", "id": 10980352006, "lat": 17.4328512, "lon": 78.5033398, "tags": {"amenity": "fast_food", "fast_food": "cafeteria"}}, {"type": "node", "id": 10980353465, "lat": 17.4335071, "lon": 78.5027612, "tags": {"amenity": "fast_food", "description": "Catering Stalls in SC Station", "fast_food": "cafeteria", "name": "Catering"}}, {"type": "node", "id": 10980353466, "lat": 17.4335217, "lon": 78.5027758, "tags": {"amenity": "fast_food", "description": "Catering Stalls in SC Station", "fast_food": "cafeteria", "name": "Catering"}}, {"type": "node", "id": 10980353467, "lat": 17.4333291, "lon": 78.5020455, "tags": {"amenity": "fast_food", "description": "Catering Stalls in SC Station", "fast_food": "cafeteria", "name": "Catering"}}, {"type": "node", "id": 10980353468, "lat": 17.4333657, "lon": 78.5017807, "tags": {"amenity": "fast_food", "description": "Catering Stalls in SC Station", "fast_food": "cafeteria", "name": "Catering"}}, {"type": "node", "id": 10980353469, "lat": 17.4334066, "lon": 78.5017782, "tags": {"amenity": "fast_food", "description": "Catering Stalls in SC Station", "fast_food": "cafeteria", "name": "Catering"}}, {"type": "node", "id": 10980353470, "lat": 17.4330793, "lon": 78.5012389, "tags": {"amenity": "fast_food", "description": "Catering Stalls in SC Station", "fast_food": "cafeteria", "name": "Catering"}}, {"type": "node", "id": 10980353471, "lat": 17.4329347, "lon": 78.5006213, "tags": {"amenity": "fast_food", "description": "Catering Stalls in SC Station", "fast_food": "cafeteria", "name": "Catering"}}, {"type": "node", "id": 10980353472, "lat": 17.4332662, "lon": 78.5004232, "tags": {"amenity": "fast_food", "description": "Catering Stalls in SC Station", "fast_food": "cafeteria", "name": "Catering"}}, {"type": "node", "id": 10980353473, "lat": 17.433375, "lon": 78.5012858, "tags": {"amenity": "fast_food", "description": "Catering Stalls in SC Station", "fast_food": "cafeteria", "name": "Catering"}}, {"type": "node", "id": 10980353474, "lat": 17.4333445, "lon": 78.5013225, "tags": {"amenity": "fast_food", "description": "Catering Stalls in SC Station", "fast_food": "cafeteria", "name": "Catering"}}, {"type": "node", "id": 10980353475, "lat": 17.4334137, "lon": 78.5016711, "tags": {"amenity": "fast_food", "description": "Catering Stalls in SC Station", "fast_food": "cafeteria", "name": "Catering"}}, {"type": "node", "id": 10980353476, "lat": 17.4334959, "lon": 78.5020135, "tags": {"amenity": "fast_food", "description": "Catering Stalls in SC Station", "fast_food": "cafeteria", "name": "Catering"}}, {"type": "node", "id": 10980353477, "lat": 17.4335042, "lon": 78.5020689, "tags": {"amenity": "fast_food", "description": "Catering Stalls in SC Station", "fast_food": "cafeteria", "name": "Catering"}}, {"type": "node", "id": 10980353478, "lat": 17.4336907, "lon": 78.5027702, "tags": {"amenity": "fast_food", "description": "Catering Stalls in SC Station", "fast_food": "cafeteria", "name": "Catering"}}, {"type": "node", "id": 10980353479, "lat": 17.4337807, "lon": 78.5031514, "tags": {"amenity": "fast_food", "description": "Catering Stalls in SC Station", "fast_food": "cafeteria", "name": "Catering"}}, {"type": "node", "id": 10980353480, "lat": 17.4332123, "lon": 78.5035922, "tags": {"amenity": "fast_food", "description": "Catering Stalls in SC Station", "fast_food": "cafeteria", "name": "Catering"}}, {"type": "node", "id": 10980353481, "lat": 17.4331156, "lon": 78.5031087, "tags": {"amenity": "fast_food", "description": "Catering Stalls in SC Station", "fast_food": "cafeteria", "name": "Catering"}}, {"type": "node", "id": 10980353482, "lat": 17.4330032, "lon": 78.5018187, "tags": {"amenity": "fast_food", "description": "Catering Stalls in SC Station", "fast_food": "cafeteria", "name": "Catering"}}, {"type": "node", "id": 10980353483, "lat": 17.4328038, "lon": 78.5016649, "tags": {"amenity": "fast_food", "description": "Catering Stalls in SC Station", "fast_food": "cafeteria", "name": "Catering"}}, {"type": "node", "id": 10980353484, "lat": 17.4327939, "lon": 78.5016324, "tags": {"amenity": "fast_food", "description": "Catering Stalls in SC Station", "fast_food": "cafeteria", "name": "Catering"}}, {"type": "node", "id": 10980353485, "lat": 17.4325705, "lon": 78.5015765, "tags": {"amenity": "fast_food", "description": "Catering Stalls in SC Station", "fast_food": "cafeteria", "name": "Catering"}}, {"type": "node", "id": 10980353486, "lat": 17.4327897, "lon": 78.5024405, "tags": {"amenity": "fast_food", "description": "Catering Stalls in SC Station", "fast_food": "cafeteria", "name": "Catering"}}, {"type": "node", "id": 10980353487, "lat": 17.4328588, "lon": 78.5026562, "tags": {"amenity": "fast_food", "description": "Catering Stalls in SC Station", "fast_food": "cafeteria", "name": "Catering"}}, {"type": "node", "id": 10980353488, "lat": 17.4328799, "lon": 78.5027438, "tags": {"amenity": "fast_food", "description": "Catering Stalls in SC Station", "fast_food": "cafeteria", "name": "Catering"}}, {"type": "node", "id": 10980353489, "lat": 17.4326877, "lon": 78.5026921, "tags": {"amenity": "fast_food", "description": "Catering Stalls in SC Station", "fast_food": "cafeteria", "name": "Catering"}}, {"type": "node", "id": 10980353490, "lat": 17.4329306, "lon": 78.502982, "tags": {"amenity": "fast_food", "description": "Catering Stalls in SC Station", "fast_food": "cafeteria", "name": "Catering"}}, {"type": "node", "id": 10980353491, "lat": 17.4330612, "lon": 78.5034528, "tags": {"amenity": "fast_food", "description": "Catering Stalls in SC Station", "fast_food": "cafeteria", "name": "Catering"}}, {"type": "node", "id": 10980353492, "lat": 17.433083, "lon": 78.5004417, "tags": {"amenity": "fast_food", "description": "Catering Stalls in SC Station", "fast_food": "cafeteria", "name": "Catering"}}, {"type": "node", "id": 10980353493, "lat": 17.4327507, "lon": 78.5005321, "tags": {"amenity": "fast_food", "description": "Catering Stalls in SC Station", "fast_food": "cafeteria", "name": "Catering"}}, {"type": "node", "id": 10980353494, "lat": 17.4329274, "lon": 78.501385, "tags": {"amenity": "fast_food", "description": "Catering Stalls in SC Station", "fast_food": "cafeteria", "name": "Catering"}}, {"type": "node", "id": 10980353495, "lat": 17.4330513, "lon": 78.5020115, "tags": {"amenity": "fast_food", "description": "Catering Stalls in SC Station", "fast_food": "cafeteria", "name": "Catering"}}, {"type": "node", "id": 10980353496, "lat": 17.4330506, "lon": 78.5027498, "tags": {"amenity": "fast_food", "description": "Catering Stalls in SC Station", "fast_food": "cafeteria", "name": "Catering"}}, {"type": "node", "id": 10980353497, "lat": 17.4335292, "lon": 78.5035205, "tags": {"amenity": "fast_food", "description": "Catering Stalls in SC Station", "fast_food": "cafeteria", "name": "Catering"}}, {"type": "node", "id": 10980353498, "lat": 17.4331928, "lon": 78.5001207, "tags": {"amenity": "fast_food", "description": "Catering Stalls in SC Station", "fast_food": "cafeteria", "name": "Catering"}}, {"type": "node", "id": 10980353499, "lat": 17.4332653, "lon": 78.5003984, "tags": {"amenity": "fast_food", "description": "Catering Stalls in SC Station", "fast_food": "cafeteria", "name": "Catering"}}, {"type": "node", "id": 10980353500, "lat": 17.4336501, "lon": 78.5019052, "tags": {"amenity": "fast_food", "description": "Catering Stalls in SC Station", "fast_food": "cafeteria", "name": "Catering"}}, {"type": "node", "id": 10980353501, "lat": 17.4336496, "lon": 78.5019507, "tags": {"amenity": "fast_food", "description": "Catering Stalls in SC Station", "fast_food": "cafeteria", "name": "Catering"}}, {"type": "node", "id": 10980353502, "lat": 17.4338001, "lon": 78.5026819, "tags": {"amenity": "fast_food", "description": "Catering Stalls in SC Station", "fast_food": "cafeteria", "name": "Catering"}}, {"type": "node", "id": 10980353503, "lat": 17.4326908, "lon": 78.5026786, "tags": {"amenity": "fast_food", "description": "Catering Stalls in SC Station", "fast_food": "cafeteria", "name": "Catering"}}, {"type": "node", "id": 10992500545, "lat": 17.4324529, "lon": 78.4865033, "tags": {"amenity": "bus_station", "bus": "yes", "name": "TSRTC BUS DEPOT, RANIGUNJ", "public_transport": "station"}}, {"type": "node", "id": 10992500546, "lat": 17.4340378, "lon": 78.506033, "tags": {"amenity": "bus_station", "bus": "yes", "public_transport": "station"}}, {"type": "node", "id": 10992500547, "lat": 17.4467095, "lon": 78.4981912, "tags": {"amenity": "bus_station", "bus": "yes", "name": "TSRTC BUS DEPOT, CANTONMENT", "public_transport": "station"}}, {"type": "node", "id": 10992500548, "lat": 17.4477249, "lon": 78.4980658, "tags": {"amenity": "bus_station", "bus": "yes", "name": "TSRTC JUBLEE BUS STAND", "public_transport": "station"}}, {"type": "node", "id": 10992500549, "lat": 17.4477869, "lon": 78.4991587, "tags": {"amenity": "bus_station", "bus": "yes", "name": "TSRTC BUS DEPOT , JUBLEE BUS STAND", "public_transport": "station"}}, {"type": "node", "id": 10994481193, "lat": 17.4273299, "lon": 78.4992443, "tags": {"addr:district": "Hyderabad", "addr:place": "Secunderabad", "addr:state": "Telangana", "addr:street": "Bhoiguda", "addr:subdistrict": "Musheerabad", "amenity": "clinic", "healthcare": "clinic", "name": "Urban Primary Health Centre, Bhoiguda", "operational_status": "operational", "operator:type": "government", "source": "OpenDataTelangana"}}, {"type": "node", "id": 11001458684, "lat": 17.4252058, "lon": 78.502184, "tags": {"addr:district": "Hyderabad", "addr:place": "Secunderabad", "addr:state": "Telangana", "addr:street": "M.I.G.H colony", "addr:subdistrict": "Secunderabad", "amenity": "health_post", "healthcare": "yes", "name": "Hamali Basthi, Bansilalpet (Basti Dawakhana)", "operational_status": "operational", "operator:type": "government", "source": "OpenDataTelangana"}}, {"type": "node", "id": 11001495387, "lat": 17.4302213, "lon": 78.5107232, "tags": {"addr:district": "Hyderabad", "addr:place": "Musheerabad", "addr:state": "Telangana", "addr:street": "Srinivas Nagar", "addr:subdistrict": "Musheerabad", "amenity": "clinic", "healthcare": "clinic", "name": "Urban Primary Health Centre, Chilakalguda", "operational_status": "operational", "operator:type": "government", "source": "OpenDataTelangana"}}, {"type": "node", "id": 11001531091, "lat": 17.4269859, "lon": 78.4973943, "tags": {"addr:district": "Hyderabad", "addr:place": "Secunderabad, Telangana 500003", "addr:state": "Telangana", "addr:street": "Gandhi Nagar, Bhoiguda,", "addr:subdistrict": "Secunderabad", "amenity": "health_post", "healthcare": "yes", "name": "Bapujinagar community hall, (Basti Dawakhana)", "operational_status": "operational", "operator:type": "government", "source": "OpenDataTelangana"}}, {"type": "node", "id": 11001533718, "lat": 17.4284047, "lon": 78.4979703, "tags": {"addr:district": "Hyderabad", "addr:place": "Musheerabad", "addr:state": "Telangana", "addr:street": "Near Goshal", "addr:subdistrict": "Musheerabad", "amenity": "clinic", "healthcare": "clinic", "name": "Urban Primary Health Centre, Bible House", "operational_status": "operational", "operator:type": "government", "source": "OpenDataTelangana"}}, {"type": "node", "id": 11001535091, "lat": 17.4328626, "lon": 78.4871744, "tags": {"addr:district": "Hyderabad", "addr:place": "Secunderabad", "addr:state": "Telangana", "addr:street": "James Street Railway Station", "addr:subdistrict": "Secunderabad", "amenity": "clinic", "healthcare": "clinic", "name": "Urban Primary Health Centre, Dr.Paul Das", "operational_status": "operational", "operator:type": "private", "source": "OpenDataTelangana"}}, {"type": "node", "id": 11001538574, "lat": 17.4349648, "lon": 78.497757, "tags": {"addr:district": "Hyderabad", "addr:place": "Chapalbai , Mondamarket, Secendrabad (", "addr:state": "Telangana", "addr:street": "Chapalbai , Mondamarket, Secendrabad (", "addr:subdistrict": "Secunderabad", "amenity": "health_post", "healthcare": "yes", "name": "Chapalbai , Mondamarket, Secendrabad (Basthi Dawakhana)", "operational_status": "operational", "operator:type": "government", "source": "OpenDataTelangana"}}, {"type": "node", "id": 11001543630, "lat": 17.4348048, "lon": 78.4901328, "tags": {"addr:district": "Hyderabad", "addr:place": "Ranigunj", "addr:state": "Telangana", "addr:street": "Ranigunj", "addr:subdistrict": "Secunderabad", "amenity": "clinic", "healthcare": "clinic", "name": "Urban Primary Health Centre, Pan Bazar", "operational_status": "operational", "operator:type": "government", "source": "OpenDataTelangana"}}, {"type": "node", "id": 11001545015, "lat": 17.434364, "lon": 78.5015624, "tags": {"addr:district": "Hyderabad", "addr:place": "Himayath Nagar", "addr:state": "Telangana", "addr:street": "Hyderguda", "addr:subdistrict": "Himayatnagar", "amenity": "doctors", "healthcare": "doctor", "name": "Government Homoeo Dispensary, OLD MLA Qtrs", "operational_status": "operational", "operator:type": "government", "source": "OpenDataTelangana"}}, {"type": "node", "id": 11133383624, "lat": 17.4242594, "lon": 78.51593, "tags": {"amenity": "bank", "name": "HDFC Bank, Seethaphalmandi Branch"}}, {"type": "way", "id": 71932256, "nodes": [854960941, 3147189451, 854960945, 854960956, 854960959, 854960963, 3147189452, 854960941], "tags": {"amenity": "college", "name": "swami Vivekananda institute of technology", "name:etymology:wikidata": "Q47478", "name:te": "Swami Vivekananda institute of technology"}}, {"type": "way", "id": 75097506, "nodes": [886337190, 886337194, 886337197, 886337202, 886337205, 886337190], "tags": {"amenity": "school", "name": "Keyes High School"}}, {"type": "way", "id": 75382282, "nodes": [890130387, 890130393, 890130395, 890130397, 890130399, 890130400, 890130401, 890130402, 890130403, 890130404, 890130405, 890130387], "tags": {"amenity": "college", "description": "Postgraduate College of Secunderabad", "name": "PG College"}}, {"type": "way", "id": 79911348, "nodes": [932859836, 932859838, 932859860, 932859836], "tags": {"amenity": "cinema", "name": "Tivoli Extreme Cinema"}}, {"type": "way", "id": 109974900, "nodes": [1257610303, 1257610302, 1257610301, 1257610296, 1257610300, 1257610299, 1257610303], "tags": {"amenity": "parking"}}, {"type": "way", "id": 136990795, "nodes": [1502798813, 1502798800, 1502798799, 1502798806, 1502798813], "tags": {"amenity": "college", "description": "Government Institute of Electronics is a polytechnic college", "name": "Govt Institue of Electronics", "website": "http://secunderabadgioepoly.nic.in"}}, {"type": "way", "id": 136990796, "nodes": [1502798805, 1502798803, 1502798802, 1502798804, 1502798805], "tags": {"amenity": "college"}}, {"type": "way", "id": 176133766, "nodes": [1866942818, 1866942817, 1866942819, 1866942820, 1866942818], "tags": {"amenity": "school", "name": "Jain Vidyalay"}}, {"type": "way", "id": 176133866, "nodes": [1866944234, 1866944232, 1866944231, 1866944233, 1866944234], "tags": {"amenity": "place_of_worship", "name": "Tadbund Hanuman Temple", "religion": "hindu"}}, {"type": "way", "id": 256684633, "nodes": [2623238085, 2623239335, 2623239338, 2623238088, 2623240027, 2623238090, 4146119497, 2623238085]}, {"type": "way", "id": 256686035, "nodes": [2623253895, 2623253896, 2623253897, 2623253898, 2623253895], "tags": {"amenity": "place_of_worship", "building": "yes"}}, {"type": "way", "id": 256686042, "nodes": [4146119509, 2623253919, 4146119498, 2623238092, 4146119509], "tags": {"amenity": "cafe", "building": "yes", "name": "Canteen"}}, {"type": "way", "id": 256721966, "nodes": [2623574124, 2623574125, 2623574126, 2623574127, 2623574128, 2623574129, 2623574130, 2623574131, 2623574124], "tags": {"addr:city": "Secunderabad", "addr:postcode": "500003", "addr:street": "Sarojini Devi Road", "amenity": "theatre", "building": "yes", "name": "Manju Cinema"}}, {"type": "way", "id": 265417390, "nodes": [2710845165, 2710845166, 2710845167, 2710845168, 2710845165], "tags": {"amenity": "fuel", "brand": "Bharat Petroleum", "brand:wikidata": "Q854826", "brand:wikipedia": "en:Bharat Petroleum", "building": "yes", "name": "Bharat Petroleum"}}, {"type": "way", "id": 265428993, "nodes": [3191278264, 2710979365, 2710979367, 2710979368, 3191278264], "tags": {"amenity": "restaurant", "building": "yes", "name": "moksh banquets"}}, {"type": "way", "id": 265429744, "nodes": [2710991851, 2710991852, 2710991853, 2710991854, 2710991851], "tags": {"amenity": "college", "name": "Wesley Boys Junior College"}}, {"type": "way", "id": 274482470, "nodes": [3182218374, 2791962095, 2791962088, 3681791856, 3681791850, 2791962080, 2791962082, 2791962076, 3182222862, 2791962060, 2791962057, 6598094227, 6598094228, 6598094229, 6598094230, 3182207744, 3182218374], "tags": {"addr:district": "Hyderabad", "addr:full": "1-8-31/1, Minister Rd, Krishna Nagar Colony, Begumpet, Secunderabad", "addr:postcode": "500003", "addr:state": "Telangana", "addr:street": "Minister Road", "alt_name": "Krishna Institute Of Medical Sciences", "amenity": "hospital", "email": "assistance@kimshospitals.com", "emergency_telephone_code": "9849990401", "health_facility:type": "24 hours Ambulance service;Round the clock pharmacy;Diagnostic centreCritical and Intensive Care;Epilepsy Clinic;Fertility CentreHair TransplantObesity ClinicPalliative CareProstatic ClinicRehabilitation CentreStroke ClinicWellness Clinic", "healthcare": "hospital", "healthcare:speciality": "multi specialty", "medical_system": "Allopathic", "name": "KIMS Hospital", "operator:type": "private", "phone": "040 44885000;040 44885184", "source": "OpenGovernmentData", "website": "www.kimshospitals.com"}}, {"type": "way", "id": 274794922, "nodes": [2794625656, 2794625659, 2794625662, 2794625664, 2794625656], "tags": {"addr:postcode": "500003", "addr:street": "Prenderghast Road", "amenity": "place_of_worship", "building": "yes", "denomination": "ismaili", "name": "Shia Imami Ismaili Khoja Jamatkhana", "religion": "muslim", "subdenomination": "khoja"}}, {"type": "way", "id": 274796764, "nodes": [2794648002, 2794648003, 2794648004, 2794648005, 2792122618, 2792122615, 2794648008, 2794648009, 2794648010, 2794648002], "tags": {"amenity": "college", "name": "Wesley Degree College"}}, {"type": "way", "id": 274798850, "nodes": [3661096863, 3661096862, 3661096861, 3661096860, 3661096859, 2794664326, 2794664327, 2794664328, 2794664329, 7644477016, 2794664330, 7644477013, 2794664332, 7644477014, 2794664331, 7644477015, 3661096863], "tags": {"amenity": "restaurant", "building": "yes", "cuisine": "regional,_biriyani,_mughlai, indian, bakery", "name": "Paradise Hotel"}}, {"type": "way", "id": 282025239, "nodes": [2859741873, 2859741872, 2859741871, 2859741870, 2859741873], "tags": {"amenity": "public_building", "name": "walker town"}}, {"type": "way", "id": 288592787, "nodes": [2921460715, 2921460712, 3393374929, 2921460710, 2921460711, 2921460713, 2921460715], "tags": {"amenity": "college", "name": "College of Air and Land Warfare"}}, {"type": "way", "id": 297032974, "nodes": [2623238096, 2623238111, 2623238098, 2623238100, 2623238101, 2623238103, 2623238105, 2623238107, 2623238108, 2623238109, 2623238096]}, {"type": "way", "id": 341366884, "nodes": [3485578427, 3485578428, 3485578429, 3485578430, 3485578427], "tags": {"amenity": "cafe", "building": "yes", "cuisine": "regional", "name": "RIO"}}, {"type": "way", "id": 341367536, "nodes": [3485594751, 3485594752, 3485594753, 3485594754, 3485594751], "tags": {"amenity": "place_of_worship", "building": "yes", "name": "Ganesh temple", "religion": "hindu"}}, {"type": "way", "id": 341367803, "nodes": [3485602743, 3485602744, 3485602745, 3485602746, 3485602743], "tags": {"amenity": "place_of_worship", "building": "yes", "name": "bhoo lakshmi temple", "religion": "hindu"}}, {"type": "way", "id": 341369246, "nodes": [3485621635, 3485621636, 3485621637, 3485621638, 3485621635], "tags": {"amenity": "social_facility", "building": "yes", "name": "tiffen centre", "social_facility": "food_bank"}}, {"type": "way", "id": 356180201, "nodes": [3616810636, 3616810622, 3616810583, 3616810590, 3616810636], "tags": {"amenity": "restaurant", "building": "yes", "cuisine": "indian;kebab;steak_house;ice_cream;barbecue;regional;chicken;coffee_shop;mughlai", "delivery": "yes", "name": "Grill 9", "outdoor_seating": "no", "smoking": "isolated", "takeaway": "yes"}}, {"type": "way", "id": 356279926, "nodes": [3617415313, 3617415308, 3617414879, 3617414881, 3617415313], "tags": {"addr:city": "secunderabad", "addr:postcode": "500009", "addr:street": "Wahab Nagar", "amenity": "place_of_worship", "building": "yes", "religion": "hindu"}}, {"type": "way", "id": 356418532, "nodes": [3618839517, 3618839514, 3618839281, 3618839273, 3618839292, 3618839288, 3618839259, 3618839266, 3618839517], "tags": {"amenity": "school", "building": "yes", "grades": "1-10", "name": "Mudfort School", "operator": "Government", "operator:type": "government"}}, {"type": "way", "id": 356439313, "nodes": [3618962778, 3618962770, 3618962720, 3618962732, 3618962778], "tags": {"addr:postcode": "500003", "addr:street": "Sarojini Devi Road", "amenity": "fuel", "name": "Indian Oil Petrol Pump", "opening_hours": "10:00-22:00"}}, {"type": "way", "id": 356439747, "nodes": [3618963919, 3618963914, 6185287784, 3618963151, 3618963164, 3618963919], "tags": {"addr:district": "Hyderabad", "addr:full": "Alexander Road", "addr:postcode": "500003", "addr:state": "Telangana", "amenity": "hospital", "fax": "040 27703999", "health_facility:type": "Surgical Suites;Trauma Center;Intensive Care Units;Surgical Observation Unit;Rehabilitation Services Department", "healthcare": "hospital", "healthcare:speciality": "multi specialty", "medical_system": "Allopathic", "name": "Yashoda Super Speciality Hospital - secunderabad", "operator:type": "private", "phone": "040 45674567", "source": "OpenGovernmentData", "website": "https://www.yashodahospitals.com/"}}, {"type": "way", "id": 356453894, "nodes": [3619028604, 3619028602, 3619028596, 3619028599, 3619028604], "tags": {"addr:city": "secunderabad", "addr:street": "Mudfort", "amenity": "place_of_worship", "building": "yes", "name": "St Anthony Church", "religion": "christian"}}, {"type": "way", "id": 356548444, "nodes": [3619550068, 3619550003, 3619549990, 3619550048, 3619550068], "tags": {"addr:city": "Hyderabad", "addr:full": "St. Johns Road, Opposite Railway Reservation Counter Lane, Beside Ramakrishna Hotel, Railway Colony, Chilakalguda, Secunderabad", "addr:postcode": "500025", "addr:state": "Telangana", "addr:street": "Station Road", "addr:unit": "1", "amenity": "hospital", "building": "yes", "building:levels": "3", "contact:phone": "040 27833388 ; 040 46460000", "healthcare": "hospital", "name": "SRIKARA HOSPITALS", "operator:type": "private", "source": "OpenGovernmentData", "website": "https://www.srikarahospitals.com/"}}, {"type": "way", "id": 356556815, "nodes": [3619607044, 3619607032, 3619607034, 3619607045, 3619607044], "tags": {"amenity": "police", "building": "yes", "name": "Ramgopalpet old police station"}}, {"type": "way", "id": 357088766, "nodes": [3624601018, 3624601016, 3624601015, 3624601017, 3624601018], "tags": {"addr:city": "Secunderabad", "addr:housenumber": "8-2-207/208", "addr:postcode": "500003", "addr:street": "Paranjyothi Street", "amenity": "school", "name": "Tagore's Home New Era Institute Secondary School"}}, {"type": "way", "id": 357088896, "nodes": [3624601063, 3624601058, 3624601045, 3624601046, 3624601039, 3624601040, 3624601048, 3624601050, 3624601063], "tags": {"amenity": "place_of_worship", "building": "church", "religion": "christian"}}, {"type": "way", "id": 357093875, "nodes": [3624642395, 3624642425, 3624642325, 3624642329, 3624642266, 3624642256, 3624642247, 3624642228, 3624642231, 3624642227, 3624642258, 3624642251, 3624642297, 3624642304, 3624642395], "tags": {"amenity": "cinema", "building": "yes", "name": "Suresh Theatre"}}, {"type": "way", "id": 357101267, "nodes": [3624692314, 3624692313, 3624692298, 3624692297, 3624692073, 3624692074, 3624692083, 3624692084, 3624692091, 3624692092, 3624692314], "tags": {"addr:district": "Hyderabad", "addr:full": "Penderghast Road, Opposite Parsi Dharamsala, Behind Paradise Hotel, Secunderabad", "addr:postcode": "500003", "addr:state": "Telangana", "amenity": "hospital", "building": "yes", "emergency_telephone_code": "8008102102", "fax": "040 27890091", "healthcare": "hospital", "healthcare:speciality": "Anesthesiology;Cardiac Anesthesia;Cardiology;Interventional Cardiology;Pediatric;Cardiothoracic;Surgery", "medical_system": "Allopathic", "name": "Sunshine Heart Institute", "operator:type": "private", "phone": "040 43444555;040 43444555", "source": "OpenGovernmentData", "website": "http://www.sunshineheartinstitute.com"}}, {"type": "way", "id": 357101269, "nodes": [3624692732, 3624692736, 3624692720, 3624692717, 3624692705, 3624692704, 3624692392, 3624692390, 3624692374, 3624692375, 3624692367, 3624692365, 3624692732], "tags": {"amenity": "school", "building": "yes", "name": "Geetanjali School"}}, {"type": "way", "id": 357101676, "nodes": [3624691538, 3624691563, 3624691532, 3624691519, 3624691538], "tags": {"amenity": "hospital", "building": "hospital", "name": "Sunshine Hospitals Out Patient Care"}}, {"type": "way", "id": 357101828, "nodes": [3624694461, 3624694465, 3624694442, 3624694444, 3624694438, 3624694434, 3624694435, 3624694461], "tags": {"amenity": "place_of_worship", "building": "yes", "name": "lord shiva temple", "religion": "hindu"}}, {"type": "way", "id": 360664849, "nodes": [3652228418, 3652228416, 3652228398, 3652228414, 3652228418], "tags": {"amenity": "place_of_worship", "building": "church", "name": "St. Andrew's Church Secunderbad", "religion": "christian"}}, {"type": "way", "id": 360822944, "nodes": [3653736798, 8013345067, 3653736784, 3653736746, 3653736755, 3653736768, 3653736775, 6942502497, 3653736798], "tags": {"amenity": "place_of_worship", "name": "Ganesh Temple", "religion": "hindu"}}, {"type": "way", "id": 360854043, "nodes": [3654090582, 3654090586, 3654090583, 3654090581, 3654090580, 3654090579, 3654090582], "tags": {"amenity": "clinic", "building": "yes", "name": "Sweekar Upkar"}}, {"type": "way", "id": 360984466, "nodes": [3655193114, 3655193099, 3655193068, 3655193075, 3655193114], "tags": {"amenity": "hospital", "healthcare": "hospital", "name": "Healing touch hospital", "name:te": "\u0c39\u0c40\u0c32\u0c3f\u0c02\u0c17\u0c4d \u0c1f\u0c1a\u0c4d \u0c39\u0c3e\u0c38\u0c4d\u0c2a\u0c3f\u0c1f\u0c32\u0c4d"}}, {"type": "way", "id": 360984610, "nodes": [3655194041, 3655193071, 3655193081, 3655194060, 3655194041], "tags": {"amenity": "college", "building": "college", "name": "Government Junior Boys College", "name:en": "Government Junior Boys College", "name:te": "\u0c17\u0c35\u0c30\u0c4d\u0c28\u0c2e\u0c46\u0c02\u0c1f\u0c4d \u0c1c\u0c42\u0c28\u0c3f\u0c2f\u0c30\u0c4d \u0c2c\u0c3e\u0c2f\u0c4d\u0c38\u0c4d \u0c15\u0c3e\u0c32\u0c47\u0c1c\u0c40"}}, {"type": "way", "id": 360984755, "nodes": [3655194680, 3655194679, 8013332795, 3655194674, 3655194671, 3655194661, 8013332800, 8013332799, 8013332798, 8013332797, 3655194664, 8013332796, 3655194680], "tags": {"amenity": "place_of_worship", "name": "New Life Assembly of God (AG)", "religion": "christian"}}, {"type": "way", "id": 361005689, "nodes": [3655369064, 3655369061, 3655369040, 3655369039, 3655369027, 3655369029, 3655369064], "tags": {"addr:city": "Hyderabad", "addr:postcode": "500003", "addr:street": "Sardar Patel Rd", "amenity": "kindergarten", "level": "0", "name": "St. Ann's School Junior Wing Grounds", "operator": "St. Ann's High School", "wheelchair": "yes"}}, {"type": "way", "id": 361374171, "nodes": [3658594115, 3658594114, 3658594103, 3658594102, 3658594112, 3658594110, 3658594093, 3658594095, 3658594100, 3658594101, 3658594115], "tags": {"amenity": "clinic", "building": "yes", "name": "Sweekar Upkar"}}, {"type": "way", "id": 361374180, "nodes": [3658594266, 3658594238, 3658594218, 3658594230, 3658594233, 3658594241, 3658594247, 3658594252, 3658594237, 3658594226, 3658594192, 3658594208, 3658594246, 3658594251, 3658594258, 3658594254, 525059781, 3658594262, 3658594266], "tags": {"amenity": "cinema", "building": "yes", "name": "Tivoli Cinema"}}, {"type": "way", "id": 361380637, "nodes": [3658643017, 3658643125, 3658643018, 3658643016, 3658643017], "tags": {"amenity": "restaurant", "building": "commercial", "cuisine": "chinese;indian", "level": "2", "name": "Mujtaba Grills"}}, {"type": "way", "id": 361507579, "nodes": [3659715184, 3659715183, 3659715181, 3659715182, 3659715184], "tags": {"amenity": "restaurant", "building": "yes", "cuisine": "indian", "name": "Alfa Hotel", "name:en": "Alfa cafe"}}, {"type": "way", "id": 361655217, "nodes": [3661096839, 4614088294, 3661096857, 3661096858, 3661096855, 3661096856, 3661096853, 3661096854, 3661096852, 4614088292, 3661096850, 3661096847, 4614088291, 4614088293, 3661096845, 4614088290, 3661096840, 3661096838, 3661096839], "tags": {"addr:district": "Hyderabad", "addr:full": "Penderghast Road, Opposite Parsi Dharamsala, Behind Paradise Hotel, Sappu Bagh Apaprtment, Jogani, Ramgopalpet", "addr:postcode": "500003", "addr:state": "Telangana", "amenity": "hospital", "building": "yes", "emergency_telephone_code": "8008108108", "health_facility:type": "Trauma Care and Emergency Services;Bariatric Surgery;Biochemistry;Blood Bank", "healthcare": "hospital", "healthcare:speciality": "multi speciality", "medical_system": "Allopathic", "name": "Sunshine Hospital", "operator:type": "private", "phone": "040 44550000", "source": "OpenGovernmentData", "website": "www.sunshinehospitals.com"}}, {"type": "way", "id": 361861434, "nodes": [3662779513, 3662779514, 3662779515, 3662779516, 3662779513], "tags": {"amenity": "place_of_worship", "building": "yes"}}, {"type": "way", "id": 391488596, "nodes": [3947022834, 3947022830, 3947022829, 3947022835, 3947022834], "tags": {"amenity": "place_of_worship", "religion": "hindu"}}, {"type": "way", "id": 391488598, "nodes": [3947022842, 3947022840, 3947022839, 3947022841, 3947022842], "tags": {"addr:city": "Secunderabad", "addr:place": "Sindhi Colony", "addr:postcode": "500003", "addr:street": "Prenderghast Road", "amenity": "bank", "atm": "no", "brand:wikidata": "Q1340361", "brand:wikipedia": "en:State Bank of India", "building": "yes", "name": "State Bank of India", "short_name": "SBI", "website": "https://www.sbi.co.in"}}, {"type": "way", "id": 410554609, "nodes": [4123648937, 4123648934, 4123648935, 4123648944, 4123648937], "tags": {"amenity": "cinema", "building": "yes", "name": "Sri Devi Theatre"}}, {"type": "way", "id": 412914643, "nodes": [4142413040, 4142413059, 4142413053, 4142413037, 4142413040], "tags": {"amenity": "place_of_worship", "building": "yes", "building:levels": "3", "name": "lord shiva temple", "religion": "hindu"}}, {"type": "way", "id": 413246523, "nodes": [4146007241, 4146007239, 4146007233, 4146007235, 4146007241], "tags": {"amenity": "parking"}}, {"type": "way", "id": 413246550, "nodes": [4146007203, 4146007201, 4146007084, 4146007191, 4146007203], "tags": {"addr:district": "Hyderabad", "addr:full": "8-2-186, Near Passport Office, Secunderabad", "addr:postcode": "500003", "addr:state": "Telangana", "amenity": "hospital", "building": "yes", "fax": "040-66262388; 040-27131920", "health_facility:type": "AMCU Units;Medical Equipments;Operation Theaters;Emergency and CriticalCare;Ortho and Trauma Care;Maternity Unit;Ambulance;Pharmacy", "healthcare": "hospital", "healthcare:speciality": "multi speciality", "medical_system": "Allopathic", "name": "Vijaya Health Care", "operator:type": "private", "phone": "040 67362929;040 66262927", "source": "OpenGovernmentData", "website": "http://www.vijayahealthcare.com"}}, {"type": "way", "id": 413268416, "nodes": [4146185286, 4146188499, 4146188495, 4146188493, 4146188491, 4146185285, 4146185286], "tags": {"amenity": "bank", "atm": "yes", "building": "yes", "name": "SVC Bank"}}, {"type": "way", "id": 413304820, "nodes": [4146434975, 4146434995, 4146434994, 4146434972, 4146434975], "tags": {"amenity": "place_of_worship", "building": "church", "name": "Millenium Methodist Church", "religion": "christian"}}, {"type": "way", "id": 413311009, "nodes": [4146479976, 4146479975, 4146479964, 4146479965, 4146479976], "tags": {"addr:district": "Hyderabad", "addr:full": "Near Clock Tower, Market Street, Secunderabad", "addr:postcode": "500003", "addr:state": "Telangana", "amenity": "hospital", "email": "info@carehospitals.com", "healthcare": "hospital", "name": "Care Hospitals - Secunderabad", "name:te": "\u0c15\u0c47\u0c30\u0c4d \u0c39\u0c3e\u0c38\u0c4d\u0c2a\u0c3f\u0c1f\u0c32\u0c4d", "phone": "040-30114500", "source": "OpenGovernmentData", "website": "https://www.carehospitals.com"}}, {"type": "way", "id": 413520492, "nodes": [4148327374, 4148327377, 4148327390, 4148327389, 4148327380, 4148327371, 4148327367, 4148327370, 4148327368, 4148327372, 4148327374], "tags": {"amenity": "school", "name": "Kotha yellaiah high school"}}, {"type": "way", "id": 413585727, "nodes": [4148792655, 4148792644, 4148792617, 4148792627, 4148792655], "tags": {"amenity": "pharmacy", "building": "yes", "dispensing": "yes", "healthcare": "pharmacy", "name": "surya medicals"}}, {"type": "way", "id": 413606271, "nodes": [4148957397, 4148957388, 4148957361, 4148957372, 4148957397], "tags": {"amenity": "showroom", "building": "yes"}}, {"type": "way", "id": 413908526, "nodes": [4151251718, 4151251717, 4151251715, 4151251716, 4151251718], "tags": {"amenity": "community_centre", "building": "yes", "name": "Function Hall"}}, {"type": "way", "id": 466833777, "nodes": [4615616807, 4615616806, 4615616805, 4615616804, 4615616807], "tags": {"amenity": "cafe", "building": "yes", "name": "Chai Shai Bar"}}, {"type": "way", "id": 466837666, "nodes": [2794648009, 2794648008, 2792122615, 2792122607, 2792122604, 2792122606, 2794648009], "tags": {"amenity": "college", "name": "CSI Wesley Institute of Technology and Sciences"}}, {"type": "way", "id": 500394333, "nodes": [4914585987, 4914585986, 4914585985, 4914585984, 4914585983, 4914585982, 4914585981, 4914585980, 4914585979, 4914585978, 4914585977, 4914585976, 4914585975, 4914585987], "tags": {"amenity": "marketplace", "landuse": "retail", "name": "Market", "name:te": "\u0c2e\u0c3e\u0c30\u0c4d\u0c15\u0c46\u0c1f\u0c4d"}}, {"type": "way", "id": 500394338, "nodes": [4914586001, 4914586000, 4914585999, 321710431, 4914586001], "tags": {"amenity": "parking"}}, {"type": "way", "id": 500394340, "nodes": [4914586013, 4914586018, 4914586017, 4914586016, 4914586010, 4914586011, 4914586012, 4914586013], "tags": {"amenity": "parking"}}, {"type": "way", "id": 500394341, "nodes": [4914586010, 4914586015, 7279425302, 7279425301, 7279425300, 7279425299, 7279425298, 7279425297, 7279425296, 7279425295, 7279425294, 7279425293, 7279425292, 7279425291, 7279425290, 7279425288, 7279425289, 7279407526, 7279425287, 7279425286, 7279425285, 7279425303, 4914586014, 4914586020, 7279425304, 7279425305, 7279425306, 4914586019, 7279425307, 7279425308, 7279419975, 4914586013, 4914586012, 4914586011, 4914586010], "tags": {"amenity": "parking"}}, {"type": "way", "id": 520468649, "nodes": [5072821279, 5072821280, 5072821281, 5072821282, 5072821283, 5072821287, 5072821286, 5072821284, 5072821285, 5072821279], "tags": {"amenity": "grave_yard", "religion": "muslim"}}, {"type": "way", "id": 536886955, "nodes": [5199965786, 5199965768, 5199965769, 5199965770, 5199965771, 5199965772, 5199965773, 5199965780, 5199965781, 5199965782, 5199965783, 5199965784, 5199965785, 5199965774, 5199965775, 5199965776, 5199965777, 5199965778, 5199965779, 5199965786], "tags": {"amenity": "restaurant", "building": "yes", "capacity": "150", "delivery": "no", "description": "Sanchalan Bhavan Canteen", "name": "Sanchalan Bhavan Canteen", "opening_hours": "Mo-Fr 08:00-17:00", "outdoor_seating": "no", "smoking": "no", "takeaway": "no"}}, {"type": "way", "id": 630995322, "nodes": [5957976497, 5957976498, 5957976499, 5957976500, 5957976497], "tags": {"amenity": "toilets", "building": "yes"}}, {"type": "way", "id": 630995323, "nodes": [5957976501, 5957976502, 5957976503, 5957976504, 5957976501], "tags": {"amenity": "toilets", "building": "yes"}}, {"type": "way", "id": 630995324, "nodes": [5957976500, 5957976505, 5957976506, 5957976507, 5957976508, 5957976509, 5957976500], "tags": {"amenity": "parking_space", "capacity": "1"}}, {"type": "way", "id": 630995325, "nodes": [5957976510, 5957976511, 5957976512, 5957976513, 5957976510], "tags": {"amenity": "place_of_worship", "building": "yes", "name": "Malayalam worship service hall", "religion": "christian"}}, {"type": "way", "id": 630995326, "nodes": [5957976514, 5957976515, 5957976516, 5957976517, 5957976514], "tags": {"amenity": "place_of_worship", "building": "yes", "name": "Telugu worship service hall", "religion": "christian"}}, {"type": "way", "id": 660640102, "nodes": [6185287781, 6185287780, 6185287782, 6185287783, 6185287781], "tags": {"amenity": "parking"}}, {"type": "way", "id": 721078605, "nodes": [6765562757, 6765562756, 6765562762, 6765562768, 6765562775, 6765562782, 6765562751, 6765562757], "tags": {"amenity": "marketplace", "name": "Chilkalguda Market"}}, {"type": "way", "id": 758939663, "nodes": [7088397079, 7088397080, 7088397081, 7088397082, 7088397079], "tags": {"amenity": "place_of_worship", "building": "yes", "name": "Hanuman Temple"}}, {"type": "way", "id": 758941492, "nodes": [7088438498, 7088438499, 7088438500, 7088438501, 7088438498], "tags": {"amenity": "place_of_worship", "building": "yes", "name": "Julamma Temple"}}, {"type": "way", "id": 758967948, "nodes": [7088814385, 7088814386, 7088814387, 7088814388, 7088814385], "tags": {"amenity": "hospital", "healthcare": "hospital"}}, {"type": "way", "id": 859701773, "nodes": [8013337753, 1333758097, 8013337752, 8013337751, 8013337750, 8013337749, 8013337748, 8013337747, 8013337746, 8013337745, 8013337744, 8013337743, 8013337742, 8013337741, 8013337740, 8013337739, 8013337738, 8013337737, 8013337736, 3654091826, 8013337735, 8013337734, 8013337733, 8013337732, 8013337753], "tags": {"amenity": "school", "name": "Kendriya Vidyalaya Picket"}}, {"type": "way", "id": 870710815, "nodes": [8111036420, 8111036421, 8111036422, 8111036423, 8111036420], "tags": {"amenity": "drinking_water", "building": "yes", "content": "water", "man_made": "storage_tank"}}, {"type": "way", "id": 871043889, "nodes": [8113744331, 8113744332, 8113744333, 8113744337, 8113744334, 8113744335, 8113744336, 8113744331], "tags": {"amenity": "fuel"}}, {"type": "way", "id": 871043890, "nodes": [8113744338, 8113744339, 8113744340, 8113744341, 8113744338], "tags": {"amenity": "fuel"}}, {"type": "way", "id": 871051475, "nodes": [8113802711, 8113802712, 8113802713, 8113802714, 8113802711], "tags": {"addr:city": "secunderabad", "addr:street": "Mudfort", "amenity": "place_of_worship", "building": "yes", "name": "Mahakali Temple", "religion": "hindu"}}, {"type": "way", "id": 871051476, "nodes": [8113802715, 8113802716, 8113829917, 8113829918, 8113802715], "tags": {"amenity": "place_of_worship", "building": "mosque", "religion": "muslim"}}, {"type": "way", "id": 889996803, "nodes": [8272799105, 8272799104, 8272799103, 8272799102, 8272799105], "tags": {"amenity": "parking"}}, {"type": "way", "id": 921619662, "nodes": [8556404517, 8556391914, 8556391913, 8473606293, 8556391916, 8556391915, 8042058563, 8042058562, 8556391912, 8042058559, 8042058558, 8556404517], "tags": {"amenity": "school", "name": "Centenary High School"}}, {"type": "way", "id": 965848781, "nodes": [8935105925, 8935105926, 8935105927, 8935105925], "tags": {"access": "permit", "amenity": "parking", "fee": "no", "parking": "surface", "surface": "asphalt"}}, {"type": "way", "id": 965848792, "nodes": [8935106032, 8935106033, 8935106034, 8935106035, 8935106032], "tags": {"access": "permit", "amenity": "parking", "fee": "no", "parking": "surface", "surface": "asphalt"}}, {"type": "way", "id": 965848793, "nodes": [8935106036, 8935106037, 8935106038, 8935106039, 8935106036], "tags": {"access": "permit", "amenity": "parking", "fee": "no", "parking": "surface", "surface": "asphalt"}}, {"type": "way", "id": 965854387, "nodes": [8935145540, 8935145541, 8935145542, 8935145543, 8935145540], "tags": {"amenity": "bus_station", "building": "shed", "bus": "yes", "name": "Aeroexpress Boarding Point", "operator": "TSRTC", "public_transport": "station"}}, {"type": "way", "id": 1155068344, "nodes": [10741975968, 10741975969, 10741975970, 10741975971, 10741975968], "tags": {"amenity": "place_of_worship", "building": "yes", "layer": "1", "religion": "hindu"}}, {"type": "way", "id": 1177107988, "nodes": [4146795969, 4146795962, 4146795963, 4146795959, 4146795960, 4616439356, 4146795964, 4146795966, 4146795970, 4146795976, 4146795973, 4146795980, 4146795979, 4146795984, 4146795983, 4146795975, 4146795969], "tags": {"amenity": "place_of_worship", "basilica": "minor", "building": "church", "denomination": "catholic", "name": "Basilica of Our Lady of the Assumption", "name:fr": "Basilique Notre-Dame-de-l'Assomption", "religion": "christian", "wikidata": "Q4302765", "wikimedia_commons": "Category:Basilica of Our Lady of the Assumption, Secunderabad", "wikipedia": "en:Basilica of Our Lady of the Assumption, Secunderabad"}}, {"type": "relation", "id": 3950843, "members": [{"type": "way", "ref": 256684633, "role": "outer"}, {"type": "way", "ref": 297032974, "role": "inner"}], "tags": {"addr:city": "Secunderabad", "addr:postcode": "500003", "addr:street": "Park Lane", "amenity": "school", "building": "yes", "name": "BRJC Parsi High School", "type": "multipolygon"}}]}