{"version": 0.6, "generator": "Overpass API 0.7.61.5 4133829e", "osm3s": {"timestamp_osm_base": "2024-02-21T13:04:00Z", "copyright": "The data included in this document is from www.openstreetmap.org. The data is made available under ODbL."}, "elements": [{"type": "node", "id": 3470092450, "lat": 17.4828148, "lon": 78.3005579}, {"type": "node", "id": 3470092451, "lat": 17.4828705, "lon": 78.3011834}, {"type": "node", "id": 3470092452, "lat": 17.481874, "lon": 78.3012726}, {"type": "node", "id": 3481552616, "lat": 17.4795719, "lon": 78.2902394}, {"type": "node", "id": 3481552617, "lat": 17.479028, "lon": 78.2902509}, {"type": "node", "id": 3481552618, "lat": 17.4790425, "lon": 78.290997}, {"type": "node", "id": 3481552619, "lat": 17.4795863, "lon": 78.2909854}, {"type": "node", "id": 3481554245, "lat": 17.4799159, "lon": 78.2893231}, {"type": "node", "id": 3481554246, "lat": 17.4799232, "lon": 78.2896812}, {"type": "node", "id": 3481554247, "lat": 17.479606, "lon": 78.2896883}, {"type": "node", "id": 3481554248, "lat": 17.4795987, "lon": 78.2893302}, {"type": "node", "id": 3483463610, "lat": 17.4828473, "lon": 78.2850231}, {"type": "node", "id": 3483463611, "lat": 17.4819799, "lon": 78.2850401}, {"type": "node", "id": 3483463612, "lat": 17.4819468, "lon": 78.2862515}, {"type": "node", "id": 3483463613, "lat": 17.4821566, "lon": 78.2862515}, {"type": "node", "id": 3483463619, "lat": 17.4819658, "lon": 78.2856161}, {"type": "node", "id": 3483463620, "lat": 17.4819818, "lon": 78.2850841}, {"type": "node", "id": 3612738223, "lat": 17.4657615, "lon": 78.2829826}, {"type": "node", "id": 3612738252, "lat": 17.4658228, "lon": 78.2830635}, {"type": "node", "id": 3612738255, "lat": 17.4658339, "lon": 78.2829223}, {"type": "node", "id": 3612738276, "lat": 17.4658952, "lon": 78.2830032}, {"type": "node", "id": 3614183340, "lat": 17.4731766, "lon": 78.2957647}, {"type": "node", "id": 3614183364, "lat": 17.4732566, "lon": 78.295999}, {"type": "node", "id": 3614183380, "lat": 17.4733158, "lon": 78.2957125}, {"type": "node", "id": 3614183701, "lat": 17.4733957, "lon": 78.2959468}, {"type": "node", "id": 3614239678, "lat": 17.4735574, "lon": 78.2967959}, {"type": "node", "id": 3614239680, "lat": 17.4737139, "lon": 78.2971763}, {"type": "node", "id": 3614239685, "lat": 17.4737553, "lon": 78.2967065}, {"type": "node", "id": 3614239689, "lat": 17.4739118, "lon": 78.2970869}, {"type": "node", "id": 5072788622, "lat": 17.4690086, "lon": 78.3035143}, {"type": "node", "id": 5072788623, "lat": 17.4680978, "lon": 78.3035572}, {"type": "node", "id": 5072788624, "lat": 17.4681417, "lon": 78.3045927}, {"type": "node", "id": 5072788625, "lat": 17.4690507, "lon": 78.3045302}, {"type": "node", "id": 5261952123, "lat": 17.4736881, "lon": 78.2970565, "tags": {"amenity": "restaurant", "cuisine": "indian", "diet:non-vegetarian": "yes", "diet:organic": "yes", "diet:vegan": "yes", "diet:vegetarian": "yes", "internet_access": "wlan", "name": "Paaka Organic Cafe", "opening_hours": "Mo-Su 08:00-22:30", "phone": "+91 88827 89999"}}, {"type": "node", "id": 6837577293, "lat": 17.477247, "lon": 78.286246, "tags": {"amenity": "ice_cream", "name": "Ice Cream Parlour", "source": "survey"}}, {"type": "node", "id": 7401493579, "lat": 17.4822094, "lon": 78.2959999, "tags": {"addr:housenumber": "MIG-647, MIG Colony, MIG Phase I, Bharat Heavy Electricals Limited, Hyderabad, Telangana 500019", "amenity": "university", "name": "Kidzee Pre-School"}}, {"type": "node", "id": 7401493581, "lat": 17.4785088, "lon": 78.2975931, "tags": {"addr:housenumber": "MIG Colony, MIG Phase I, MIG Colony, Serilingampally, Hyderabad, Telangana 502032", "amenity": "university", "name": "Raos High School"}}, {"type": "node", "id": 7401493583, "lat": 17.4818413, "lon": 78.3006793}, {"type": "node", "id": 7402256579, "lat": 17.4755464, "lon": 78.3029526, "tags": {"addr:housenumber": "Survey No -386, Nallagandla-Tellapur Road Opp. Aditya Eden Park Apts., Nallagandla R.R. Dist., Telangana-19, Hyderabad, Telangana 500019", "amenity": "university", "name": "Sadhana Infinity School"}}, {"type": "node", "id": 10983307669, "lat": 17.4756456, "lon": 78.2932198, "tags": {"addr:district": "Sangareddy", "addr:place": "Tellapur", "addr:state": "Telangana", "addr:street": "MAHILA BHAVAN", "addr:subdistrict": "Ramachandrapuram", "amenity": "health_post", "healthcare": "yes", "name": "BDK MAHILA BHAVAN, INDIRA NAGAR, TELLAPUR", "operational_status": "operational", "operator:type": "government", "source": "OpenDataTelangana"}}, {"type": "node", "id": 11018933821, "lat": 17.4659757, "lon": 78.2842787, "tags": {"addr:district": "Sangareddy", "addr:place": "Tellapur", "addr:state": "Telangana", "addr:street": "Grampanchayath", "addr:subdistrict": "Ramachandrapuram", "amenity": "health_post", "healthcare": "yes", "name": "Subcentre Tellapur", "operational_status": "operational", "operator:type": "government", "source": "OpenDataTelangana"}}, {"type": "node", "id": 11018942186, "lat": 17.4802339, "lon": 78.2855286, "tags": {"addr:district": "Sangareddy", "addr:place": "Rc Puram", "addr:state": "Telangana", "addr:street": "MIG Society office", "addr:subdistrict": "Ramachandrapuram", "amenity": "health_post", "healthcare": "yes", "name": "Subcentre New MIG", "operational_status": "operational", "operator:type": "government", "source": "OpenDataTelangana"}}, {"type": "node", "id": 11018977226, "lat": 17.4638956, "lon": 78.2844852, "tags": {"addr:district": "Medchal Malkajgiri", "addr:place": "Tellapur, Hyderabad", "addr:state": "Telangana", "addr:street": "Tellapur", "amenity": "health_post", "healthcare": "yes", "name": "Gokul Nagar (Basti Dawakhana)", "operational_status": "operational", "operator:type": "government", "source": "OpenDataTelangana"}}, {"type": "way", "id": 339798384, "nodes": [3470092450, 3470092451, 3470092452, 7401493583, 3470092450], "tags": {"addr:housenumber": "2439, BHEL MIG Rd, MIG Colony, MIG Phase I, MIG Colony, Serilingampally, Hyderabad, Telangana 502032", "amenity": "school", "name": "Sri Vani Vidya Niketan High School"}}, {"type": "way", "id": 340936118, "nodes": [3481554245, 3481554246, 3481554247, 3481554248, 3481554245], "tags": {"amenity": "place_of_worship", "building": "yes"}}, {"type": "way", "id": 340936295, "nodes": [3481552616, 3481552617, 3481552618, 3481552619, 3481552616], "tags": {"amenity": "place_of_worship"}}, {"type": "way", "id": 341125535, "nodes": [3483463610, 3483463611, 3483463620, 3483463619, 3483463612, 3483463613, 3483463610], "tags": {"amenity": "school"}}, {"type": "way", "id": 355722353, "nodes": [3612738255, 3612738276, 3612738252, 3612738223, 3612738255], "tags": {"amenity": "bar", "building": "yes"}}, {"type": "way", "id": 355878610, "nodes": [3614183380, 3614183701, 3614183364, 3614183340, 3614183380], "tags": {"amenity": "place_of_worship", "building": "yes", "denomination": "sai_baba", "name": "Sri Shirdi Sai Baba Temple", "name:te": "\u0c36\u0c4d\u0c30\u0c40 \u0c37\u0c3f\u0c30\u0c4d\u0c21\u0c40 \u0c38\u0c3e\u0c2f\u0c3f \u0c2c\u0c3e\u0c2c\u0c3e \u0c06\u0c32\u0c2f\u0c02", "religion": "hindu"}}, {"type": "way", "id": 355885219, "nodes": [3614239689, 3614239680, 3614239678, 3614239685, 3614239689], "tags": {"amenity": "restaurant", "building": "yes", "diet:organic": "yes", "name": "Paaka Organic Cafe"}}, {"type": "way", "id": 520463958, "nodes": [5072788622, 5072788623, 5072788624, 5072788625, 5072788622], "tags": {"amenity": "school", "name": "Epistemo Global", "operator": "Vickas Concept Schools"}}]}