{"version": 0.6, "generator": "Overpass API 0.7.61.5 4133829e", "osm3s": {"timestamp_osm_base": "2024-02-21T13:04:00Z", "copyright": "The data included in this document is from www.openstreetmap.org. The data is made available under ODbL."}, "elements": [{"type": "node", "id": 1344433412, "lat": 17.4954057, "lon": 78.3533726, "tags": {"amenity": "cinema", "cinema:3D": "yes", "name": "Cine Town & Laxmi 70 MM", "old_name": "Talkie Town", "screen": "3"}}, {"type": "node", "id": 1344435293, "lat": 17.4954729, "lon": 78.3534265, "tags": {"amenity": "fast_food", "brand": "Subway", "brand:pa": "\u0a38\u0a2c\u0a35\u0a47\u0a05", "brand:ur": "\u0633\u0628 \u0648\u06d2", "brand:wikidata": "Q244457", "brand:wikipedia": "en:Subway (restaurant)", "cuisine": "sandwich", "name": "Subway", "name:pa": "\u0a38\u0a2c\u0a35\u0a47\u0a05", "name:ur": "\u0633\u0628 \u0648\u06d2"}}, {"type": "node", "id": 1705548605, "lat": 17.4959427, "lon": 78.3352493}, {"type": "node", "id": 1705548628, "lat": 17.4959592, "lon": 78.3349074}, {"type": "node", "id": 1705548978, "lat": 17.4980869, "lon": 78.335947}, {"type": "node", "id": 1705549156, "lat": 17.4965815, "lon": 78.3354847}, {"type": "node", "id": 1705549177, "lat": 17.4981862, "lon": 78.3356312}, {"type": "node", "id": 2231949474, "lat": 17.4922708, "lon": 78.3535558}, {"type": "node", "id": 2428137451, "lat": 17.4970106, "lon": 78.3606866, "tags": {"amenity": "restaurant", "cuisine": "chinese;barbecue;curry;fried_food;kebab;noodle;soup", "name": "Angaara Restaurant", "website": "https://www.facebook.com/Angaara.restro/"}}, {"type": "node", "id": 2428138343, "lat": 17.4935791, "lon": 78.3511793, "tags": {"addr:housename": "H.No:1-11/4/A/1", "addr:housenumber": "Allwyn Cross Road", "addr:postcode": "500049", "addr:street": "Madhinaguda", "amenity": "bank", "atm": "yes", "brand:wikidata": "Q2003549", "brand:wikipedia": "en:Axis Bank", "name": "Axis Bank", "name:en": "Axis Bank", "website": "https://www.axisbank.com"}}, {"type": "node", "id": 2428138346, "lat": 17.494103, "lon": 78.3527499, "tags": {"addr:city": "Hyderabad", "addr:housenumber": "Mumbai Highway", "addr:postcode": "500049", "addr:street": "Prajay City", "amenity": "fuel", "brand": "Indian Oil", "brand:wikidata": "Q1289348", "brand:wikipedia": "en:Indian Oil Corporation", "compressed_air": "yes", "name": "Indian Oil Petrol bunk", "operator": "Indian Oil"}}, {"type": "node", "id": 2428138827, "lat": 17.4937077, "lon": 78.3490857, "tags": {"amenity": "fuel", "compressed_air": "yes", "name": "Bharath petroleum"}}, {"type": "node", "id": 2616360557, "lat": 17.4947358, "lon": 78.3416782, "tags": {"addr:city": "Hyderabad", "addr:postcode": "500049", "addr:street": "Madinaguda", "amenity": "fuel", "compressed_air": "yes", "name": "Deepthisree Petrol Pump", "opening_hours": "PH,Mo-Su 07:00-22:00"}}, {"type": "node", "id": 2705349440, "lat": 17.4954631, "lon": 78.3597482, "tags": {"amenity": "cinema", "name": "Sai Ranga"}}, {"type": "node", "id": 2712702155, "lat": 17.4951515, "lon": 78.3333298}, {"type": "node", "id": 2712702156, "lat": 17.4951515, "lon": 78.3334559}, {"type": "node", "id": 2712702157, "lat": 17.4947806, "lon": 78.3334344}, {"type": "node", "id": 2712702158, "lat": 17.4947806, "lon": 78.3332869}, {"type": "node", "id": 3010417732, "lat": 17.496979, "lon": 78.3545623, "tags": {"amenity": "pharmacy"}}, {"type": "node", "id": 3010422033, "lat": 17.4975045, "lon": 78.355388, "tags": {"amenity": "pharmacy"}}, {"type": "node", "id": 3010422038, "lat": 17.4983584, "lon": 78.3559311, "tags": {"amenity": "pharmacy"}}, {"type": "node", "id": 3010422043, "lat": 17.5052186, "lon": 78.3567989, "tags": {"amenity": "pharmacy"}}, {"type": "node", "id": 3010422045, "lat": 17.5053206, "lon": 78.3562718, "tags": {"amenity": "pharmacy", "brand": "Apollo Pharmacy", "brand:wikidata": "Q62562612", "dispensing": "yes", "healthcare": "pharmacy", "name": "Apollo Pharmacy"}}, {"type": "node", "id": 3010422046, "lat": 17.5053408, "lon": 78.3561483, "tags": {"amenity": "atm", "operator": "HDFC Bank ATM"}}, {"type": "node", "id": 3010422047, "lat": 17.5054329, "lon": 78.3560144, "tags": {"amenity": "atm", "operator": "Axis Bank ATM"}}, {"type": "node", "id": 3010422048, "lat": 17.505765, "lon": 78.3558148, "tags": {"amenity": "pharmacy"}}, {"type": "node", "id": 3010422049, "lat": 17.5061317, "lon": 78.3551143, "tags": {"amenity": "pharmacy", "dispensing": "yes", "healthcare": "pharmacy", "name": "Sai Krishna Pharmacy"}}, {"type": "node", "id": 3010422352, "lat": 17.4979681, "lon": 78.3535372}, {"type": "node", "id": 3010422353, "lat": 17.4975726, "lon": 78.3533477}, {"type": "node", "id": 3010422354, "lat": 17.4973207, "lon": 78.3539162}, {"type": "node", "id": 3010422355, "lat": 17.4977252, "lon": 78.3541104}, {"type": "node", "id": 3204334845, "lat": 17.4892842, "lon": 78.3536094}, {"type": "node", "id": 3204334846, "lat": 17.4890739, "lon": 78.3537049}, {"type": "node", "id": 3204334847, "lat": 17.4892244, "lon": 78.3540062}, {"type": "node", "id": 3204334848, "lat": 17.4894272, "lon": 78.3539071}, {"type": "node", "id": 3370264545, "lat": 17.4962367, "lon": 78.3476797}, {"type": "node", "id": 3490099032, "lat": 17.4964255, "lon": 78.3377154, "tags": {"amenity": "place_of_worship", "name": "The Church of Jesus Christ of Latter-day Saints", "religion": "christian"}}, {"type": "node", "id": 3490099034, "lat": 17.4958789, "lon": 78.3382423, "tags": {"amenity": "restaurant", "name": "Sangeetha fine dining restaurant"}}, {"type": "node", "id": 3602315815, "lat": 17.4858678, "lon": 78.3580677}, {"type": "node", "id": 3614251465, "lat": 17.4857598, "lon": 78.3580239}, {"type": "node", "id": 3614251483, "lat": 17.4858096, "lon": 78.3579054}, {"type": "node", "id": 3614251833, "lat": 17.4860099, "lon": 78.3581394}, {"type": "node", "id": 3614251850, "lat": 17.4860597, "lon": 78.3580208}, {"type": "node", "id": 3614284127, "lat": 17.4903149, "lon": 78.3520684}, {"type": "node", "id": 3614284131, "lat": 17.4903206, "lon": 78.3518716}, {"type": "node", "id": 3614284173, "lat": 17.4904051, "lon": 78.3520713}, {"type": "node", "id": 3614284176, "lat": 17.4904107, "lon": 78.3518745}, {"type": "node", "id": 3614284409, "lat": 17.490855, "lon": 78.3533705}, {"type": "node", "id": 3614284424, "lat": 17.4908778, "lon": 78.353307}, {"type": "node", "id": 3614284459, "lat": 17.4909337, "lon": 78.3534016}, {"type": "node", "id": 3614284478, "lat": 17.4909565, "lon": 78.3533381}, {"type": "node", "id": 3614285903, "lat": 17.49257, "lon": 78.3528472}, {"type": "node", "id": 3614285913, "lat": 17.4926368, "lon": 78.3532413}, {"type": "node", "id": 3614286093, "lat": 17.4930336, "lon": 78.3531812}, {"type": "node", "id": 3614286106, "lat": 17.49301, "lon": 78.3534148}, {"type": "node", "id": 3614723352, "lat": 17.4923523, "lon": 78.336129}, {"type": "node", "id": 3614723370, "lat": 17.4924005, "lon": 78.3358271}, {"type": "node", "id": 3614723410, "lat": 17.4924647, "lon": 78.3361486}, {"type": "node", "id": 3614723417, "lat": 17.4924935, "lon": 78.3359679}, {"type": "node", "id": 3614723516, "lat": 17.4927559, "lon": 78.3360139}, {"type": "node", "id": 3614723527, "lat": 17.4927752, "lon": 78.3358929}, {"type": "node", "id": 3614956292, "lat": 17.494901, "lon": 78.3365377}, {"type": "node", "id": 3614956293, "lat": 17.4949028, "lon": 78.3367131}, {"type": "node", "id": 3614956294, "lat": 17.4950737, "lon": 78.3365358}, {"type": "node", "id": 3614956295, "lat": 17.4950754, "lon": 78.3367112}, {"type": "node", "id": 3615040397, "lat": 17.494907, "lon": 78.3480536}, {"type": "node", "id": 3615040401, "lat": 17.4949304, "lon": 78.3479232}, {"type": "node", "id": 3615040414, "lat": 17.4950985, "lon": 78.3480913}, {"type": "node", "id": 3615040417, "lat": 17.4951218, "lon": 78.3479609}, {"type": "node", "id": 3615040959, "lat": 17.4963042, "lon": 78.3473524}, {"type": "node", "id": 3616772074, "lat": 17.4874609, "lon": 78.3268764}, {"type": "node", "id": 3616772075, "lat": 17.487468, "lon": 78.3266058}, {"type": "node", "id": 3616773206, "lat": 17.4875707, "lon": 78.3268795}, {"type": "node", "id": 3616773224, "lat": 17.4875778, "lon": 78.3266089}, {"type": "node", "id": 3616856176, "lat": 17.4902088, "lon": 78.3276371}, {"type": "node", "id": 3616856177, "lat": 17.4902115, "lon": 78.3274428}, {"type": "node", "id": 3616856182, "lat": 17.4903039, "lon": 78.3275586}, {"type": "node", "id": 3616856183, "lat": 17.4903055, "lon": 78.3274442}, {"type": "node", "id": 3616856187, "lat": 17.4903211, "lon": 78.3276389}, {"type": "node", "id": 3616856189, "lat": 17.4903222, "lon": 78.3275588}, {"type": "node", "id": 3617065124, "lat": 17.4950631, "lon": 78.329757}, {"type": "node", "id": 3617065125, "lat": 17.4950644, "lon": 78.3296626}, {"type": "node", "id": 3617065128, "lat": 17.49511, "lon": 78.3297578}, {"type": "node", "id": 3617065129, "lat": 17.4951114, "lon": 78.3296633}, {"type": "node", "id": 3617358696, "lat": 17.4994842, "lon": 78.3566928}, {"type": "node", "id": 3643652011, "lat": 17.4900988, "lon": 78.3520777}, {"type": "node", "id": 3643652012, "lat": 17.4901078, "lon": 78.3518536}, {"type": "node", "id": 3643652013, "lat": 17.4901806, "lon": 78.3520813}, {"type": "node", "id": 3643652014, "lat": 17.4901896, "lon": 78.3518572}, {"type": "node", "id": 3881619918, "lat": 17.4917291, "lon": 78.3546755}, {"type": "node", "id": 3881619919, "lat": 17.4914732, "lon": 78.3545726}, {"type": "node", "id": 3881619920, "lat": 17.4914121, "lon": 78.3547397}, {"type": "node", "id": 3881619921, "lat": 17.491668, "lon": 78.3548426}, {"type": "node", "id": 3881619930, "lat": 17.4929888, "lon": 78.3534075}, {"type": "node", "id": 3881619931, "lat": 17.4927728, "lon": 78.3533367}, {"type": "node", "id": 3881619932, "lat": 17.4927525, "lon": 78.353404}, {"type": "node", "id": 3881619933, "lat": 17.4926985, "lon": 78.3534535}, {"type": "node", "id": 3881619934, "lat": 17.4926412, "lon": 78.3534995}, {"type": "node", "id": 3881619935, "lat": 17.4925973, "lon": 78.3535048}, {"type": "node", "id": 3881619936, "lat": 17.4926243, "lon": 78.3536198}, {"type": "node", "id": 3881619937, "lat": 17.4929669, "lon": 78.3537508}, {"type": "node", "id": 4175550093, "lat": 17.4947248, "lon": 78.3366877}, {"type": "node", "id": 4175550094, "lat": 17.49473, "lon": 78.3365395}, {"type": "node", "id": 4175550095, "lat": 17.4947892, "lon": 78.3366901}, {"type": "node", "id": 4175550096, "lat": 17.4947943, "lon": 78.3365419}, {"type": "node", "id": 4176367536, "lat": 17.4947041, "lon": 78.329701}, {"type": "node", "id": 4176367537, "lat": 17.494708, "lon": 78.3296181}, {"type": "node", "id": 4176367550, "lat": 17.4947914, "lon": 78.3297054}, {"type": "node", "id": 4176367551, "lat": 17.4947953, "lon": 78.3296226}, {"type": "node", "id": 4398614589, "lat": 17.4955258, "lon": 78.3321063, "tags": {"amenity": "restaurant", "cuisine": "indian;ice_cream", "diet:vegetarian": "yes", "name": "Sri Navayuga Hotel", "name:te": "\u0c36\u0c4d\u0c30\u0c40 \u0c28\u0c35\u0c2f\u0c41\u0c17 \u0c39\u0c4b\u0c1f\u0c32\u0c4d", "takeaway": "yes", "wheelchair": "yes"}}, {"type": "node", "id": 4664835690, "lat": 17.4937626, "lon": 78.3280968, "tags": {"amenity": "bank", "branch": "Serilingampalli", "brand": "SBI", "brand:wikidata": "Q1340361", "brand:wikipedia": "en:State Bank of India", "name": "State Bank of India", "name:en": "State Bank of India", "short_name": "SBI"}}, {"type": "node", "id": 4664867689, "lat": 17.4938825, "lon": 78.328169, "tags": {"amenity": "atm", "opening_hours": "24/7", "operator": "State Bank", "toilets:wheelchair": "no", "wheelchair": "yes"}}, {"type": "node", "id": 4665317301, "lat": 17.4955626, "lon": 78.3322221, "tags": {"amenity": "dentist", "name": "Vasan Dental Care", "name:en": "Vasan Dental Care"}}, {"type": "node", "id": 4665332403, "lat": 17.493487, "lon": 78.332069, "tags": {"amenity": "pharmacy", "dispensing": "yes", "name": "Apollo Pharmacy", "payment:cash": "yes", "payment:credit_cards": "yes", "payment:debit_cards": "yes", "payment:mastercard": "yes", "payment:visa": "yes"}}, {"type": "node", "id": 4665333893, "lat": 17.4955551, "lon": 78.3319945, "tags": {"amenity": "restaurant", "name": "Biryanis", "name:en": "Biryanis"}}, {"type": "node", "id": 4665371689, "lat": 17.4955259, "lon": 78.332226, "tags": {"addr:district": "Hyderabad", "addr:full": "86, Near R.S. Brothers, Chandanagar, Serilingampally", "addr:postcode": "500050", "addr:state": "Telangana", "amenity": "hospital", "health_facility:type": "Separate Divisions for Each Speciality; State Of The Art Operation Theatres; Post Op Lounge with Beds; Advanced Eye Care Equipment; Complete Range of Optical Frames and Lenses; Exclusive Childrens Eye Care; 24 7 Pharmacy; Ambulance Services", "healthcare:speciality": "Cataract Services; Refractive Surgery; Cornea Services; Glaucoma Services; Retina Services; Paediatric Ophthalmology and Squint Services; Oculoplasty Services; UVEITIS; Neuro Ophthalmology; Vision Rehabilitation Services; Computer Vision Syndrome Clinic", "medical_system": "Allopathic", "name": "Vasan Eye Care Hospital", "name:en": "Vasan Eye Care Hospital", "opening_hours": "Mo-Sa 09:00-20:00; Su 09:00-13:00", "operator:type": "private", "phone": "040 30124500", "source": "OpenGovernmentData", "website": "www.vasaneye.com"}}, {"type": "node", "id": 4680458290, "lat": 17.4949064, "lon": 78.3324918, "tags": {"amenity": "bank", "branch": "Chandanagar", "brand": "ICICI", "brand:wikidata": "Q1653258", "name": "ICICI Bank", "name:en": "ICICI Bank", "short_name": "ICICI", "website": "https://www.icicibank.com", "wikidata": "Q1653258", "wikipedia": "en:ICICI Bank"}}, {"type": "node", "id": 4680472390, "lat": 17.4949165, "lon": 78.3325354, "tags": {"amenity": "atm", "opening_hours": "24/7", "operator": "ICICI Bank"}}, {"type": "node", "id": 4684782692, "lat": 17.4875459, "lon": 78.3320595}, {"type": "node", "id": 4684782693, "lat": 17.4872254, "lon": 78.3317765}, {"type": "node", "id": 4684806092, "lat": 17.4876559, "lon": 78.3322406}, {"type": "node", "id": 4684806093, "lat": 17.4871167, "lon": 78.3319375}, {"type": "node", "id": 4684806094, "lat": 17.4871589, "lon": 78.3314037}, {"type": "node", "id": 4684812196, "lat": 17.4874333, "lon": 78.3316706}, {"type": "node", "id": 4684812197, "lat": 17.4874026, "lon": 78.3314319}, {"type": "node", "id": 4684812294, "lat": 17.4874883, "lon": 78.3319093}, {"type": "node", "id": 4684817392, "lat": 17.4871821, "lon": 78.3318964}, {"type": "node", "id": 4684817394, "lat": 17.4873143, "lon": 78.3317618}, {"type": "node", "id": 4684817490, "lat": 17.4873967, "lon": 78.332025}, {"type": "node", "id": 4684822593, "lat": 17.4872721, "lon": 78.3314346}, {"type": "node", "id": 4684822791, "lat": 17.4876341, "lon": 78.3320957}, {"type": "node", "id": 4684822793, "lat": 17.4869747, "lon": 78.3314278}, {"type": "node", "id": 4684822891, "lat": 17.4874678, "lon": 78.3317993}, {"type": "node", "id": 4684829090, "lat": 17.4873757, "lon": 78.3318396}, {"type": "node", "id": 4688920998, "lat": 17.4908378, "lon": 78.3314938, "tags": {"amenity": "atm", "operator": "Axis Bank"}}, {"type": "node", "id": 4688921591, "lat": 17.4928535, "lon": 78.3279167, "tags": {"amenity": "atm", "operator": "Canara Bank"}}, {"type": "node", "id": 4688930392, "lat": 17.4928858, "lon": 78.3279111, "tags": {"amenity": "bank", "branch": "Chandanagar", "brand": "Canara Bank", "brand:pa": "\u0a15\u0a47\u0a28\u0a30\u0a3e \u0a2c\u0a48\u0a02\u0a15", "brand:ur": "\u06a9\u06cc\u0646\u0631\u0627 \u0628\u06cc\u0646\u06a9", "brand:wikidata": "Q2003777", "brand:wikipedia": "en:Canara Bank", "brand:wikipedia:pa": "\u0a15\u0a47\u0a28\u0a30\u0a3e \u0a2c\u0a48\u0a02\u0a15", "name": "Canara Bank", "name:pa": "\u0a15\u0a47\u0a28\u0a30\u0a3e \u0a2c\u0a48\u0a02\u0a15", "name:ur": "\u06a9\u06cc\u0646\u0631\u0627 \u0628\u06cc\u0646\u06a9", "website": "https://www.canarabank.com/"}}, {"type": "node", "id": 4688949489, "lat": 17.4908988, "lon": 78.3314928, "tags": {"amenity": "atm", "operator": "ICICI Bank"}}, {"type": "node", "id": 4693614990, "lat": 17.4928587, "lon": 78.327984, "tags": {"amenity": "hospital", "name": "Happy Children's Hospital", "name:en": "Happy Children's Hospital"}}, {"type": "node", "id": 4693618891, "lat": 17.4895653, "lon": 78.3280937, "tags": {"amenity": "pharmacy", "name": "Good Health Medical & General Store", "name:en": "Good Health Medical & General Store"}}, {"type": "node", "id": 4693618990, "lat": 17.4920821, "lon": 78.327886, "tags": {"amenity": "pharmacy", "name": "Apollo Pharmacy", "name:en": "Apollo Pharmacy"}}, {"type": "node", "id": 4693649489, "lat": 17.4928168, "lon": 78.3279081, "tags": {"amenity": "pharmacy", "name": "Happy Pharmacy", "name:en": "Happy Pharmacy"}}, {"type": "node", "id": 4695594590, "lat": 17.4931295, "lon": 78.3276665, "tags": {"amenity": "pharmacy", "name": "Kailash Medical & General Store", "name:en": "Kailash Medical & General Store"}}, {"type": "node", "id": 4695632089, "lat": 17.4921861, "lon": 78.3275773, "tags": {"amenity": "hospital", "name": "Vanaja Hospital", "name:en": "Vanaja Hospital"}}, {"type": "node", "id": 4695632289, "lat": 17.4921633, "lon": 78.3276438, "tags": {"amenity": "pharmacy", "name": "Vanaja Pharmacy", "name:en": "Vanaja Pharmacy"}}, {"type": "node", "id": 4700634889, "lat": 17.4890237, "lon": 78.3236136, "tags": {"amenity": "pharmacy", "name": "Apollo Pharmacy", "name:en": "Apollo Pharmacy"}}, {"type": "node", "id": 4700634989, "lat": 17.4940886, "lon": 78.3320075, "tags": {"amenity": "pharmacy", "dispensing": "yes", "drive_through": "no", "name": "My Health Pharmacy"}}, {"type": "node", "id": 4706762092, "lat": 17.4953731, "lon": 78.3232668, "tags": {"amenity": "bank", "name": "Vijaya Bank", "name:en": "Vijaya Bank"}}, {"type": "node", "id": 4706770289, "lat": 17.4953731, "lon": 78.3232956, "tags": {"amenity": "atm", "operator": "State Bank"}}, {"type": "node", "id": 4706770290, "lat": 17.495368, "lon": 78.3232488, "tags": {"amenity": "atm", "operator": "Vijaya Bank"}}, {"type": "node", "id": 4706770389, "lat": 17.4954474, "lon": 78.3232985, "tags": {"amenity": "bank", "branch": "Chandanagar", "brand": "SBI", "brand:wikidata": "Q1340361", "brand:wikipedia": "en:State Bank of India", "name": "State Bank of India", "name:en": "State Bank of India", "short_name": "SBI"}}, {"type": "node", "id": 4710069093, "lat": 17.4948615, "lon": 78.3292288, "tags": {"amenity": "place_of_worship", "religion": "hindu"}}, {"type": "node", "id": 4710073991, "lat": 17.4951042, "lon": 78.3289428, "tags": {"amenity": "place_of_worship", "name": "Lord Shiva, Hanuman temple", "religion": "hindu"}}, {"type": "node", "id": 4711713692, "lat": 17.4945254, "lon": 78.32502, "tags": {"amenity": "bank", "brand": "IDBI", "brand:wikidata": "Q3633485", "brand:wikipedia": "en:IDBI Bank", "name": "IDBI Bank", "name:en": "IDBI Bank", "old_name": "Industrial Development Bank of India", "short_name": "IDBI", "website": "https://www.idbi.com"}}, {"type": "node", "id": 4711743691, "lat": 17.4944544, "lon": 78.3250323, "tags": {"amenity": "atm", "operator": "IDBI Bank"}}, {"type": "node", "id": 4711754189, "lat": 17.4954459, "lon": 78.3255493, "tags": {"amenity": "atm", "operator": "State Bank"}}, {"type": "node", "id": 4713368292, "lat": 17.4947922, "lon": 78.3308767, "tags": {"amenity": "restaurant", "cuisine": "indian", "diet:vegetarian": "yes", "name": "Maha Lakshmi Family Dhaba", "name:en": "Maha Lakshmi Family Dhaba"}}, {"type": "node", "id": 4716873493, "lat": 17.4949337, "lon": 78.3380435, "tags": {"amenity": "restaurant", "name": "Bahar Cafe", "name:en": "Bahar Cafe"}}, {"type": "node", "id": 4716995091, "lat": 17.4959755, "lon": 78.337417, "tags": {"addr:city": "Hyderabad", "addr:full": "1-56/AH, National Highway 9, Beside Reliance Fresh, Madinaguda, Durga Estates, Miyapur", "addr:postcode": "500049", "addr:state": "Telangana", "amenity": "hospital", "contact:phone": "040 71071000", "name": "Archana Hospital", "name:en": "Archana Hospital", "operator:type": "private", "source": "OpenGovernmentData", "website": "https://archanahospitals.com/"}}, {"type": "node", "id": 4755216460, "lat": 17.4957311, "lon": 78.3329014, "tags": {"amenity": "bank", "brand:wikidata": "Q2004088", "name": "Syndicate Bank", "name:en": "Syndicate Bank", "website": "https://www.syndicatebank.in", "wikidata": "Q2004088", "wikipedia": "en:Syndicate Bank"}}, {"type": "node", "id": 4755217232, "lat": 17.4957251, "lon": 78.3329733, "tags": {"amenity": "ice_cream", "name": "Cream Stone"}}, {"type": "node", "id": 4855625523, "lat": 17.4902854, "lon": 78.3292982, "tags": {"amenity": "place_of_worship", "religion": "hindu"}}, {"type": "node", "id": 4867787622, "lat": 17.4874659, "lon": 78.3321671}, {"type": "node", "id": 4877950622, "lat": 17.4875257, "lon": 78.3313836, "tags": {"amenity": "atm", "operator": "ICICI Bank"}}, {"type": "node", "id": 4877950623, "lat": 17.4871541, "lon": 78.3320166, "tags": {"amenity": "atm", "operator": "State Bank of India"}}, {"type": "node", "id": 4877951224, "lat": 17.4871311, "lon": 78.331906, "tags": {"amenity": "atm", "operator": "Karur Vysya Bank"}}, {"type": "node", "id": 5273410869, "lat": 17.495479, "lon": 78.3445355, "tags": {"amenity": "bank", "branch": "Madinaguda", "brand:wikidata": "Q1340361", "brand:wikipedia": "en:State Bank of India", "name": "State Bank of India", "short_name": "SBI"}}, {"type": "node", "id": 5289071793, "lat": 17.4929893, "lon": 78.3287404, "tags": {"amenity": "atm", "brand": "ICICI Bank", "name": "ICICI Bank ATM"}}, {"type": "node", "id": 5783995954, "lat": 17.4943337, "lon": 78.3448275, "tags": {"addr:city": "Hyderabad", "addr:housename": "Plot No 204, Mythri Nagar", "addr:housenumber": "Madina Nagar", "addr:postcode": "500049", "addr:street": "Main Road, Miyapur", "amenity": "hospital", "name": "Raja Hospital"}}, {"type": "node", "id": 5924191787, "lat": 17.4946664, "lon": 78.3365237}, {"type": "node", "id": 5924191788, "lat": 17.4945116, "lon": 78.336525}, {"type": "node", "id": 5924191789, "lat": 17.4945116, "lon": 78.3368268}, {"type": "node", "id": 5924191790, "lat": 17.494674, "lon": 78.3368201}, {"type": "node", "id": 5924191791, "lat": 17.4943746, "lon": 78.3364212}, {"type": "node", "id": 5924191792, "lat": 17.4938208, "lon": 78.336444}, {"type": "node", "id": 5924191793, "lat": 17.4937865, "lon": 78.3366041}, {"type": "node", "id": 5924191794, "lat": 17.4937438, "lon": 78.3367409}, {"type": "node", "id": 5924191795, "lat": 17.4937517, "lon": 78.3368718}, {"type": "node", "id": 5924191796, "lat": 17.4943733, "lon": 78.3368437}, {"type": "node", "id": 6295712755, "lat": 17.5034916, "lon": 78.3366774, "tags": {"amenity": "bank", "brand": "Andhra Bank", "brand:wikidata": "Q2003476", "brand:wikipedia": "en:Andhra Bank", "name": "Andhra Bank"}}, {"type": "node", "id": 6295713495, "lat": 17.4961977, "lon": 78.3343542, "tags": {"amenity": "atm", "name": "City union bank"}}, {"type": "node", "id": 6451226171, "lat": 17.492211, "lon": 78.3315513, "tags": {"amenity": "pharmacy", "branch": "Chandanagar Huda Colony", "dispensing": "yes", "healthcare": "pharmacy", "name": "Apollo Pharmacy"}}, {"type": "node", "id": 6468196052, "lat": 17.4946419, "lon": 78.3268897, "tags": {"amenity": "bank", "name": "Kotak Mahindra Bank"}}, {"type": "node", "id": 6468199886, "lat": 17.4946496, "lon": 78.3267916, "tags": {"amenity": "atm", "name": "DCB Bank", "operator": "DCB Bank"}}, {"type": "node", "id": 6468199887, "lat": 17.4946381, "lon": 78.326943, "tags": {"amenity": "bank", "name": "IndusInd Bank"}}, {"type": "node", "id": 6468200839, "lat": 17.4953756, "lon": 78.3273293, "tags": {"amenity": "bank", "branch": "Chandanagar", "name": "Bandhan Bank", "name:te": "\u0c2c\u0c02\u0c27\u0c28\u0c4d \u0c2c\u0c4d\u0c2f\u0c3e\u0c02\u0c15\u0c4d"}}, {"type": "node", "id": 6468200843, "lat": 17.4946467, "lon": 78.3268106, "tags": {"amenity": "bank", "name": "DCB Bank"}}, {"type": "node", "id": 6468200845, "lat": 17.494643, "lon": 78.326853, "tags": {"amenity": "atm", "name": "Kotak Mahindra Bank", "operator": "Kotak Mahindra Bank"}}, {"type": "node", "id": 6482139039, "lat": 17.4945473, "lon": 78.3428004, "tags": {"addr:district": "Hyderabad", "addr:full": "Plot Number 40/41, Mythri Nagar, Madinaguda", "addr:postcode": "500050", "addr:state": "Telangana", "amenity": "hospital", "contact:mobile": "7732038844", "health_facility:type": "Outpatient Clinic;Operating Theaters;Radiology Services;Pharmacy;Pathological Labs;Pre and Post Operating Recovery;Health Check ups", "healthcare:speciality": "Gynaecology and Obstetrics;Paediatrics;Paediatrics Surgery;General Medicine;General Surgery;Laparoscopic Surgery;Chest Physician;ENT;Urology;Neurology;NeuroSurgery;Ophthalmology;Orthopaedics;Dermatology;Physiotherapy;Dietician;Psychology", "medical_system": "Allopathic", "name": "Pranaam Hospitals", "operator:type": "private", "phone": "040 23042777", "source": "OpenGovernmentData", "website": "pranaamhospitals.in"}}, {"type": "node", "id": 6485054528, "lat": 17.4956729, "lon": 78.3250616, "tags": {"addr:district": "Hyderabad", "addr:full": "2-58/8, Near Telephone Exchange, SBI Building, Chandanagar", "addr:postcode": "500050", "addr:state": "Telangana", "amenity": "hospital", "name": "Vijaya Nursing Home", "phone": "040-2303-4173 ; 040-2303-6966", "source": "OpenGovernmentData", "website": "https://www.vijayanursinghome.in/"}}, {"type": "node", "id": 6485550755, "lat": 17.4956454, "lon": 78.355892, "tags": {"addr:district": "Hyderabad", "addr:full": "#1-116/1, Opp. Rao's High School & Janapriya Apartments, Miyapur", "addr:postcode": "500049", "addr:state": "Telangana", "amenity": "hospital", "contact:phone": "+91-9959635000", "name": "Sri Shankara Nethralaya", "source": "OpenGovernmentData", "website": "http://www.srishankaranethralaya.com"}}, {"type": "node", "id": 6485786103, "lat": 17.4932209, "lon": 78.327158, "tags": {"addr:district": "Hyderabad", "addr:full": "HUDA Colony, Opp. Kidzonia International Preschool, Chanda Nagar", "addr:postcode": "500050", "addr:state": "Telangana", "amenity": "hospital", "name": "Sandhya Nursing Home", "source": "OpenGovernmentData"}}, {"type": "node", "id": 6487305068, "lat": 17.4941988, "lon": 78.3240189, "tags": {"addr:district": "Hyderabad", "addr:full": "Opp. Venkateswara Swamy Temple, Chandanagar, Gangaram", "addr:postcode": "500050", "addr:state": "Telangana", "amenity": "hospital", "email": "saisivahospital@gmail.com", "fax": "40175720", "name": "Sai Siva Children\u2019s Hospital", "phone": "040- 23037879", "source": "OpenGovernmentData", "website": "https://www.saisivahospital.com/"}}, {"type": "node", "id": 6487508103, "lat": 17.4939308, "lon": 78.3267166, "tags": {"addr:district": "Hyderabad", "addr:full": "6-94/6/C, Manjeera Road, Opposite Hotel Swagath Residency, Chandanagar", "addr:postcode": "500050", "addr:state": "Telangana", "amenity": "hospital", "contact:email": "kadiminursinghome@gmail.com", "contact:mobile": "8374805630", "emergency_telephone_code": "8374805630", "fax": "040 23036926; 040 23031454", "healthcare:speciality": "Laparoscopic Surgery and General Surgery;Obstetrics and Gynaecology;Infertility;Diabetes Care;Orthopadics and Trauma;Physician Care;Skin and Cosmetology;Eye;ENT;Urology;Dietician;Physiotherapy", "medical_system": "Allopathic", "name": "Kadimi Nursing Home", "operator:type": "private", "phone": "040 23033599;040 23036926;", "source": "OpenGovernmentData", "website": "https://www.kadiminursinghome.com/"}}, {"type": "node", "id": 6487609803, "lat": 17.4957541, "lon": 78.3410724, "tags": {"addr:district": "Hyderabad", "addr:full": "7-10, Opp. Pearls Inn Hotel, Madinaguda, Miyapur", "addr:postcode": "500050", "addr:state": "Telangana", "amenity": "hospital", "name": "Ragi Hospital", "source": "OpenGovernmentData"}}, {"type": "node", "id": 6487886439, "lat": 17.5044701, "lon": 78.3564663, "tags": {"addr:district": "Hyderabad", "addr:full": "Plot No's. 33,34,35, Alluri Sita Ram Raju Colony, Near DK enclave", "addr:postcode": "500050", "addr:state": "Telangana", "amenity": "hospital", "name": "Mirra Multi Specialty Hospital", "source": "OpenGovernmentData"}}, {"type": "node", "id": 6494788582, "lat": 17.494784, "lon": 78.3404388, "tags": {"addr:district": "Hyderabad", "addr:full": "NH 65 , Madinaguda Bus Stop", "addr:postcode": "500049", "addr:state": "Telangana", "amenity": "hospital", "name": "Sarada Nursing Home", "source": "OpenGovernmentData"}}, {"type": "node", "id": 6503086685, "lat": 17.4946701, "lon": 78.3268218, "tags": {"addr:district": "Hyderabad", "addr:full": "Opp.Swagath Hotel, Above RKS Electronics, Chandanagar", "addr:postcode": "500050", "addr:state": "Telangana", "amenity": "hospital", "name": "Sai Anurag Hosptial", "source": "OpenGovernmentData"}}, {"type": "node", "id": 6503755850, "lat": 17.4943913, "lon": 78.3232471, "tags": {"addr:district": "Hyderabad", "addr:full": "4-122/A, Opposite Vijaya Bank, Chanda Nagar", "addr:postcode": "500050", "addr:state": "Telangana", "amenity": "hospital", "fax": "040 23039092", "name": "Anitha Nursing Home", "source": "OpenGovernmentData"}}, {"type": "node", "id": 6505170700, "lat": 17.4947648, "lon": 78.3600202, "tags": {"addr:district": "Hyderabad", "addr:full": "Plot No. 12 & 13, Madhava Nagar, Behind Sai Ranga Theatre, Miyapur", "addr:postcode": "500049", "addr:state": "Telangana", "amenity": "hospital", "contact:phone": "040 23040450; 040 23048625", "fax": "040 23042800", "name": "Shilpa Nursing Home", "source": "OpenGovernmentData"}}, {"type": "node", "id": 6505467270, "lat": 17.4976234, "lon": 78.3354781}, {"type": "node", "id": 6505467271, "lat": 17.4979349, "lon": 78.3355636}, {"type": "node", "id": 6516278517, "lat": 17.4932038, "lon": 78.3279091, "tags": {"amenity": "food_court", "name": "Sri Sai Hanuman Tiffin Centre", "name:te": "\u0c36\u0c4d\u0c30\u0c40 \u0c38\u0c3e\u0c2f\u0c3f \u0c39\u0c28\u0c41\u0c2e\u0c3e\u0c28\u0c4d \u0c1f\u0c3f\u0c2b\u0c3f\u0c28\u0c4d \u0c38\u0c46\u0c02\u0c1f\u0c30\u0c4d"}}, {"type": "node", "id": 6549141640, "lat": 17.4944322, "lon": 78.3415653, "tags": {"addr:city": "Hyderabad", "addr:full": "Plot No:26-27-29, NEAR VIJETHA SUPER MARKET, BEHIND BHARAT PETROL PUMP, MADINAGUDA", "addr:postcode": "500049", "addr:state": "Telangana", "amenity": "hospital", "contact:phone": "040 23043693", "name": "NAIDU EYE HOSPITAL", "operator:type": "private", "source": "OpenGovernmentData"}}, {"type": "node", "id": 6549150740, "lat": 17.494321, "lon": 78.3461505, "tags": {"addr:city": "Hyderabad", "addr:district": "Rangareddy", "addr:full": "Plot No:. 204, Mythri Nagar, Near Madinaguda, Miyapur", "addr:postcode": "500049", "addr:state": "Telangana", "amenity": "hospital", "contact:phone": "04023044155; 42007070", "fax": "23044133", "name": "HEALIX HOSPITAL", "operator:type": "private", "source": "OpenGovernmentData"}}, {"type": "node", "id": 6549190771, "lat": 17.4921363, "lon": 78.348083, "tags": {"addr:full": "#222&223, MYTHRINAGAR, PHASE-II, Opp FORTURE HEIGHTS, MIYAPUR", "addr:postcode": "500049", "addr:state": "Telangana", "amenity": "hospital", "contact:phone": "04047470000", "name": "SRIKARA HOSPITALS", "operator:type": "private", "source": "OpenGovernmentData", "website": "https://www.srikarahospitals.com/"}}, {"type": "node", "id": 6549349841, "lat": 17.4947571, "lon": 78.3432363, "tags": {"addr:city": "Hyderabad", "addr:full": "Plot No: 83 & 103, Miyapur Main Road", "addr:postcode": "500049", "addr:state": "Telangana", "amenity": "hospital", "contact:phone": "4023031113", "name": "HAPPY HOSPITAL", "operator:type": "private", "source": "OpenGovernmentData"}}, {"type": "node", "id": 6549437828, "lat": 17.496072, "lon": 78.3452386, "tags": {"addr:city": "Hyderabad", "addr:full": "Plot No:38/225, Near St. Ann's School, Madinaguda, Miyapur", "addr:postcode": "500049", "addr:state": "Telangana", "amenity": "hospital", "contact:phone": "4023048399", "name": "MOTHERHOOD FERTILITY CENTRE", "operator:type": "private", "source": "OpenGovernmentData"}}, {"type": "node", "id": 6562261140, "lat": 17.4953327, "lon": 78.3461183, "tags": {"addr:district": "Hyderabad", "addr:full": "1-58/7/3, 3rd Floor, Near St Ann's School & Bajaj Electronics, Madinaguda", "addr:postcode": "500049", "addr:state": "Telangana", "amenity": "hospital", "name": "Vijaya Hospital", "source": "OpenGovernmentData"}}, {"type": "node", "id": 6616052542, "lat": 17.5073392, "lon": 78.3385975}, {"type": "node", "id": 6616052543, "lat": 17.5066641, "lon": 78.3385126}, {"type": "node", "id": 6616052544, "lat": 17.5066108, "lon": 78.3389796}, {"type": "node", "id": 6616052545, "lat": 17.5072859, "lon": 78.3390644}, {"type": "node", "id": 6616052546, "lat": 17.5074345, "lon": 78.3365944}, {"type": "node", "id": 6616052547, "lat": 17.5072464, "lon": 78.3365671}, {"type": "node", "id": 6616052548, "lat": 17.5072179, "lon": 78.3367831}, {"type": "node", "id": 6616052549, "lat": 17.507406, "lon": 78.3368104}, {"type": "node", "id": 6651205790, "lat": 17.4972386, "lon": 78.3358406, "tags": {"addr:postcode": "500050", "addr:street": "Gangaram - Chandanagar Road - Mumbai highway", "amenity": "fast_food", "brand": "KFC", "brand:pa": "\u0a15\u0a47\u0a10\u0a2b\u0a38\u0a40", "brand:ur": "\u06a9\u06cc\u0646\u0679\u06a9\u06cc \u0641\u0631\u0627\u0626\u06cc\u0688 \u0686\u06a9\u0646", "brand:wikidata": "Q524757", "brand:wikipedia": "en:KFC", "brand:wikipedia:pa": "\u0a15\u0a47\u0a10\u0a2b\u0a38\u0a40", "brand:wikipedia:ur": "\u06a9\u06cc\u0646\u0679\u06a9\u06cc \u0641\u0631\u0627\u0626\u06cc\u0688 \u0686\u06a9\u0646", "cuisine": "chicken", "name": "KFC", "name:pa": "\u0a15\u0a47\u0a10\u0a2b\u0a38\u0a40", "name:ur": "\u06a9\u06cc\u0646\u0679\u06a9\u06cc \u0641\u0631\u0627\u0626\u06cc\u0688 \u0686\u06a9\u0646", "opening_hours": "Mo-Su 10:00-24:00", "operator": "KFC", "takeaway": "yes", "website": "https://online.kfc.co.in/"}}, {"type": "node", "id": 6651444886, "lat": 17.4974576, "lon": 78.3358977, "tags": {"addr:postcode": "500050", "addr:street": "Gangaram - Chandanagar Road - Mumbai highway", "amenity": "ice_cream", "name": "Ibaco", "opening_hours": "Mo-Su 09:00-23:00"}}, {"type": "node", "id": 6651571855, "lat": 17.4968647, "lon": 78.3357239, "tags": {"addr:street": "Madinaguda - Gangaram Road Mumbai Highway,National Higway 65", "amenity": "fast_food", "brand": "Taco Bell", "brand:wikidata": "Q752941", "brand:wikipedia": "en:Taco Bell", "cuisine": "tex-mex", "drive_through": "no", "name": "Taco Bell", "takeaway": "yes"}}, {"type": "node", "id": 6651571856, "lat": 17.4962888, "lon": 78.3357316, "tags": {"addr:city": "Hyderabad", "addr:postcode": "500050", "addr:street": "Allwyn - Gangaram Road Mumbai Highway", "amenity": "cinema", "name": "Inox -Cinemas", "opening_hours": "Mo-Su 10:00-23:00", "payment:cards": "yes", "payment:cash": "yes", "payment:credit_cards": "yes", "payment:debit_cards": "yes", "payment:mastercard": "yes", "payment:visa": "yes", "screen": "8"}}, {"type": "node", "id": 6651630333, "lat": 17.4910283, "lon": 78.3245206}, {"type": "node", "id": 6651630334, "lat": 17.4910046, "lon": 78.3246126}, {"type": "node", "id": 6651630335, "lat": 17.4909406, "lon": 78.3245876}, {"type": "node", "id": 6651630336, "lat": 17.4909659, "lon": 78.324505}, {"type": "node", "id": 6651630337, "lat": 17.4931455, "lon": 78.329788, "tags": {"amenity": "place_of_worship", "name": "Sri PochammaTemple", "religion": "hindu"}}, {"type": "node", "id": 6761348185, "lat": 17.4939457, "lon": 78.3240951, "tags": {"addr:street": "Chandanagar", "amenity": "place_of_worship", "name": "Sri Venkateswara temple", "religion": "hindu"}}, {"type": "node", "id": 6761376987, "lat": 17.4869622, "lon": 78.3236469, "tags": {"amenity": "place_of_worship", "name": "Hanuman Temple"}}, {"type": "node", "id": 6771601243, "lat": 17.4950652, "lon": 78.3479497}, {"type": "node", "id": 6811749123, "lat": 17.495967, "lon": 78.337188, "tags": {"addr:city": "Hyderabad", "addr:district": "Ranga Reddy", "addr:full": "Mahalakshmi Arcade, Opp Indian Oil Petrol Bunk,Madinaguda,Miyapur", "addr:postcode": "500049", "addr:state": "Telangana", "amenity": "clinic", "contact:mobile": "8008877953", "name": "SV Care Poly Clinic", "source": "OpenGovernmentData", "website": "https://svcare.in/"}}, {"type": "node", "id": 6822126491, "lat": 17.4959701, "lon": 78.3374513, "tags": {"amenity": "school", "name": "Prachin Global School", "source": "survey"}}, {"type": "node", "id": 6822126561, "lat": 17.4919985, "lon": 78.3481324, "tags": {"amenity": "pharmacy", "name": "Srikara Medical Store", "source": "survey"}}, {"type": "node", "id": 6822126639, "lat": 17.494393, "lon": 78.3459475, "tags": {"amenity": "restaurant", "name": "The Burger chefs", "source": "survey"}}, {"type": "node", "id": 6830806688, "lat": 17.4944955, "lon": 78.3296853, "tags": {"addr:district": "Hyderabad", "addr:full": "NH-65, Gangaram, Chandanagar", "addr:postcode": "500050", "addr:state": "Telangana", "amenity": "hospital", "name": "Gangaram Community Hall Health Sub Center", "source": "OpenGovernmentData"}}, {"type": "node", "id": 6853049415, "lat": 17.49252, "lon": 78.348221, "tags": {"amenity": "school", "name": "Gowtham Model School", "source": "survey"}}, {"type": "node", "id": 6853049434, "lat": 17.494429, "lon": 78.3452587, "tags": {"amenity": "place_of_worship", "name": "Abhaya Anjaneya Temple", "religion": "hindu", "source": "survey"}}, {"type": "node", "id": 6950562602, "lat": 17.5056349, "lon": 78.3527601, "tags": {"amenity": "place_of_worship", "name": "Ramalayam", "religion": "hindu"}}, {"type": "node", "id": 6950562603, "lat": 17.5060326, "lon": 78.3529205, "tags": {"amenity": "place_of_worship", "name": "Sri Venkateswara Swamy Temple", "religion": "hindu"}}, {"type": "node", "id": 6950562605, "lat": 17.50512, "lon": 78.3567973, "tags": {"amenity": "fast_food", "cuisine": "pizza;burger;sandwich;ice_cream;juice;drinks;chips;pastry", "name": "Walnut Bakes & Confectionery"}}, {"type": "node", "id": 6950562607, "lat": 17.5051477, "lon": 78.356749, "tags": {"amenity": "atm", "check_date": "2022-12-30", "operator": "Karur Vysya Bank ATM"}}, {"type": "node", "id": 7007941046, "lat": 17.4948258, "lon": 78.3397752, "tags": {"amenity": "restaurant", "name": "Southern Kitchen"}}, {"type": "node", "id": 7007970916, "lat": 17.4948228, "lon": 78.3401789, "tags": {"amenity": "hospital", "healthcare": "hospital", "healthcare:speciality": "ophthalmology", "name": "Titan eye plus"}}, {"type": "node", "id": 7008010798, "lat": 17.4971105, "lon": 78.3401688, "tags": {"amenity": "pharmacy", "brand": "Apollo Pharmacy", "brand:wikidata": "Q62562612", "dispensing": "yes", "healthcare": "pharmacy", "name": "Apollo Pharmacy", "opening_hours": "PH,Mo-Su 07:00-22:00"}}, {"type": "node", "id": 7062946692, "lat": 17.5046044, "lon": 78.3566929, "tags": {"amenity": "bank", "atm": "yes", "name": "ICICI Bank ATM"}}, {"type": "node", "id": 7062961959, "lat": 17.5074482, "lon": 78.3540118}, {"type": "node", "id": 7062961960, "lat": 17.5072694, "lon": 78.3541917}, {"type": "node", "id": 7062961961, "lat": 17.5073407, "lon": 78.3542697}, {"type": "node", "id": 7062961962, "lat": 17.5075196, "lon": 78.3540898}, {"type": "node", "id": 7062961963, "lat": 17.5094926, "lon": 78.3538015}, {"type": "node", "id": 7062961964, "lat": 17.5080577, "lon": 78.3533375}, {"type": "node", "id": 7062961965, "lat": 17.5076868, "lon": 78.353831}, {"type": "node", "id": 7062961966, "lat": 17.5089555, "lon": 78.3543621}, {"type": "node", "id": 7062961967, "lat": 17.5094556, "lon": 78.3543969}, {"type": "node", "id": 7062983765, "lat": 17.5063443, "lon": 78.3549405, "tags": {"addr:city": "Hyderabad", "addr:postcode": "500049", "amenity": "pharmacy", "dispensing": "yes", "emergency": "no", "healthcare": "pharmacy", "name": "Sai Krishna Pharmacy"}}, {"type": "node", "id": 7063003814, "lat": 17.5055332, "lon": 78.3563189, "tags": {"amenity": "pharmacy", "dispensing": "yes", "healthcare": "pharmacy", "name": "Unkonwn Pharmacy"}}, {"type": "node", "id": 7243946112, "lat": 17.4949264, "lon": 78.3560827, "tags": {"amenity": "fast_food", "brand": "KFC", "brand:pa": "\u0a15\u0a47\u0a10\u0a2b\u0a38\u0a40", "brand:ur": "\u06a9\u06cc\u0646\u0679\u06a9\u06cc \u0641\u0631\u0627\u0626\u06cc\u0688 \u0686\u06a9\u0646", "brand:wikidata": "Q524757", "brand:wikipedia": "en:KFC", "brand:wikipedia:pa": "\u0a15\u0a47\u0a10\u0a2b\u0a38\u0a40", "brand:wikipedia:ur": "\u06a9\u06cc\u0646\u0679\u06a9\u06cc \u0641\u0631\u0627\u0626\u06cc\u0688 \u0686\u06a9\u0646", "cuisine": "chicken", "name": "KFC", "name:pa": "\u0a15\u0a47\u0a10\u0a2b\u0a38\u0a40", "name:ur": "\u06a9\u06cc\u0646\u0679\u06a9\u06cc \u0641\u0631\u0627\u0626\u06cc\u0688 \u0686\u06a9\u0646", "takeaway": "yes"}}, {"type": "node", "id": 7243946114, "lat": 17.4939386, "lon": 78.3562058, "tags": {"amenity": "place_of_worship", "name": "sai baba temple", "religion": "hindu"}}, {"type": "node", "id": 7243946115, "lat": 17.4936357, "lon": 78.3565137, "tags": {"amenity": "place_of_worship", "name": "Maha Lakshmi Temple", "religion": "hindu"}}, {"type": "node", "id": 7243946116, "lat": 17.4946078, "lon": 78.3544063, "tags": {"amenity": "restaurant", "name": "Hotel Sitara Grand"}}, {"type": "node", "id": 7243946118, "lat": 17.4907311, "lon": 78.3580679, "tags": {"amenity": "school", "name": "Janapriya Schools"}}, {"type": "node", "id": 7243946119, "lat": 17.4950104, "lon": 78.3563803, "tags": {"amenity": "bank", "name": "SBI Bank"}}, {"type": "node", "id": 7243946120, "lat": 17.4956531, "lon": 78.3557656, "tags": {"amenity": "bar", "name": "Ring View"}}, {"type": "node", "id": 7243946121, "lat": 17.4946264, "lon": 78.3556961, "tags": {"amenity": "school", "name": "Roa's Schools"}}, {"type": "node", "id": 7243946122, "lat": 17.495203, "lon": 78.3569903, "tags": {"amenity": "bank", "brand": "Andhra Bank", "brand:wikidata": "Q2003476", "brand:wikipedia": "en:Andhra Bank", "name": "Andhra Bank"}}, {"type": "node", "id": 7243946123, "lat": 17.495016, "lon": 78.3569795, "tags": {"amenity": "bank", "brand": "Punjab National Bank", "brand:wikidata": "Q2743499", "brand:wikipedia": "en:Punjab National Bank", "name": "Punjab National Bank"}}, {"type": "node", "id": 7243946127, "lat": 17.4958897, "lon": 78.3596049, "tags": {"amenity": "photo_booth", "name": "Zoom Digital"}}, {"type": "node", "id": 7243946128, "lat": 17.4959372, "lon": 78.3596841, "tags": {"amenity": "cafe", "brand": "Cafe Coffee Day", "brand:wikidata": "Q5017235", "brand:wikipedia": "en:Caf\u00e9 Coffee Day", "cuisine": "coffee_shop", "name": "Cafe Coffee Day", "takeaway": "yes"}}, {"type": "node", "id": 7243946129, "lat": 17.4957622, "lon": 78.3591655, "tags": {"amenity": "school", "name": "St.Martins High School", "office": "educational_institution"}}, {"type": "node", "id": 7243959583, "lat": 17.4947296, "lon": 78.341244, "tags": {"amenity": "hospital", "healthcare": "hospital", "name": "Ankura Children hospital"}}, {"type": "node", "id": 7244163081, "lat": 17.4929361, "lon": 78.3525923, "tags": {"amenity": "bank", "brand": "Bank of India", "brand:wikidata": "Q2004439", "brand:wikipedia": "en:Bank of India", "name": "Bank of India"}}, {"type": "node", "id": 7244163082, "lat": 17.4931467, "lon": 78.352259, "tags": {"amenity": "bank", "brand": "HDFC Bank", "brand:wikidata": "Q631047", "brand:wikipedia": "en:HDFC Bank", "name": "HDFC Bank"}}, {"type": "node", "id": 7244163083, "lat": 17.4931146, "lon": 78.3522938, "tags": {"amenity": "bank", "brand": "ICICI Bank", "brand:wikidata": "Q1653258", "brand:wikipedia": "en:ICICI Bank", "name": "ICICI Bank"}}, {"type": "node", "id": 7244184319, "lat": 17.4943666, "lon": 78.3561594, "tags": {"amenity": "internet_cafe", "name": "annapurna cyber cafe"}}, {"type": "node", "id": 7244256673, "lat": 17.4971032, "lon": 78.3604199, "tags": {"amenity": "school", "name": "Castletown School"}}, {"type": "node", "id": 7244260608, "lat": 17.494811, "lon": 78.3561061, "tags": {"amenity": "restaurant", "name": "Sandwich Eatery"}}, {"type": "node", "id": 7244264295, "lat": 17.4998584, "lon": 78.3568026}, {"type": "node", "id": 7244268902, "lat": 17.4940414, "lon": 78.3556748, "tags": {"amenity": "atm", "operator": "Icici Bank ATM"}}, {"type": "node", "id": 7244268903, "lat": 17.4940788, "lon": 78.3558567, "tags": {"amenity": "atm", "operator": "canara Bank ATM"}}, {"type": "node", "id": 7244268904, "lat": 17.494097, "lon": 78.3558756, "tags": {"amenity": "atm", "operator": "Axis Bank ATM"}}, {"type": "node", "id": 7244271144, "lat": 17.4946932, "lon": 78.3563015, "tags": {"amenity": "school", "name": "castle town school"}}, {"type": "node", "id": 7244271146, "lat": 17.4941356, "lon": 78.3588228, "tags": {"amenity": "pharmacy", "brand": "MedPlus", "brand:wikidata": "Q65684234", "brand:wikipedia": "en:MedPlus", "dispensing": "yes", "healthcare": "pharmacy", "name": "MedPlus"}}, {"type": "node", "id": 7244398147, "lat": 17.493937, "lon": 78.351628, "tags": {"amenity": "hospital", "healthcare": "hospital", "name": "Dr.agarwals"}}, {"type": "node", "id": 7401499020, "lat": 17.483293, "lon": 78.3300281, "tags": {"addr:housenumber": "1764, Papireddy Nagar, Chanda Nagar, Hyderabad, Telangana 500050", "amenity": "university", "name": "sharada vidyaniketan"}}, {"type": "node", "id": 7402256572, "lat": 17.4747948, "lon": 78.3294886}, {"type": "node", "id": 7418922172, "lat": 17.483349, "lon": 78.3288814}, {"type": "node", "id": 7418922173, "lat": 17.4834008, "lon": 78.3289918}, {"type": "node", "id": 7418922174, "lat": 17.4834727, "lon": 78.3290063}, {"type": "node", "id": 7418922175, "lat": 17.483487, "lon": 78.3289103}, {"type": "node", "id": 7702220747, "lat": 17.5081728, "lon": 78.3540228}, {"type": "node", "id": 7702220748, "lat": 17.5083147, "lon": 78.3536667}, {"type": "node", "id": 7702220754, "lat": 17.5077693, "lon": 78.3538337}, {"type": "node", "id": 7702220755, "lat": 17.5079617, "lon": 78.35354}, {"type": "node", "id": 7702220764, "lat": 17.5088557, "lon": 78.3543447}, {"type": "node", "id": 7702220765, "lat": 17.508591, "lon": 78.3542562}, {"type": "node", "id": 7702220766, "lat": 17.5082175, "lon": 78.3540845}, {"type": "node", "id": 7834287539, "lat": 17.4966203, "lon": 78.3595154, "tags": {"amenity": "restaurant", "name": "Times Tiffins"}}, {"type": "node", "id": 7836389743, "lat": 17.4956951, "lon": 78.3585858, "tags": {"amenity": "atm", "currency:INR": "yes", "operator": "SBI ATM"}}, {"type": "node", "id": 7836389745, "lat": 17.4963919, "lon": 78.3588995, "tags": {"amenity": "restaurant", "name": "Donne Biriyani"}}, {"type": "node", "id": 7836389747, "lat": 17.4958883, "lon": 78.3567001, "tags": {"amenity": "fast_food", "brand": "Domino's", "brand:ks": "\u0688\u0648\u0645\u06cc\u0646\u0648\u0632", "brand:pa": "\u0a21\u0a4b\u0a2e\u0a40\u0a28\u0a4b\u0a1c\u0a3c", "brand:ur": "\u0688\u0648\u0645\u06cc\u0646\u0648\u0632", "brand:wikidata": "Q839466", "brand:wikipedia": "en:Domino's Pizza", "cuisine": "pizza", "name": "Domino's", "name:ks": "\u0688\u0648\u0645\u06cc\u0646\u0648\u0632", "name:pa": "\u0a21\u0a4b\u0a2e\u0a40\u0a28\u0a4b\u0a1c\u0a3c", "name:ur": "\u0688\u0648\u0645\u06cc\u0646\u0648\u0632", "opening_hours": "11:00-22:00", "takeaway": "yes"}}, {"type": "node", "id": 7836389748, "lat": 17.4952213, "lon": 78.353293, "tags": {"amenity": "food_court", "name": "Dosa Plaza", "opening_hours": "Mo-Su 09:00-23:00"}}, {"type": "node", "id": 7836389749, "lat": 17.4948857, "lon": 78.3532779, "tags": {"amenity": "restaurant", "cuisine": "North_Indian;chinese;Meals;Pure_Veg;Tiffins", "name": "Sri Raghavendra Bhavan Udipi", "opening_hours": "07:00-21:30"}}, {"type": "node", "id": 7836389751, "lat": 17.4940368, "lon": 78.3524303, "tags": {"amenity": "restaurant", "name": "Athidhi Restaurant", "opening_hours": "11:00-23:00", "phone": "09246835678"}}, {"type": "node", "id": 7836389752, "lat": 17.493949, "lon": 78.3522494, "tags": {"amenity": "events_venue", "name": "Athidhi Banquet Hall"}}, {"type": "node", "id": 7836389753, "lat": 17.4939989, "lon": 78.3523561, "tags": {"amenity": "restaurant", "name": "Athidhi Takeaway", "phone": "09246835678"}}, {"type": "node", "id": 7836546005, "lat": 17.4969681, "lon": 78.3576715, "tags": {"amenity": "school", "name": "Zilla Parishad High School"}}, {"type": "node", "id": 7860471142, "lat": 17.4975812, "lon": 78.3580038, "tags": {"amenity": "cafe", "brand": "Lassi Shop", "cuisine": "drinks", "description": "Serves different types of lassi, milkshakes and fruity beverages", "drink:coffee": "no", "drink:juice": "served", "name": "Lassi Shop", "opening_hours": "Mo-Fr 11:00-21:30, Sa-Su 11:00-22:00", "website": "https://www.lassishop.in/"}}, {"type": "node", "id": 7860508776, "lat": 17.4979489, "lon": 78.3573789, "tags": {"amenity": "pharmacy", "brand": "MedPlus", "brand:wikidata": "Q65684234", "brand:wikipedia": "en:MedPlus", "dispensing": "yes", "healthcare": "pharmacy", "name": "MedPlus"}}, {"type": "node", "id": 7860508777, "lat": 17.4982943, "lon": 78.3576713}, {"type": "node", "id": 7860508778, "lat": 17.4982924, "lon": 78.3577179}, {"type": "node", "id": 7860508779, "lat": 17.4982508, "lon": 78.3577184}, {"type": "node", "id": 7860508780, "lat": 17.498247, "lon": 78.3576708}, {"type": "node", "id": 7860508781, "lat": 17.4982688, "lon": 78.3576703}, {"type": "node", "id": 7860508782, "lat": 17.4982716, "lon": 78.3576931, "tags": {"amenity": "place_of_worship", "name": "Nava Graha Temple", "religion": "hindu"}}, {"type": "node", "id": 7860508783, "lat": 17.4980818, "lon": 78.3575586, "tags": {"amenity": "place_of_worship", "name": "Shiridi Sai Baba Temple", "religion": "hindu"}}, {"type": "node", "id": 7860508784, "lat": 17.4981722, "lon": 78.3575884, "tags": {"amenity": "place_of_worship", "name": "Hanuman Temple", "religion": "hindu"}}, {"type": "node", "id": 7860520385, "lat": 17.498256, "lon": 78.357581, "tags": {"amenity": "place_of_worship", "name": "Shiva Temple", "religion": "hindu"}}, {"type": "node", "id": 7860520386, "lat": 17.4983123, "lon": 78.3575834, "tags": {"amenity": "place_of_worship", "name": "Sri Santoshi Mata Temple", "religion": "hindu"}}, {"type": "node", "id": 7860520387, "lat": 17.4984077, "lon": 78.3567642, "tags": {"amenity": "place_of_worship", "name": "Qutub Masjid Mosque", "religion": "muslim"}}, {"type": "node", "id": 7860520388, "lat": 17.4949527, "lon": 78.3541072, "tags": {"amenity": "place_of_worship", "check_date": "2023-11-08", "name": "Kanakadurga Temple", "religion": "hindu"}}, {"type": "node", "id": 7863571046, "lat": 17.496975, "lon": 78.3593012, "tags": {"addr:city": "Hyderabad", "addr:housenumber": "Block-3, RBR-Complex, Miyapur", "addr:postcode": "500049", "addr:street": "Cine Town Lane", "amenity": "pharmacy", "dispensing": "yes", "healthcare": "pharmacy", "name": "Sarala Medical & General Stores"}}, {"type": "node", "id": 7900155834, "lat": 17.4930003, "lon": 78.3538431}, {"type": "node", "id": 7900155835, "lat": 17.4920964, "lon": 78.3540161}, {"type": "node", "id": 7900155836, "lat": 17.4929789, "lon": 78.3542881}, {"type": "node", "id": 7900155837, "lat": 17.4930443, "lon": 78.3538089}, {"type": "node", "id": 7900155841, "lat": 17.4925961, "lon": 78.3531309}, {"type": "node", "id": 7900155842, "lat": 17.4924553, "lon": 78.3529235}, {"type": "node", "id": 7900155843, "lat": 17.4920522, "lon": 78.3527605}, {"type": "node", "id": 7900155844, "lat": 17.491683, "lon": 78.3530128}, {"type": "node", "id": 7900155846, "lat": 17.4917999, "lon": 78.3526989}, {"type": "node", "id": 7992597293, "lat": 17.4872411, "lon": 78.3416457}, {"type": "node", "id": 7992597294, "lat": 17.4871874, "lon": 78.3416934}, {"type": "node", "id": 7992597295, "lat": 17.4871445, "lon": 78.3416417}, {"type": "node", "id": 7992597296, "lat": 17.4872034, "lon": 78.3415968}, {"type": "node", "id": 7992625472, "lat": 17.4893836, "lon": 78.3538163}, {"type": "node", "id": 7992625473, "lat": 17.4891802, "lon": 78.3539175}, {"type": "node", "id": 8006967780, "lat": 17.4995603, "lon": 78.357523, "tags": {"amenity": "fast_food", "cuisine": "regional", "name": "Brijswer Aahar", "opening_hours": "Mo-Su 09:00-20:00", "operator": "Individual"}}, {"type": "node", "id": 8007022925, "lat": 17.4998816, "lon": 78.3574735, "tags": {"addr:city": "Hyderabad", "addr:postcode": "500049", "addr:street": "Pragathi Enclave Colony, Miyapur", "amenity": "hospital", "emergency": "no", "healthcare": "hospital", "healthcare:speciality": "general;gynaecology", "name": "Tirumala Nursing home", "operator": "Individual", "operator:type": "private"}}, {"type": "node", "id": 8178573214, "lat": 17.475106, "lon": 78.328231}, {"type": "node", "id": 8178573215, "lat": 17.475569, "lon": 78.3288962}, {"type": "node", "id": 8178573216, "lat": 17.4743317, "lon": 78.3288234}, {"type": "node", "id": 8186512435, "lat": 17.4997655, "lon": 78.3570901}, {"type": "node", "id": 8186512436, "lat": 17.4993949, "lon": 78.3569665}, {"type": "node", "id": 8186512437, "lat": 17.4994919, "lon": 78.3566678}, {"type": "node", "id": 8186620859, "lat": 17.4965305, "lon": 78.3477463}, {"type": "node", "id": 8186620860, "lat": 17.496598, "lon": 78.347419}, {"type": "node", "id": 8287380183, "lat": 17.4995365, "lon": 78.3236741}, {"type": "node", "id": 8287380184, "lat": 17.4994711, "lon": 78.3238741}, {"type": "node", "id": 8287380185, "lat": 17.4993371, "lon": 78.3238089}, {"type": "node", "id": 8287380186, "lat": 17.4993939, "lon": 78.3236111}, {"type": "node", "id": 8386117455, "lat": 17.4900575, "lon": 78.3327655, "tags": {"addr:city": "Hyderabad", "addr:postcode": "500050", "addr:street": "Huda colony center road", "amenity": "place_of_worship", "name": "Sai Baba Temple", "religion": "hindu"}}, {"type": "node", "id": 8386132335, "lat": 17.4884666, "lon": 78.3327785, "tags": {"addr:city": "Hyderabad", "addr:postcode": "500050", "addr:street": "MMTS Road", "amenity": "place_of_worship", "name": "Hanuman Temple", "religion": "hindu"}}, {"type": "node", "id": 8386142761, "lat": 17.4881804, "lon": 78.3307178, "tags": {"addr:city": "Hyderabad", "addr:postcode": "500050", "amenity": "place_of_worship", "name": "Shivalayam Temple", "religion": "hindu"}}, {"type": "node", "id": 8386230996, "lat": 17.4906989, "lon": 78.3370565, "tags": {"addr:city": "hyderabad", "addr:postcode": "500049", "addr:street": "Manjira Pipeline Road", "amenity": "bank", "atm": "yes", "brand": "HDFC Bank", "brand:wikidata": "Q631047", "brand:wikipedia": "en:HDFC Bank", "name": "HDFC Bank"}}, {"type": "node", "id": 8386241852, "lat": 17.4907039, "lon": 78.3373612}, {"type": "node", "id": 8386241853, "lat": 17.490675, "lon": 78.3374915}, {"type": "node", "id": 8386241854, "lat": 17.4904668, "lon": 78.3374466}, {"type": "node", "id": 8386241855, "lat": 17.4904948, "lon": 78.3373154}, {"type": "node", "id": 8386246338, "lat": 17.4967073, "lon": 78.3453066, "tags": {"amenity": "school", "name": "St Anns High School"}}, {"type": "node", "id": 8386265564, "lat": 17.4904127, "lon": 78.3396464}, {"type": "node", "id": 8386265565, "lat": 17.4922875, "lon": 78.340029}, {"type": "node", "id": 8386265566, "lat": 17.492105, "lon": 78.3403178}, {"type": "node", "id": 8386265567, "lat": 17.4913398, "lon": 78.3411752}, {"type": "node", "id": 8386265568, "lat": 17.4910173, "lon": 78.3414583}, {"type": "node", "id": 8386265569, "lat": 17.4901157, "lon": 78.3410531}, {"type": "node", "id": 8386424463, "lat": 17.4944402, "lon": 78.3398858, "tags": {"addr:city": "Hyderabad", "addr:postcode": "500050", "addr:street": "Allwyn - Gangaram Road Mumbai Highway", "amenity": "bar", "brewery": "yes", "min_age": "21", "name": "Over The Flow Sports Lounge", "opening_hours": "Mo-Su 10:00-22:00"}}, {"type": "node", "id": 8386452077, "lat": 17.4958157, "lon": 78.3386267, "tags": {"addr:city": "Hyderabad", "addr:postcode": "500050", "addr:street": "Allwyn - Gangaram Road Mumbai Highway", "amenity": "bar", "brewery": "yes", "min_age": "21", "name": "Sangeetha Lounge Bar", "opening_hours": "Mo-Su 10:00-22:00"}}, {"type": "node", "id": 8386478404, "lat": 17.4971476, "lon": 78.33578, "tags": {"addr:city": "Hyderabad", "addr:postcode": "500050", "addr:street": "PJR Layout Main Road", "amenity": "fast_food", "brand": "Burger King", "brand:pa": "\u0a2c\u0a30\u0a17\u0a30 \u0a15\u0a3f\u0a70\u0a17", "brand:ur": "\u0628\u0631\u06af\u0631 \u06a9\u0646\u06af", "brand:wikidata": "Q177054", "brand:wikipedia": "en:Burger King", "brand:wikipedia:pa": "\u0a2c\u0a30\u0a17\u0a30 \u0a15\u0a3f\u0a70\u0a17", "brand:wikipedia:ur": "\u0628\u0631\u06af\u0631 \u06a9\u0646\u06af", "cuisine": "burger", "name": "Burger King", "name:pa": "\u0a2c\u0a30\u0a17\u0a30 \u0a15\u0a3f\u0a70\u0a17", "name:ru": "\u0411\u0443\u0440\u0433\u0435\u0440 \u041a\u0438\u043d\u0433", "name:ur": "\u0628\u0631\u06af\u0631 \u06a9\u0646\u06af", "takeaway": "yes"}}, {"type": "node", "id": 8386503704, "lat": 17.4970079, "lon": 78.3357668, "tags": {"addr:city": "Hyderabad", "addr:postcode": "500050", "addr:street": "PJR Layout Main Road", "air_conditioning": "yes", "amenity": "restaurant", "cuisine": "indian;chinese;chicken;regional", "name": "Tasty Train"}}, {"type": "node", "id": 8386538016, "lat": 17.4954276, "lon": 78.3244754, "tags": {"addr:city": "Hyderabad", "addr:postcode": "500050", "addr:street": "Chandanagar - RC Puram BHEL Rd Mumbai Highway", "amenity": "college", "internet_access": "no", "name": "Narayana Jr.college"}}, {"type": "node", "id": 8386601183, "lat": 17.4912635, "lon": 78.3339391, "tags": {"addr:city": "Hyderabad", "addr:postcode": "500049", "addr:street": "Manjira Pipe Line Road", "amenity": "school", "grades": "1-10", "name": "Vidhya Vani High School"}}, {"type": "node", "id": 8386603821, "lat": 17.4995071, "lon": 78.3457642}, {"type": "node", "id": 8386603822, "lat": 17.499468, "lon": 78.3459584}, {"type": "node", "id": 8386603823, "lat": 17.4991784, "lon": 78.3459512}, {"type": "node", "id": 8386603824, "lat": 17.4989568, "lon": 78.3467241}, {"type": "node", "id": 8386603825, "lat": 17.4987054, "lon": 78.3476438}, {"type": "node", "id": 8386603826, "lat": 17.4983228, "lon": 78.348809}, {"type": "node", "id": 8386603827, "lat": 17.4982265, "lon": 78.3487698}, {"type": "node", "id": 8386603828, "lat": 17.4981926, "lon": 78.3483048}, {"type": "node", "id": 8386603829, "lat": 17.4982229, "lon": 78.3479442}, {"type": "node", "id": 8386603830, "lat": 17.4982969, "lon": 78.3473395}, {"type": "node", "id": 8386603831, "lat": 17.4982046, "lon": 78.3470035}, {"type": "node", "id": 8386603832, "lat": 17.4979396, "lon": 78.3465354}, {"type": "node", "id": 8386603833, "lat": 17.4978665, "lon": 78.3461963}, {"type": "node", "id": 8386603834, "lat": 17.4979083, "lon": 78.3459994}, {"type": "node", "id": 8386603835, "lat": 17.498203, "lon": 78.345983}, {"type": "node", "id": 8386603836, "lat": 17.4984351, "lon": 78.3458982}, {"type": "node", "id": 8386603837, "lat": 17.498649, "lon": 78.3459174}, {"type": "node", "id": 8386603838, "lat": 17.498902, "lon": 78.3459584}, {"type": "node", "id": 8386603839, "lat": 17.4989333, "lon": 78.3457259}, {"type": "node", "id": 8386603840, "lat": 17.4978593, "lon": 78.3460897}, {"type": "node", "id": 8386603841, "lat": 17.4978812, "lon": 78.3463839}, {"type": "node", "id": 8386603842, "lat": 17.4980549, "lon": 78.3467916}, {"type": "node", "id": 8386603843, "lat": 17.4982851, "lon": 78.347147}, {"type": "node", "id": 8386603844, "lat": 17.4984484, "lon": 78.3485852}, {"type": "node", "id": 8386603845, "lat": 17.4991007, "lon": 78.3463462}, {"type": "node", "id": 8386603846, "lat": 17.498572, "lon": 78.3484118}, {"type": "node", "id": 8386636997, "lat": 17.4915601, "lon": 78.334498, "tags": {"addr:city": "Hyderabad", "addr:postcode": "500050", "addr:street": "Manjira Pipeline Road", "amenity": "school", "grades": "1-10", "name": "NSV High School"}}, {"type": "node", "id": 8386705331, "lat": 17.4921664, "lon": 78.3317723, "tags": {"addr:city": "hyderabad", "addr:postcode": "500050", "addr:street": "MMTS Road", "amenity": "pharmacy", "brand": "MedPlus", "brand:wikidata": "Q65684234", "brand:wikipedia": "en:MedPlus", "dispensing": "yes", "healthcare": "pharmacy", "name": "MedPlus"}}, {"type": "node", "id": 8748479530, "lat": 17.4940229, "lon": 78.3470745, "tags": {"addr:district": "Rangareddy", "addr:full": "Mythri Nagar, Madinaguda Beside South India Shopping Mall, Hafeezpet", "addr:postcode": "500050", "addr:state": "Telangana", "amenity": "hospital", "name": "Pace Hospitals ,Madinaguda", "source": "Local Knowledge"}}, {"type": "node", "id": 8763316074, "lat": 17.4951229, "lon": 78.3574077, "tags": {"addr:district": "Medchal", "addr:full": "Jagdish Complex,Miyapur Main Road, Ambedkar Nagar, Miyapur", "addr:postcode": "500049", "addr:state": "Telangana", "amenity": "hospital", "name": "Udbhava Hospital ,Miyapur", "source": "Local Knowledge"}}, {"type": "node", "id": 9527714603, "lat": 17.4950007, "lon": 78.3567882, "tags": {"amenity": "restaurant", "diet:non-vegetarian": "yes", "name": "Kritunga Restaurant"}}, {"type": "node", "id": 9626752901, "lat": 17.4905917, "lon": 78.3299535, "tags": {"amenity": "place_of_worship", "religion": "hindu"}}, {"type": "node", "id": 9869552793, "lat": 17.4909565, "lon": 78.341431}, {"type": "node", "id": 9961146199, "lat": 17.4970903, "lon": 78.325766}, {"type": "node", "id": 9961146200, "lat": 17.4970322, "lon": 78.3259349}, {"type": "node", "id": 9961146201, "lat": 17.496702, "lon": 78.3258186}, {"type": "node", "id": 9961146202, "lat": 17.4967443, "lon": 78.325658}, {"type": "node", "id": 9961146203, "lat": 17.4969714, "lon": 78.3257937, "tags": {"amenity": "place_of_worship", "name": "Sai baba temple", "religion": "hindu"}}, {"type": "node", "id": 10614362397, "lat": 17.4833282, "lon": 78.3289785}, {"type": "node", "id": 10980705826, "lat": 17.4883898, "lon": 78.32651, "tags": {"addr:district": "Rangareddy", "addr:place": "Madhuranagar, Serlingampally", "addr:state": "Telangana", "addr:street": "Madhuranagar, Serlingampally", "amenity": "health_post", "healthcare": "yes", "name": "Madhuranagar, Serlingampally (Basthi Dawakhana)", "operational_status": "operational", "operator:type": "government", "source": "OpenDataTelangana"}}, {"type": "node", "id": 10991419156, "lat": 17.4761785, "lon": 78.3582269, "tags": {"addr:district": "Warangal Urban", "addr:place": "Warangal-1", "addr:state": "Telangana", "addr:street": "Warangal-1", "addr:subdistrict": "Warangal", "amenity": "clinic", "healthcare": "clinic", "name": "Urban Primary Health Centre, Warangal-1 (New Peddammagadda)", "operational_status": "operational", "operator:type": "government", "source": "OpenDataTelangana"}}, {"type": "node", "id": 11013642613, "lat": 17.4790366, "lon": 78.3571972, "tags": {"addr:district": "Rangareddy", "addr:place": "Kondapur, Hyderabad", "addr:state": "Telangana", "addr:street": "Hafeezpet", "amenity": "health_post", "healthcare": "yes", "name": "Prem Nagar, Kodapur (Basti Dawakhana)", "operational_status": "operational", "operator:type": "government"}}, {"type": "node", "id": 11311189243, "lat": 17.4859181, "lon": 78.3579575}, {"type": "node", "id": 11484345718, "lat": 17.483847, "lon": 78.3485713, "tags": {"amenity": "restaurant", "cuisine": "regional;coffee_shop", "name": "Vishal Nagar , Aru Restaurant"}}, {"type": "node", "id": 11484345759, "lat": 17.4842858, "lon": 78.3564669, "tags": {"amenity": "restaurant", "cuisine": "regional"}}, {"type": "way", "id": 158331259, "nodes": [1705549177, 6505467271, 6505467270, 1705548628, 1705548605, 1705549156, 1705548978, 1705549177], "tags": {"amenity": "college", "name": "Suman Degree College"}}, {"type": "way", "id": 265634539, "nodes": [2712702155, 2712702156, 2712702157, 2712702158, 2712702155], "tags": {"addr:city": "hyderabad", "addr:housenumber": "Plot No. 1, Door No. 2-132/1/B", "addr:postcode": "500050", "addr:street": "Engineers Enclave", "amenity": "restaurant", "building": "yes", "name": "salsa", "phone": "098 48 838949"}}, {"type": "way", "id": 297191663, "nodes": [3010422352, 3010422353, 3010422354, 3010422355, 3010422352], "tags": {"amenity": "school", "name": "St. Rita School"}}, {"type": "way", "id": 314386982, "nodes": [3204334845, 3204334846, 7992625473, 3204334847, 3204334848, 7992625472, 3204334845], "tags": {"addr:city": "Hyderabad", "addr:postcode": "500050", "amenity": "fuel", "building": "yes", "name": "Indian Oil Petrol Bunk", "operator": "Indian Oil"}}, {"type": "way", "id": 355888525, "nodes": [3614251850, 3614251833, 3602315815, 3614251465, 3614251483, 11311189243, 3614251850], "tags": {"amenity": "fuel", "brand": "Bharat Petroleum", "brand:wikidata": "Q854826", "brand:wikipedia": "en:Bharat Petroleum", "name": "Bharat Petroleum"}}, {"type": "way", "id": 355894929, "nodes": [3614286106, 3614286093, 3614285903, 7900155842, 7900155841, 3614285913, 3614286106], "tags": {"amenity": "restaurant", "building": "yes", "cuisine": "indian", "name": "Urban Kitchen"}}, {"type": "way", "id": 355895207, "nodes": [3614284131, 3614284176, 3614284173, 3614284127, 3614284131], "tags": {"amenity": "place_of_worship", "building": "yes", "name": "Shiva Temple", "religion": "hindu"}}, {"type": "way", "id": 355895211, "nodes": [3614284478, 3614284459, 3614284409, 3614284424, 3614284478], "tags": {"amenity": "restaurant", "building": "yes", "cuisine": "breakfast", "diet:vegetarian": "yes", "name": "Udipi Hotel"}}, {"type": "way", "id": 355970391, "nodes": [3614723527, 3614723516, 3614723417, 3614723410, 3614723352, 3614723370, 3614723527], "tags": {"amenity": "community_centre", "building": "yes"}}, {"type": "way", "id": 356005964, "nodes": [3614956294, 3614956295, 3614956293, 3614956292, 3614956294], "tags": {"amenity": "fuel"}}, {"type": "way", "id": 356021831, "nodes": [3615040417, 3615040414, 3615040397, 3615040401, 6771601243, 3615040417], "tags": {"addr:city": "Hyderabad", "addr:postcode": "500049", "amenity": "cafe", "building": "yes", "name": "Monginis Cake Shop"}}, {"type": "way", "id": 356171537, "nodes": [3616773224, 3616773206, 3616772074, 3616772075, 3616773224], "tags": {"addr:city": "Hyderabad", "addr:housenumber": "Sivaji Nagar,Huda Colony", "addr:postcode": "500050", "addr:street": "Lingampally- Huda Colony Rd,", "amenity": "place_of_worship", "building": "yes", "name": "Sai Baba Temple", "religion": "hindu"}}, {"type": "way", "id": 356187966, "nodes": [3616856183, 3616856182, 3616856189, 3616856187, 3616856176, 3616856177, 3616856183], "tags": {"amenity": "place_of_worship", "building": "yes", "name": "Saint Thomas Church", "religion": "christian"}}, {"type": "way", "id": 356221172, "nodes": [3617065129, 3617065128, 3617065124, 3617065125, 3617065129], "tags": {"amenity": "place_of_worship", "building": "yes", "name": "Sri Sri Mahankali Temple", "religion": "hindu"}}, {"type": "way", "id": 359694943, "nodes": [3643652014, 3643652013, 3643652011, 3643652012, 3643652014], "tags": {"amenity": "place_of_worship", "building": "yes", "name": "Sai Baba Temple", "religion": "hindu"}}, {"type": "way", "id": 384807022, "nodes": [3881619918, 3881619919, 3881619920, 3881619921, 3881619918], "tags": {"amenity": "place_of_worship", "building": "yes"}}, {"type": "way", "id": 384807025, "nodes": [3881619930, 3881619931, 3881619932, 3881619933, 3881619934, 3881619935, 3881619936, 3881619937, 3881619930], "tags": {"description": "Ground for wedding receptions and birthday parties"}}, {"type": "way", "id": 416874984, "nodes": [4175550096, 4175550095, 4175550093, 4175550094, 4175550096], "tags": {"amenity": "fuel"}}, {"type": "way", "id": 416991199, "nodes": [4176367551, 4176367550, 4176367536, 4176367537, 4176367551], "tags": {"amenity": "place_of_worship", "building": "yes", "name": "Tree Mosque", "religion": "muslim"}}, {"type": "way", "id": 474554134, "nodes": [4684822891, 4684829090, 4684817490, 4867787622, 4684806092, 4684822791, 4684782692, 4684812294, 4684822891], "tags": {"amenity": "parking", "parking": "surface"}}, {"type": "way", "id": 474554135, "nodes": [4684812197, 4684822593, 4684817394, 4684812196, 4684812197], "tags": {"amenity": "parking"}}, {"type": "way", "id": 474554136, "nodes": [4684806094, 4684822793, 4684806093, 4684817392, 4684782693, 4684806094], "tags": {"amenity": "parking"}}, {"type": "way", "id": 627572568, "nodes": [5924191787, 5924191788, 5924191789, 5924191790, 5924191787], "tags": {"amenity": "school"}}, {"type": "way", "id": 627572569, "nodes": [5924191791, 5924191792, 5924191793, 5924191794, 5924191795, 5924191796, 5924191791], "tags": {"amenity": "school"}}, {"type": "way", "id": 704493174, "nodes": [6616052542, 6616052543, 6616052544, 6616052545, 6616052542], "tags": {"amenity": "school", "name": "Delhi Public School"}}, {"type": "way", "id": 704493175, "nodes": [6616052546, 6616052547, 6616052548, 6616052549, 6616052546], "tags": {"amenity": "place_of_worship", "building": "yes", "name": "Sri Vishnu Panchayatana Multiplex Temple Complex", "religion": "hindu"}}, {"type": "way", "id": 707873005, "nodes": [6651630333, 6651630334, 6651630335, 6651630336, 6651630333], "tags": {"amenity": "place_of_worship", "building": "yes", "denomination": "hindu", "name": "Vaishno Devi Temple", "religion": "hindu"}}, {"type": "way", "id": 756209350, "nodes": [7062961959, 7062961960, 7062961961, 7062961962, 7062961959], "tags": {"addr:city": "Hyderabad", "addr:postcode": "500048", "addr:street": "JP Nagar lane", "amenity": "restaurant", "building": "shed", "name": "TRP Resturant"}}, {"type": "way", "id": 756209351, "nodes": [7062961963, 7062961964, 7062961965, 7702220766, 7702220765, 7702220764, 7062961966, 7062961967, 7062961963], "tags": {"addr:city": "Hyderabad", "addr:postcode": "500048", "addr:street": "JP Nagar lane", "amenity": "community_centre", "name": "Viswanath Gardens"}}, {"type": "way", "id": 793420240, "nodes": [7418922175, 7418922174, 7418922173, 10614362397, 7418922172, 7418922175], "tags": {"amenity": "place_of_worship", "building": "yes", "name": "Jerusalem prayer house", "religion": "christian"}}, {"type": "way", "id": 824852911, "nodes": [7702220755, 7702220748, 7702220747, 7702220754, 7702220755], "tags": {"access": "private", "amenity": "parking"}}, {"type": "way", "id": 842595128, "nodes": [7860508777, 7860508778, 7860508779, 7860508780, 7860508781, 7860508777], "tags": {"amenity": "place_of_worship", "building": "yes", "religion": "hindu"}}, {"type": "way", "id": 846711078, "nodes": [7900155834, 2231949474, 7900155835, 7900155836, 7900155837, 7900155834]}, {"type": "way", "id": 846711080, "nodes": [7900155843, 7900155844, 7900155846, 7900155843], "tags": {"amenity": "place_of_worship", "building": "yes", "religion": "hindu"}}, {"type": "way", "id": 857256365, "nodes": [7992597296, 7992597295, 7992597294, 7992597293, 7992597296], "tags": {"amenity": "place_of_worship", "name": "Peddamma Temple", "religion": "hindu", "source": "local"}}, {"type": "way", "id": 879138502, "nodes": [8178573216, 8178573214, 8178573215, 7402256572, 8178573216], "tags": {"addr:housenumber": "147, Doyens Rd, Doyens Colony, Serilingampally, Hyderabad, Telangana 500019", "amenity": "school", "name": "Vidyanjali High School"}}, {"type": "way", "id": 880085371, "nodes": [8186512437, 7244264295, 8186512435, 8186512436, 3617358696, 8186512437], "tags": {"amenity": "school", "name": "Unicent School"}}, {"type": "way", "id": 880097274, "nodes": [3615040959, 8186620860, 8186620859, 3370264545, 3615040959], "tags": {"addr:city": "Hyderabad", "addr:postcode": "500049", "amenity": "police", "name": "Miyapur Police Strion"}}, {"type": "way", "id": 891668365, "nodes": [8287380183, 8287380184, 8287380185, 8287380186, 8287380183], "tags": {"amenity": "place_of_worship", "building": "yes", "name": "Sri Lakshmi Ganapathi Devastanam", "religion": "hindu"}}, {"type": "way", "id": 902925307, "nodes": [8386241852, 8386241853, 8386241854, 8386241855, 8386241852], "tags": {"addr:city": "hyderabad", "addr:postcode": "500049", "addr:street": "Manjira Pipeline Road", "amenity": "hospital", "emergency": "yes", "healthcare": "hospital", "name": "Lakshmi hospital"}}, {"type": "way", "id": 902926972, "nodes": [8386265564, 8386265565, 8386265566, 8386265567, 8386265568, 9869552793, 8386265569, 8386265564], "tags": {"addr:city": "hyderabad", "addr:postcode": "500050", "addr:street": "Manjeera Pipeline Road", "amenity": "school", "grades": "0-12", "name": "Kallam Anji Reddy School", "name:etymology:wikidata": "Q6353527"}}, {"type": "way", "id": 902961594, "nodes": [8386603821, 8386603822, 8386603823, 8386603845, 8386603824, 8386603825, 8386603846, 8386603844, 8386603826, 8386603827, 8386603828, 8386603829, 8386603830, 8386603843, 8386603831, 8386603842, 8386603832, 8386603841, 8386603833, 8386603840, 8386603834, 8386603835, 8386603836, 8386603837, 8386603838, 8386603839, 8386603821], "tags": {"amenity": "school", "name": "Gautami Vidya Kshetra School"}}, {"type": "way", "id": 1087174301, "nodes": [9961146199, 9961146200, 9961146201, 9961146202, 9961146199], "tags": {"amenity": "place_of_worship", "building": "yes", "name": "sai baba temple", "religion": "hindu"}}, {"type": "relation", "id": 11962304, "members": [{"type": "way", "ref": 384807025, "role": "outer"}, {"type": "way", "ref": 846711078, "role": "outer"}], "tags": {"amenity": "community_centre", "name": "Satya Bharathi Convetion Center", "type": "multipolygon"}}]}