{"version": 0.6, "generator": "Overpass API 0.7.61.5 4133829e", "osm3s": {"timestamp_osm_base": "2024-02-21T13:07:00Z", "copyright": "The data included in this document is from www.openstreetmap.org. The data is made available under ODbL."}, "elements": [{"type": "node", "id": 2705368998, "lat": 17.4994837, "lon": 78.3082437}, {"type": "node", "id": 2705368999, "lat": 17.5004446, "lon": 78.3082311}, {"type": "node", "id": 2705369001, "lat": 17.5004471, "lon": 78.3084411}, {"type": "node", "id": 2705369002, "lat": 17.5013601, "lon": 78.3084292}, {"type": "node", "id": 2705369003, "lat": 17.501351, "lon": 78.3076624}, {"type": "node", "id": 2705369004, "lat": 17.5021442, "lon": 78.307652}, {"type": "node", "id": 2705369008, "lat": 17.5021298, "lon": 78.3067328}, {"type": "node", "id": 2705369011, "lat": 17.499464, "lon": 78.3067957}, {"type": "node", "id": 2708635693, "lat": 17.5010667, "lon": 78.3023751}, {"type": "node", "id": 2708635695, "lat": 17.5004585, "lon": 78.3036349}, {"type": "node", "id": 2708667902, "lat": 17.5011523, "lon": 78.2986731}, {"type": "node", "id": 2708667903, "lat": 17.5005911, "lon": 78.298603}, {"type": "node", "id": 2708667904, "lat": 17.5005377, "lon": 78.2991027}, {"type": "node", "id": 2708667905, "lat": 17.5012815, "lon": 78.2992382}, {"type": "node", "id": 2708668885, "lat": 17.5020572, "lon": 78.2969003}, {"type": "node", "id": 2708668886, "lat": 17.5018634, "lon": 78.2967539}, {"type": "node", "id": 2708668887, "lat": 17.5000872, "lon": 78.2966393}, {"type": "node", "id": 2708668888, "lat": 17.4999358, "lon": 78.2983677}, {"type": "node", "id": 2708668889, "lat": 17.5012042, "lon": 78.2984695}, {"type": "node", "id": 2955540454, "lat": 17.5039135, "lon": 78.2900347}, {"type": "node", "id": 2955540455, "lat": 17.5038895, "lon": 78.2893337}, {"type": "node", "id": 2955540456, "lat": 17.503016, "lon": 78.2893601}, {"type": "node", "id": 2955540457, "lat": 17.5030275, "lon": 78.2900479}, {"type": "node", "id": 3469102923, "lat": 17.5014685, "lon": 78.2988225}, {"type": "node", "id": 3469687721, "lat": 17.5067834, "lon": 78.3070513}, {"type": "node", "id": 3469687722, "lat": 17.5065741, "lon": 78.3074371}, {"type": "node", "id": 3469687723, "lat": 17.5068644, "lon": 78.3076671}, {"type": "node", "id": 3469687724, "lat": 17.5071141, "lon": 78.3074158}, {"type": "node", "id": 3469724896, "lat": 17.5001124, "lon": 78.3019873}, {"type": "node", "id": 3469724897, "lat": 17.4999486, "lon": 78.3033767}, {"type": "node", "id": 3469724898, "lat": 17.499414, "lon": 78.3031837}, {"type": "node", "id": 3469724899, "lat": 17.4995777, "lon": 78.3019311}, {"type": "node", "id": 3469725336, "lat": 17.5000432, "lon": 78.3034889}, {"type": "node", "id": 3469725337, "lat": 17.4994202, "lon": 78.3032516}, {"type": "node", "id": 3469725338, "lat": 17.4993233, "lon": 78.3040866}, {"type": "node", "id": 3469725339, "lat": 17.4997141, "lon": 78.3042745}, {"type": "node", "id": 3469726441, "lat": 17.502569, "lon": 78.3058262}, {"type": "node", "id": 3469726442, "lat": 17.5026457, "lon": 78.3059711}, {"type": "node", "id": 3469726443, "lat": 17.5026355, "lon": 78.3061695}, {"type": "node", "id": 3469726444, "lat": 17.5025639, "lon": 78.3062715}, {"type": "node", "id": 3469726445, "lat": 17.5021955, "lon": 78.3062822}, {"type": "node", "id": 3469726446, "lat": 17.5021955, "lon": 78.3066362}, {"type": "node", "id": 3469726447, "lat": 17.500584, "lon": 78.3067167}, {"type": "node", "id": 3469726448, "lat": 17.499488, "lon": 78.3067068}, {"type": "node", "id": 3469726449, "lat": 17.4993867, "lon": 78.3042436}, {"type": "node", "id": 3469726450, "lat": 17.5010609, "lon": 78.3050788}, {"type": "node", "id": 3469890087, "lat": 17.4997482, "lon": 78.3033549}, {"type": "node", "id": 3469921917, "lat": 17.5019642, "lon": 78.2988679}, {"type": "node", "id": 3469922231, "lat": 17.4999712, "lon": 78.2966401}, {"type": "node", "id": 3469922232, "lat": 17.4998704, "lon": 78.2978516}, {"type": "node", "id": 3469922233, "lat": 17.4995835, "lon": 78.2977784}, {"type": "node", "id": 3469922234, "lat": 17.4981799, "lon": 78.2975589}, {"type": "node", "id": 3469922235, "lat": 17.4984436, "lon": 78.2964043}, {"type": "node", "id": 3469998524, "lat": 17.5010226, "lon": 78.3114133}, {"type": "node", "id": 3469998525, "lat": 17.5013017, "lon": 78.31208}, {"type": "node", "id": 3469998526, "lat": 17.5007667, "lon": 78.3124134}, {"type": "node", "id": 3469998527, "lat": 17.5003789, "lon": 78.3116898}, {"type": "node", "id": 3470006544, "lat": 17.504531, "lon": 78.3080683}, {"type": "node", "id": 3470006545, "lat": 17.5041361, "lon": 78.3080435}, {"type": "node", "id": 3470006546, "lat": 17.504018, "lon": 78.3083443}, {"type": "node", "id": 3470006547, "lat": 17.5042914, "lon": 78.3085248}, {"type": "node", "id": 3470008904, "lat": 17.5037327, "lon": 78.3087075}, {"type": "node", "id": 3470008906, "lat": 17.5039713, "lon": 78.3087085}, {"type": "node", "id": 3470008907, "lat": 17.5037373, "lon": 78.3088191}, {"type": "node", "id": 3470008908, "lat": 17.5039713, "lon": 78.3088191}, {"type": "node", "id": 3484092116, "lat": 17.5070224, "lon": 78.2831164}, {"type": "node", "id": 3484092117, "lat": 17.5057838, "lon": 78.2831263}, {"type": "node", "id": 3484092118, "lat": 17.5057977, "lon": 78.2835375}, {"type": "node", "id": 3484092158, "lat": 17.5057979, "lon": 78.2835394}, {"type": "node", "id": 3484092159, "lat": 17.5057973, "lon": 78.2835407}, {"type": "node", "id": 3484092160, "lat": 17.5058226, "lon": 78.2847529}, {"type": "node", "id": 3484092162, "lat": 17.5069071, "lon": 78.2847111}, {"type": "node", "id": 3484092163, "lat": 17.5070418, "lon": 78.2839056}, {"type": "node", "id": 3484150311, "lat": 17.5069749, "lon": 78.2843081}, {"type": "node", "id": 3612127795, "lat": 17.5338446, "lon": 78.3162001}, {"type": "node", "id": 3612127796, "lat": 17.5338446, "lon": 78.3163443}, {"type": "node", "id": 3612127805, "lat": 17.5339076, "lon": 78.3162001}, {"type": "node", "id": 3612127806, "lat": 17.5339076, "lon": 78.3162291}, {"type": "node", "id": 3612127807, "lat": 17.5339243, "lon": 78.3162291}, {"type": "node", "id": 3612127808, "lat": 17.5339243, "lon": 78.3163443}, {"type": "node", "id": 3614127715, "lat": 17.5026105, "lon": 78.312156}, {"type": "node", "id": 3614127760, "lat": 17.5027679, "lon": 78.3125587}, {"type": "node", "id": 3614127768, "lat": 17.5028649, "lon": 78.3122163}, {"type": "node", "id": 3614127775, "lat": 17.5029114, "lon": 78.3120267}, {"type": "node", "id": 3614127781, "lat": 17.5029656, "lon": 78.3124738}, {"type": "node", "id": 3614127782, "lat": 17.5029681, "lon": 78.312172}, {"type": "node", "id": 3616835945, "lat": 17.5132145, "lon": 78.2866835}, {"type": "node", "id": 3616835951, "lat": 17.5132762, "lon": 78.2864895}, {"type": "node", "id": 3616835978, "lat": 17.5135298, "lon": 78.2867937}, {"type": "node", "id": 3616835984, "lat": 17.5135915, "lon": 78.2865997}, {"type": "node", "id": 3617278172, "lat": 17.5121449, "lon": 78.293516}, {"type": "node", "id": 3617278295, "lat": 17.5121983, "lon": 78.2933986}, {"type": "node", "id": 3617278355, "lat": 17.5124191, "lon": 78.2936533}, {"type": "node", "id": 3617278364, "lat": 17.5124726, "lon": 78.293536}, {"type": "node", "id": 3617384235, "lat": 17.5097216, "lon": 78.2971443}, {"type": "node", "id": 3617384236, "lat": 17.5097494, "lon": 78.2970623}, {"type": "node", "id": 3617384242, "lat": 17.5099606, "lon": 78.2972332}, {"type": "node", "id": 3617384245, "lat": 17.5099883, "lon": 78.2971513}, {"type": "node", "id": 3618870160, "lat": 17.5130831, "lon": 78.2911205}, {"type": "node", "id": 3618870163, "lat": 17.5131262, "lon": 78.2909925}, {"type": "node", "id": 3618870174, "lat": 17.5133195, "lon": 78.2912081}, {"type": "node", "id": 3618870181, "lat": 17.5133627, "lon": 78.2910801}, {"type": "node", "id": 3722343813, "lat": 17.5042714, "lon": 78.3145236}, {"type": "node", "id": 3722343814, "lat": 17.5044632, "lon": 78.3149609}, {"type": "node", "id": 3722343815, "lat": 17.5038018, "lon": 78.3152901}, {"type": "node", "id": 3722343816, "lat": 17.5035947, "lon": 78.3148371}, {"type": "node", "id": 4175298303, "lat": 17.5095805, "lon": 78.2957389}, {"type": "node", "id": 4175298304, "lat": 17.5096603, "lon": 78.2954914}, {"type": "node", "id": 4175298305, "lat": 17.5106056, "lon": 78.2961023}, {"type": "node", "id": 5539102501, "lat": 17.5087613, "lon": 78.300147, "tags": {"addr:city": "Hyderabad", "addr:full": "H.No: 25-35/12/ 1, Opp: BEERAMGUDA KAMAN, RAMACHANDRAPURAM, MEDAK", "addr:postcode": "502032", "addr:state": "Telangana", "amenity": "hospital", "name": "PANACEA MERIDIAN HOSPITAL", "opening_hours": "Mo-Su 09:00-21:00", "operator:type": "private", "source": "OpenGovernmentData"}}, {"type": "node", "id": 5539102503, "lat": 17.5133696, "lon": 78.2878115, "tags": {"amenity": "bank", "name": "APGVB bank", "opening_hours": "Mo-Sa 10:00-16:00"}}, {"type": "node", "id": 5539102773, "lat": 17.5087611, "lon": 78.2998471, "tags": {"amenity": "bank", "name": "Laxmi vilas Bank", "opening_hours": "Mo-Sa 10:00-16:00"}}, {"type": "node", "id": 6532106149, "lat": 17.5046076, "lon": 78.3088705, "tags": {"addr:city": "Hyderabad", "addr:district": "Hyderabad", "addr:full": "Near Ashok Nagar Bus Stop, Ramachandra Puram", "addr:postcode": "502032", "addr:state": "Telangana", "addr:street": "Surekha Lane, Ashok Nagar", "amenity": "hospital", "healthcare": "doctor", "healthcare:speciality": "general", "name": "Sri Pallavi Hospital", "name:te": "\u0c36\u0c4d\u0c30\u0c40 \u0c2a\u0c32\u0c4d\u0c32\u0c35\u0c3f \u0c39\u0c3e\u0c38\u0c4d\u0c2a\u0c3f\u0c1f\u0c32\u0c4d", "source": "OpenGovernmentData;local knowledge"}}, {"type": "node", "id": 6532278196, "lat": 17.5022005, "lon": 78.3129877, "tags": {"addr:district": "Hyderabad", "addr:full": "23-15, Vinayaknagar, Ramachandrapuram", "addr:postcode": "502032", "addr:state": "Telangana", "amenity": "hospital", "name": "Sidhartha Nursing Home", "source": "OpenGovernmentData"}}, {"type": "node", "id": 6536841915, "lat": 17.5057043, "lon": 78.3072115, "tags": {"addr:district": "Hyderabad", "addr:full": "24-60/1, Road No.1, Kakathiya Nagar, BHEL, Ashok Nagar, R.C. Puram", "addr:postcode": "500032", "addr:state": "Telangana", "amenity": "hospital", "name": "Maruthi Hospital", "source": "OpenGovernmentData"}}, {"type": "node", "id": 6539622879, "lat": 17.5112359, "lon": 78.2848553, "tags": {"addr:district": "Sangareddy", "addr:place": "Rc Puram", "addr:state": "Telangana", "addr:street": "SN COLONY", "addr:subdistrict": "Ramachandrapuram", "amenity": "clinic", "healthcare": "clinic", "name": "Primary Health Centre RC Puram", "operational_status": "operational", "operator:type": "government", "source": "OpenDataTelangana"}}, {"type": "node", "id": 6552041913, "lat": 17.5124663, "lon": 78.3036857, "tags": {"addr:district": "Sangareddy", "addr:place": "Community Hall", "addr:state": "Telangana", "addr:street": "Main Road", "addr:subdistrict": "Patancheru", "amenity": "health_post", "healthcare": "yes", "name": "Subcentre Bheeramguda", "operational_status": "operational", "operator:type": "government", "source": "OpenDataTelangana"}}, {"type": "node", "id": 6552123431, "lat": 17.5099953, "lon": 78.2847266, "tags": {"addr:block": "Patancheru", "addr:district": "Medak", "addr:full": "Rc Puram, Near Primary School", "addr:postcode": "502032", "addr:state": "Telangana", "addr:street": "Bombay Colony", "addr:subdistrict": "Ramachandrapuram", "amenity": "clinic", "fixme": "Please verify the accurate position of the hospital/health care centre as I have mapped the facility based on the address provided in Open Government data", "healthcare": "centre", "name": "Sub Centre, R.C.Puram B", "source": "OpenGovernmentData"}}, {"type": "node", "id": 6552386140, "lat": 17.5037257, "lon": 78.2859537, "tags": {"addr:district": "Sangareddy", "addr:place": "Rc Puram", "addr:state": "Telangana", "addr:street": "Bharathinager Road", "addr:subdistrict": "Ramachandrapuram", "amenity": "health_post", "healthcare": "yes", "name": "Subcentre L.I.G.Colony", "operational_status": "operational", "operator:type": "government", "source": "OpenDataTelangana"}}, {"type": "node", "id": 6555046874, "lat": 17.5091819, "lon": 78.3018377, "tags": {"addr:block": "Patancheru", "addr:district": "Medak", "addr:full": "RC Puram, Near Beside Police Station RC Puram", "addr:postcode": "502032", "addr:state": "Telangana", "addr:street": "BHEL X Road", "addr:subdistrict": "Ramachandrapuram", "amenity": "clinic", "fixme": "Please verify the accurate position of the hospital/health care centre as I have mapped the facility based on the coordinates provided in Open Government data", "healthcare": "centre", "name": "Sub Centre, Mayurinagar D", "source": "OpenGovernmentData"}}, {"type": "node", "id": 6555123478, "lat": 17.5125755, "lon": 78.28612, "tags": {"addr:district": "Sangareddy", "addr:place": "Ghmc Rc Puram", "addr:state": "Telangana", "addr:street": "DARGA ROAD RC PURAM", "addr:subdistrict": "Ramachandrapuram", "amenity": "health_post", "healthcare": "yes", "name": "BDK ANGANWADI SCHOOL SN COLONY GHMC RC PURAM", "operational_status": "operational", "operator:type": "government", "source": "OpenDataTelangana"}}, {"type": "node", "id": 6566402827, "lat": 17.5156654, "lon": 78.3195499, "tags": {"addr:city": "Hyderabad", "addr:postcode": "502032", "addr:street": "Ameenpur Road", "amenity": "school", "name": "Fusion International School"}}, {"type": "node", "id": 6575734428, "lat": 17.5314752, "lon": 78.3152008, "tags": {"addr:city": "Hyderabad", "addr:postcode": "502032", "addr:street": "Narendra Nagar Colony", "amenity": "place_of_worship", "name": "Ramalayam", "religion": "hindu"}}, {"type": "node", "id": 6811749059, "lat": 17.5101637, "lon": 78.2998532, "tags": {"addr:district": "Sanga Reddy", "addr:full": "Mallikarjuna Nagar,near Beerumguda Kaman, BesideKrishna Reddy Sweet Lane,Beerumguda, RC Puram", "addr:postcode": "502032", "addr:state": "Telangana", "amenity": "hospital", "contact:mobile": "7095685678", "name": "RM Hospital", "source": "OpenGovernmentData"}}, {"type": "node", "id": 6811749074, "lat": 17.510618, "lon": 78.28853, "tags": {"addr:district": "Sanga Reddy", "addr:full": "Near Bharat Heavy Electricals Limited, Ramachandrapuram", "addr:postcode": "502032", "addr:state": "Telangana", "amenity": "clinic", "name": "Sri Venkateshwara Childrens Clinic", "source": "OpenGovernmentData"}}, {"type": "node", "id": 6811749132, "lat": 17.509869, "lon": 78.299367, "tags": {"addr:district": "Sanga Reddy", "addr:full": "Mallikarjun Nagar,Beeramguda, NH 9, Near Vijetha Supermarket", "addr:postcode": "502032", "addr:state": "Telangana", "amenity": "hospital", "contact:mobile": "9652286688", "name": "Eureka Hospital", "source": "OpenGovernmentData"}}, {"type": "node", "id": 6811749175, "lat": 17.5096642, "lon": 78.2998449, "tags": {"addr:district": "Sanga Reddy", "addr:full": "Beside Vijetha supermarket; mumbai highway; Beeramguda; Rc puram", "addr:postcode": "502032", "addr:state": "Telangana", "amenity": "clinic", "contact:phone": "6281922145", "name": "Neo Children's Clinic", "source": "OpenGovernmentData"}}, {"type": "node", "id": 6811749176, "lat": 17.5064717, "lon": 78.284726}, {"type": "node", "id": 6822126518, "lat": 17.5095743, "lon": 78.2998972, "tags": {"amenity": "place_of_worship", "name": "Living Word Of Jesus Church", "religion": "christian", "source": "survey"}}, {"type": "node", "id": 6822126599, "lat": 17.509833, "lon": 78.29947, "tags": {"amenity": "bar", "name": "DLR Wines", "source": "survey"}}, {"type": "node", "id": 6822126634, "lat": 17.506081, "lon": 78.282745, "tags": {"amenity": "place_of_worship", "name": "Sri Ramalingeshwara Swamy Temple", "religion": "hindu", "source": "survey"}}, {"type": "node", "id": 6825138366, "lat": 17.510119, "lon": 78.3039722, "tags": {"addr:district": "Sangareddy", "addr:full": "Ramachandra Puram", "addr:postcode": "502032", "addr:state": "Telangana", "amenity": "clinic", "name": "Nirog Clinic", "source": "OpenGovernmentData"}}, {"type": "node", "id": 6825138367, "lat": 17.5119263, "lon": 78.3018446, "tags": {"addr:district": "Sangareddy", "addr:full": "Beeramguda Main Road, Ramachandra Puram", "addr:postcode": "502032", "addr:state": "Telangana", "amenity": "clinic", "name": "Mallikarjuna Clinic", "source": "OpenGovernmentData"}}, {"type": "node", "id": 6868608738, "lat": 17.5057962, "lon": 78.318408}, {"type": "node", "id": 6868608739, "lat": 17.5057487, "lon": 78.3184033}, {"type": "node", "id": 6868608740, "lat": 17.5057442, "lon": 78.3184696}, {"type": "node", "id": 6868608741, "lat": 17.5057939, "lon": 78.3184673}, {"type": "node", "id": 6868834523, "lat": 17.5057783, "lon": 78.3184313, "tags": {"amenity": "place_of_worship", "name": "Pochamma Temple", "religion": "hindu"}}, {"type": "node", "id": 7173978280, "lat": 17.5127277, "lon": 78.3010967, "tags": {"amenity": "place_of_worship", "description": "ganesh Temple", "ele": "1", "name": "Ganesh temple", "religion": "hindu", "source": "local knowledge"}}, {"type": "node", "id": 7174077374, "lat": 17.5133146, "lon": 78.3022088, "tags": {"addr:city": "beeramguda", "addr:postcode": "502032", "addr:street": "Sai Colony", "amenity": "hospital", "ele": "3", "healthcare": "hospital", "healthcare:speciality": "general", "name": "Tirumala Hospital", "operator": "Tirumala Roa", "operator:type": "private_for_profit"}}, {"type": "node", "id": 7174129261, "lat": 17.5117703, "lon": 78.3018173, "tags": {"addr:city": "beeramguda", "addr:postcode": "502032", "amenity": "pharmacy", "brand": "Apollo Pharmacy", "brand:wikidata": "Q62562612", "description": "Apollo Pharmacy", "dispensing": "yes", "ele": "2", "healthcare": "pharmacy", "name": "Apollo Pharmacy", "opening_hours": "24/7"}}, {"type": "node", "id": 7174132573, "lat": 17.5114009, "lon": 78.306883}, {"type": "node", "id": 7174367140, "lat": 17.5094005, "lon": 78.3003741, "tags": {"addr:city": "beeramguda", "addr:postcode": "502032", "addr:street": "RC Puram BHEL - Beeramguda Rd Mumbai Highway", "amenity": "bank", "description": "Andhra bank ATM", "name": "Andhra Bank", "operator": "Andhra Bank"}}, {"type": "node", "id": 7174377471, "lat": 17.5144511, "lon": 78.3014026, "tags": {"addr:city": "beeramguda", "addr:postcode": "502032", "amenity": "bar", "brewery": "yes", "min_age": "18", "name": "Vinayaka Bar and Restuarant"}}, {"type": "node", "id": 7174388812, "lat": 17.5106854, "lon": 78.2958548}, {"type": "node", "id": 7180137991, "lat": 17.51255, "lon": 78.3028054, "tags": {"addr:city": "beeramguda", "addr:postcode": "502032", "addr:street": "Minor Road", "amenity": "school", "name": "M.P.C.R Memorial School", "source": "local knowledge"}}, {"type": "node", "id": 7180150429, "lat": 17.5126101, "lon": 78.3020503, "tags": {"addr:district": "Sangareddy", "addr:place": "Old G.P. Office", "addr:state": "Telangana", "addr:street": "Main Road", "addr:subdistrict": "Patancheru", "amenity": "health_post", "healthcare": "yes", "name": "Subcentre Kistareddypet", "operational_status": "operational", "operator:type": "government", "source": "OpenDataTelangana"}}, {"type": "node", "id": 7180373302, "lat": 17.512359, "lon": 78.3033085, "tags": {"addr:city": "beeramguda", "addr:postcode": "502032", "amenity": "place_of_worship", "name": "Sai Baba Temple", "religion": "hindu", "source": "local knowledge"}}, {"type": "node", "id": 8178328859, "lat": 17.5004245, "lon": 78.3020568}, {"type": "node", "id": 8178328860, "lat": 17.5000971, "lon": 78.3034491}, {"type": "node", "id": 8183198675, "lat": 17.5114383, "lon": 78.3063509}, {"type": "node", "id": 8183198676, "lat": 17.5116886, "lon": 78.3069085}, {"type": "node", "id": 8183198677, "lat": 17.5117309, "lon": 78.3063734}, {"type": "node", "id": 8183905061, "lat": 17.5105472, "lon": 78.2961442}, {"type": "node", "id": 8183905062, "lat": 17.5103937, "lon": 78.2965733}, {"type": "node", "id": 8183905063, "lat": 17.5099621, "lon": 78.2964036}, {"type": "node", "id": 8183905064, "lat": 17.5101155, "lon": 78.2959744}, {"type": "node", "id": 8183907169, "lat": 17.5095943, "lon": 78.2956962}, {"type": "node", "id": 8183907171, "lat": 17.5102734, "lon": 78.2957088}, {"type": "node", "id": 8287449487, "lat": 17.5044042, "lon": 78.3187848, "tags": {"amenity": "fast_food", "name": "Sreem Curry Point"}}, {"type": "node", "id": 8292355905, "lat": 17.5127677, "lon": 78.306687, "tags": {"amenity": "dentist", "healthcare": "dentist", "healthcare:speciality": "dentist", "name": "Dr Ritu Niharika Cosmetic and Dental Consultation", "operator": "Dr Ritu Niharika"}}, {"type": "node", "id": 9626951875, "lat": 17.5096358, "lon": 78.317965, "tags": {"amenity": "restaurant", "name": "Chef's Bakers"}}, {"type": "node", "id": 9626951876, "lat": 17.5097108, "lon": 78.317965, "tags": {"amenity": "restaurant"}}, {"type": "node", "id": 9626951877, "lat": 17.5096392, "lon": 78.318092, "tags": {"amenity": "restaurant", "name": "Ottoman's Cafe"}}, {"type": "node", "id": 10789525445, "lat": 17.513403, "lon": 78.2866416, "tags": {"addr:city": "Hyderabad", "addr:neighbourhood": "Beeramguda", "addr:state": "Telangana", "air_conditioning": "yes", "amenity": "cinema", "name": "SVC Theatre"}}, {"type": "node", "id": 10979656519, "lat": 17.5179324, "lon": 78.3108057, "tags": {"addr:district": "Sangareddy", "addr:place": "Ameenpur", "addr:state": "Telangana", "addr:street": "COMMUNITY HALL", "addr:subdistrict": "Ameenpur", "amenity": "health_post", "healthcare": "yes", "name": "BDK COMMUNITY HALL LINGAMAIAHA COLONY", "operational_status": "operational", "operator:type": "government", "source": "OpenDataTelangana"}}, {"type": "node", "id": 10991379681, "lat": 17.5138189, "lon": 78.2883202, "tags": {"addr:district": "Mahbubnagar", "addr:place": "Jadcherla", "addr:state": "Telangana", "addr:street": "Jadcherla", "addr:subdistrict": "Jadcherla", "amenity": "clinic", "healthcare": "clinic", "name": "Urban Primary Health Centre, Jadcherla", "operational_status": "operational", "operator:type": "government", "source": "OpenDataTelangana"}}, {"type": "node", "id": 10992584228, "lat": 17.5193243, "lon": 78.2908931, "tags": {"amenity": "bus_station", "bus": "yes", "name": "TSRTC BUS DEPOT , RAMACHANDRAPURAM", "public_transport": "station"}}, {"type": "node", "id": 10992584229, "lat": 17.5179648, "lon": 78.2883221, "tags": {"amenity": "bus_station", "bus": "yes", "name": "APSRTC BUS DEPOT , RAMACHANDRAPURAM", "public_transport": "station"}}, {"type": "node", "id": 10992584230, "lat": 17.5168229, "lon": 78.2890592, "tags": {"amenity": "bus_station", "bus": "yes", "name": "APSRTC BUS DEPOT PARKING AREA , RAMACHANDRAPURAM", "public_transport": "station"}}, {"type": "node", "id": 11016346644, "lat": 17.5029916, "lon": 78.291931, "tags": {"addr:district": "Sangareddy", "addr:place": "Khanukunta", "addr:state": "Telangana", "addr:street": "KHANUKUNTA", "addr:subdistrict": "Ramachandrapuram", "amenity": "health_post", "healthcare": "yes", "name": "BDK KHANUKUNTA RC PURAM", "operational_status": "operational", "operator:type": "government", "source": "OpenDataTelangana"}}, {"type": "node", "id": 11018964666, "lat": 17.510292, "lon": 78.2852201, "tags": {"addr:district": "Sangareddy", "addr:place": "Rc Puram", "addr:state": "Telangana", "addr:street": "Bombay Colony", "addr:subdistrict": "Ramachandrapuram", "amenity": "health_post", "healthcare": "yes", "name": "Subcentre Srinivas Colony", "operational_status": "operational", "operator:type": "government", "source": "OpenDataTelangana"}}, {"type": "node", "id": 11018964778, "lat": 17.5071688, "lon": 78.2893132, "tags": {"addr:district": "Sangareddy", "addr:place": "Ghmc Rc Puram", "addr:state": "Telangana", "addr:street": "RANGANATHPURAM", "addr:subdistrict": "Ramachandrapuram", "amenity": "health_post", "healthcare": "yes", "name": "BDK PRIMARY SCHOOL BOMBAY COLONY GHMC RC PURAM", "operational_status": "operational", "operator:type": "government", "source": "OpenDataTelangana"}}, {"type": "node", "id": 11018968877, "lat": 17.5106169, "lon": 78.2847078, "tags": {"addr:district": "Sangareddy", "addr:place": "Rc Puram", "addr:state": "Telangana", "addr:street": "SN COLONY", "addr:subdistrict": "Ramachandrapuram", "amenity": "health_post", "healthcare": "yes", "name": "Subcentre G Gudi Huts", "operational_status": "operational", "operator:type": "government", "source": "OpenDataTelangana"}}, {"type": "node", "id": 11018977863, "lat": 17.5104199, "lon": 78.2857914, "tags": {"addr:district": "Sangareddy", "addr:place": "Rc Puram", "addr:state": "Telangana", "addr:street": "Kakatiyanager", "addr:subdistrict": "Ramachandrapuram", "amenity": "health_post", "healthcare": "yes", "name": "Sub Centre R.C.Puram C", "operational_status": "operational", "operator:type": "government", "source": "OpenDataTelangana"}}, {"type": "node", "id": 11018980348, "lat": 17.5040685, "lon": 78.2884495, "tags": {"addr:district": "Sangareddy", "addr:place": "Bharathi Nagar", "addr:state": "Telangana", "addr:street": "COMMUNITY CENTER LIG", "addr:subdistrict": "Ramachandrapuram", "amenity": "health_post", "healthcare": "yes", "name": "BDK COMMUNITY HALL BHARATHI NAGAR GHMC RC PURAM", "operational_status": "operational", "operator:type": "government", "source": "OpenDataTelangana"}}, {"type": "node", "id": 11018982607, "lat": 17.5108801, "lon": 78.2841908, "tags": {"addr:district": "Sangareddy", "addr:place": "Rc Puram", "addr:state": "Telangana", "addr:street": "ESI Huts", "addr:subdistrict": "Ramachandrapuram", "amenity": "health_post", "healthcare": "yes", "name": "Subcentre ESI Huts", "operational_status": "operational", "operator:type": "government", "source": "OpenDataTelangana"}}, {"type": "node", "id": 11018983483, "lat": 17.5105629, "lon": 78.2843231, "tags": {"addr:district": "Sangareddy", "addr:place": "Rc Puram", "addr:state": "Telangana", "addr:street": "Old RC Puram", "addr:subdistrict": "Ramachandrapuram", "amenity": "health_post", "healthcare": "yes", "name": "Sub Centre R.C.Puram A", "operational_status": "operational", "operator:type": "government", "source": "OpenDataTelangana"}}, {"type": "node", "id": 11147848986, "lat": 17.5008466, "lon": 78.3124186, "tags": {"amenity": "toilets"}}, {"type": "node", "id": 11147909047, "lat": 17.5093942, "lon": 78.3003009, "tags": {"amenity": "toilets"}}, {"type": "node", "id": 11484298991, "lat": 17.5096183, "lon": 78.3000361, "tags": {"amenity": "restaurant", "name": "Ariban Mandi Knights"}}, {"type": "node", "id": 11484298993, "lat": 17.509584, "lon": 78.3002913}, {"type": "node", "id": 11484298994, "lat": 17.5094292, "lon": 78.3002084}, {"type": "node", "id": 11484298995, "lat": 17.5094055, "lon": 78.300263}, {"type": "node", "id": 11484298996, "lat": 17.5095616, "lon": 78.3003414}, {"type": "node", "id": 11485649083, "lat": 17.5153623, "lon": 78.2985339, "tags": {"amenity": "school", "name": "Sai High School"}}, {"type": "way", "id": 264884924, "nodes": [2705368998, 2705368999, 2705369001, 2705369002, 2705369003, 2705369004, 2705369008, 2705369011, 2705368998], "tags": {"addr:city": "hyderabad", "addr:postcode": "500032", "addr:street": "BHEL", "amenity": "school", "name": "Bharatiya Vidya Bhavans Public School", "wikidata": "Q4901246"}}, {"type": "way", "id": 265200354, "nodes": [8178328859, 2708635693, 2708635695, 8178328860, 3469724897, 3469724898, 3469724899, 3469724896, 8178328859], "tags": {"addr:city": "hyderabad", "addr:postcode": "500032", "addr:street": "BHEL", "amenity": "school", "name": "Jyothi Vidyalaya High School"}}, {"type": "way", "id": 265204687, "nodes": [2708667902, 2708667903, 2708667904, 2708667905, 3469102923, 2708667902], "tags": {"amenity": "community_centre", "name": "Mangala Kalyana Mandapam"}}, {"type": "way", "id": 265204803, "nodes": [2708668885, 2708668886, 2708668887, 2708668888, 2708668889, 3469921917, 2708668885], "tags": {"amenity": "place_of_worship", "name": "BHEL Temples", "religion": "hindu"}}, {"type": "way", "id": 291884965, "nodes": [2955540456, 2955540457, 2955540454, 2955540455, 2955540456], "tags": {"amenity": "school", "name": "Vidya Bharathi High School"}}, {"type": "way", "id": 339752519, "nodes": [3469687721, 3469687722, 3469687723, 3469687724, 3469687721], "tags": {"amenity": "place_of_worship", "building": "yes", "name": "Seetharamanjaneya Temple", "religion": "hindu"}}, {"type": "way", "id": 339755869, "nodes": [3469725336, 3469890087, 3469725337, 3469725338, 3469725339, 3469725336], "tags": {"amenity": "place_of_worship", "name": "Gurudwara", "religion": "sikh"}}, {"type": "way", "id": 339756163, "nodes": [3469726441, 3469726442, 3469726443, 3469726444, 3469726445, 3469726446, 3469726447, 3469726448, 3469726449, 3469726450, 3469726441], "tags": {"amenity": "school", "name": "Zilla Praja Parishad High School"}}, {"type": "way", "id": 339780837, "nodes": [3469922231, 3469922232, 3469922233, 3469922234, 3469922235, 3469922231], "tags": {"amenity": "marketplace", "landuse": "retail"}}, {"type": "way", "id": 339787100, "nodes": [3469998524, 3469998525, 3469998526, 3469998527, 3469998524], "tags": {"amenity": "theatre", "building": "yes", "name": "Closed Theater"}}, {"type": "way", "id": 339788062, "nodes": [3470006544, 3470006545, 3470006546, 3470006547, 3470006544], "tags": {"amenity": "fuel", "building": "yes", "name": "Petrol Station"}}, {"type": "way", "id": 339788538, "nodes": [3470008906, 3470008904, 3470008907, 3470008908, 3470008906], "tags": {"amenity": "bank", "building": "yes"}}, {"type": "way", "id": 355621136, "nodes": [3612127808, 3612127796, 3612127795, 3612127805, 3612127806, 3612127807, 3612127808], "tags": {"amenity": "place_of_worship", "building": "yes", "name": "Shivalayam", "religion": "hindu"}}, {"type": "way", "id": 355866117, "nodes": [3614127775, 3614127782, 3614127768, 3614127781, 3614127760, 3614127715, 3614127775], "tags": {"amenity": "theatre", "building": "yes", "name": "Asian jyothi"}}, {"type": "way", "id": 356184368, "nodes": [3616835984, 3616835978, 3616835945, 3616835951, 3616835984], "tags": {"amenity": "theatre", "building": "yes", "name": "SVC Theatre"}}, {"type": "way", "id": 356257501, "nodes": [3617278172, 3617278295, 3617278364, 3617278355, 3617278172], "tags": {"amenity": "fuel", "brand": "Hindustan Petroleum", "brand:wikidata": "Q1619375", "name": "HP", "official_name": "Hindustan Petroleum"}}, {"type": "way", "id": 356274597, "nodes": [3617384235, 3617384236, 3617384245, 3617384242, 3617384235], "tags": {"amenity": "fuel", "brand": "Indian Oil", "brand:wikidata": "Q1289348", "name": "Indian Oil"}}, {"type": "way", "id": 356425141, "nodes": [3618870160, 3618870163, 3618870181, 3618870174, 3618870160], "tags": {"amenity": "fuel", "brand": "Bharat Petroleum", "brand:wikidata": "Q854826", "name": "Bharat Petroleum"}}, {"type": "way", "id": 368394812, "nodes": [3722343813, 3722343814, 3722343815, 3722343816, 3722343813], "tags": {"amenity": "school", "name": "MNR School"}}, {"type": "way", "id": 416844329, "nodes": [7174388812, 4175298305, 4175298303, 8183907169, 4175298304, 8183907171, 7174388812], "tags": {"amenity": "community_centre", "description": "Gardens", "name": "Sri Balaji Gardens", "source": "local knowledge"}}, {"type": "way", "id": 733439003, "nodes": [6868608738, 6868608739, 6868608740, 6868608741, 6868608738], "tags": {"amenity": "place_of_worship", "building": "yes", "name": "Pochamma temple", "religion": "hindu"}}, {"type": "way", "id": 879108467, "nodes": [3484092159, 3484092160, 6811749176, 3484092162, 3484150311, 3484092163, 3484092116, 3484092117, 3484092118, 3484092158, 3484092159], "tags": {"addr:district": "Sanga Reddy", "addr:full": "Ramachandra Puram", "addr:postcode": "502032", "addr:state": "Telangana", "amenity": "hospital", "name": "ESI Hospital", "source": "OpenGovernmentData"}}, {"type": "way", "id": 879738142, "nodes": [8183198677, 8183198676, 7174132573, 8183198675, 8183198677], "tags": {"addr:city": "Hyderabad", "amenity": "school", "name": "Line Line High School"}}, {"type": "way", "id": 879760816, "nodes": [8183905064, 8183905061, 8183905062, 8183905063, 8183905064], "tags": {"amenity": "parking"}}, {"type": "way", "id": 1236743616, "nodes": [11484298993, 11484298994, 11484298995, 11484298996, 11484298993], "tags": {"amenity": "restaurant", "building": "yes", "name": "Tiffin Center"}}]}