{"version": 0.6, "generator": "Overpass API 0.7.61.5 4133829e", "osm3s": {"timestamp_osm_base": "2024-02-21T12:36:23Z", "copyright": "The data included in this document is from www.openstreetmap.org. The data is made available under ODbL."}, "elements": [{"type": "node", "id": 6830428414, "lat": 17.3149068, "lon": 78.1386236, "tags": {"addr:district": "Vikarabad", "addr:full": "Beside Srinivasa Hospital,Hyderabad-Vikarabad Rd, Chevella", "addr:postcode": "501503", "addr:state": "Telangana", "amenity": "hospital", "name": "Vijay Hospital", "operator:type": "private", "source": "OpenGovernmentData"}}, {"type": "node", "id": 6830428417, "lat": 17.31481, "lon": 78.13877, "tags": {"addr:district": "Vikarabad", "addr:full": "Beside Vijay Hospital,Hyderabad-Vikarabad Rd, Chevella", "addr:postcode": "501503", "addr:state": "Telangana", "amenity": "hospital", "name": "Srinivasa Hospital", "operator:type": "private", "source": "OpenGovernmentData"}}, {"type": "node", "id": 6830428431, "lat": 17.306705, "lon": 78.1475552, "tags": {"addr:district": "Vikarabad", "addr:full": "Mamidi Rajeshwar Real-estate,Hyderabad Vikarabad Road, Chevella", "addr:postcode": "501503", "addr:state": "Telangana", "amenity": "hospital", "name": "Dr. Patnam Mahender Reddy General Hospital", "source": "OpenGovernmentData"}}, {"type": "node", "id": 11027713759, "lat": 17.3118333, "lon": 78.1596181, "tags": {"addr:district": "Vikarabad", "addr:place": "Kesaram", "addr:state": "Telangana", "addr:street": "SC COLONY", "addr:subdistrict": "Mominpet", "amenity": "health_post", "healthcare": "yes", "name": "SubCentre, Kesaram", "operational_status": "operational", "operator:type": "government", "source": "OpenDataTelangana"}}]}