{"version": 0.6, "generator": "Overpass API 0.7.61.5 4133829e", "osm3s": {"timestamp_osm_base": "2024-02-21T13:05:00Z", "copyright": "The data included in this document is from www.openstreetmap.org. The data is made available under ODbL."}, "elements": [{"type": "node", "id": 1947070533, "lat": 17.5348255, "lon": 78.4889022, "tags": {"amenity": "bar"}}, {"type": "node", "id": 1947070540, "lat": 17.534825, "lon": 78.4886984, "tags": {"amenity": "restaurant"}}, {"type": "node", "id": 3612181360, "lat": 17.5437532, "lon": 78.4923892}, {"type": "node", "id": 3612181375, "lat": 17.5438744, "lon": 78.4920886}, {"type": "node", "id": 3612181383, "lat": 17.5439236, "lon": 78.4924648}, {"type": "node", "id": 3612181395, "lat": 17.5440449, "lon": 78.4921642}, {"type": "node", "id": 3614186216, "lat": 17.5301834, "lon": 78.485419}, {"type": "node", "id": 3614186269, "lat": 17.5302731, "lon": 78.4855383}, {"type": "node", "id": 3614186527, "lat": 17.5303871, "lon": 78.4852506}, {"type": "node", "id": 3614186574, "lat": 17.5304768, "lon": 78.4853699}, {"type": "node", "id": 3614611173, "lat": 17.5260683, "lon": 78.4852989}, {"type": "node", "id": 3614611174, "lat": 17.5261137, "lon": 78.4852274}, {"type": "node", "id": 3614611182, "lat": 17.5263579, "lon": 78.4855013}, {"type": "node", "id": 3614611185, "lat": 17.5264033, "lon": 78.4854299}, {"type": "node", "id": 3614611196, "lat": 17.5273912, "lon": 78.4850287}, {"type": "node", "id": 3614611198, "lat": 17.5274348, "lon": 78.4849715}, {"type": "node", "id": 3614611199, "lat": 17.5274406, "lon": 78.4850701}, {"type": "node", "id": 3614611200, "lat": 17.5274842, "lon": 78.485013}, {"type": "node", "id": 3640293258, "lat": 17.5371373, "lon": 78.4894308}, {"type": "node", "id": 3640293261, "lat": 17.5371553, "lon": 78.489365}, {"type": "node", "id": 3640293262, "lat": 17.5371673, "lon": 78.4894398}, {"type": "node", "id": 3640293264, "lat": 17.5371853, "lon": 78.489374}, {"type": "node", "id": 3858689521, "lat": 17.5451782, "lon": 78.4718623, "tags": {"amenity": "bank", "brand:wikidata": "Q1340361", "brand:wikipedia": "en:State Bank of India", "name": "State Bank of India", "short_name": "SBI", "website": "https://www.sbi.co.in"}}, {"type": "node", "id": 3858694157, "lat": 17.5451884, "lon": 78.4717872, "tags": {"amenity": "atm"}}, {"type": "node", "id": 3858725215, "lat": 17.5469684, "lon": 78.4646043, "tags": {"amenity": "restaurant"}}, {"type": "node", "id": 4305666400, "lat": 17.5426273, "lon": 78.4652589, "tags": {"addr:street": "Doolapally Road", "amenity": "school", "name": "Zilla Parishath High School"}}, {"type": "node", "id": 4305674499, "lat": 17.5466073, "lon": 78.4692651, "tags": {"addr:postcode": "500100", "addr:street": "dulapalle", "amenity": "post_office"}}, {"type": "node", "id": 4305674794, "lat": 17.5463995, "lon": 78.4692078, "tags": {"amenity": "school", "name": "primary school"}}, {"type": "node", "id": 5365387226, "lat": 17.548095, "lon": 78.4620325, "tags": {"amenity": "fuel"}}, {"type": "node", "id": 5367603425, "lat": 17.5448902, "lon": 78.4729239, "tags": {"amenity": "fuel", "brand": "Hindustan Petroleum", "brand:wikidata": "Q1619375", "brand:wikipedia": "en:Hindustan Petroleum", "name": "HP", "official_name": "Hindustan Petroleum"}}, {"type": "node", "id": 5682022053, "lat": 17.5255297, "lon": 78.483128}, {"type": "node", "id": 5682022054, "lat": 17.5253225, "lon": 78.4837127}, {"type": "node", "id": 5682022055, "lat": 17.5250897, "lon": 78.4835934}, {"type": "node", "id": 5682022056, "lat": 17.5253033, "lon": 78.4830287}, {"type": "node", "id": 5682022057, "lat": 17.52538, "lon": 78.4830636}, {"type": "node", "id": 5682022059, "lat": 17.5254376, "lon": 78.4830958}, {"type": "node", "id": 5682022060, "lat": 17.5294911, "lon": 78.4864141}, {"type": "node", "id": 5682022061, "lat": 17.5306692, "lon": 78.4872213}, {"type": "node", "id": 5682022062, "lat": 17.5317563, "lon": 78.4858349}, {"type": "node", "id": 5682022063, "lat": 17.5319747, "lon": 78.4854574}, {"type": "node", "id": 5682022064, "lat": 17.5321691, "lon": 78.4851999}, {"type": "node", "id": 5682022065, "lat": 17.5321256, "lon": 78.4851007}, {"type": "node", "id": 5682022066, "lat": 17.5314811, "lon": 78.4847386}, {"type": "node", "id": 5682022067, "lat": 17.5312884, "lon": 78.4849103}, {"type": "node", "id": 6126434685, "lat": 17.5278976, "lon": 78.4854232, "tags": {"amenity": "cafe", "name": "Chai Party", "name:en": "Chai Party - Irani Chai"}}, {"type": "node", "id": 6131962785, "lat": 17.5312157, "lon": 78.4875159, "tags": {"amenity": "cafe", "cuisine": "indian", "name": "Golden Special Irani Chai"}}, {"type": "node", "id": 6133853785, "lat": 17.536328, "lon": 78.4885233, "tags": {"amenity": "hospital", "name": "Surekha Hospital"}}, {"type": "node", "id": 6137324485, "lat": 17.5280475, "lon": 78.4854248, "tags": {"amenity": "cafe", "name": "Chai Party Irani Cafe"}}, {"type": "node", "id": 6153763385, "lat": 17.5430347, "lon": 78.4911353, "tags": {"amenity": "cafe", "name": "Venkataramana Irani Chai Cafe"}}, {"type": "node", "id": 6490089435, "lat": 17.520925, "lon": 78.484531, "tags": {"addr:district": "Hyderabad", "addr:full": "Plot No: 1-76/1/b/4, Ganga Enclave, Pet Basheerabad, Medchal Road, Secunderabad", "addr:postcode": "500055", "addr:state": "Telangana", "amenity": "hospital", "contact:email": "drprsunk@yahoo.com", "contact:mobile": "9949073049", "fax": "040 27165116", "healthcare:speciality": "multi specialty", "medical_system": "Allopathic", "name": "Harsha Hospitals", "operator:type": "private", "phone": "040 27165110", "source": "OpenGovernmentData", "website": "http://www.harshahospitals.com"}}, {"type": "node", "id": 6511011214, "lat": 17.5218368, "lon": 78.4831209, "tags": {"addr:district": "Hyderabad", "addr:full": "C - 4,5, Ganga Enclave, Opp Excellancy Garden, Petbasheerabad, Medchal Road, Rangareddy", "addr:postcode": "500055", "addr:state": "Telangana", "amenity": "hospital", "name": "RR Hospital", "source": "OpenGovernmentData"}}, {"type": "node", "id": 6549138754, "lat": 17.5246107, "lon": 78.482795, "tags": {"addr:district": "Hyderabad", "addr:full": "6A, 7A, Petbasheerabad, NH7, Near DPS, Opp St Anns, Kompally", "addr:postcode": "500055", "addr:state": "Telangana", "alt_name": "Bloom Hospitals", "amenity": "hospital", "contact:email": "admin@janapareddy.co.in", "contact:phone": "+91 9963233911 ; +91 9963233922", "name": "JANAPAREDDY HOSPITAL PVT LTD", "operator:type": "private", "source": "OpenGovernmentData"}}, {"type": "node", "id": 6779723331, "lat": 17.5298299, "lon": 78.4858877}, {"type": "node", "id": 6779723332, "lat": 17.5293171, "lon": 78.4863817}, {"type": "node", "id": 6779723333, "lat": 17.5288741, "lon": 78.4860227}, {"type": "node", "id": 6779723334, "lat": 17.5295655, "lon": 78.4854837}, {"type": "node", "id": 6779723335, "lat": 17.5402919, "lon": 78.4894484}, {"type": "node", "id": 6779723336, "lat": 17.5401988, "lon": 78.4898143}, {"type": "node", "id": 6779723337, "lat": 17.5396716, "lon": 78.489672}, {"type": "node", "id": 6779723338, "lat": 17.5397956, "lon": 78.4892857}, {"type": "node", "id": 6811749067, "lat": 17.541008, "lon": 78.487135, "tags": {"addr:district": "Medchal Malkajgiri", "addr:full": "Doolapally Road, Srinivas Nagar, Beside Punjab National Bank Lane, Kompally", "addr:postcode": "500014", "addr:state": "Telangana", "amenity": "clinic", "contact:mobile": "7993183626", "name": "Sanjeevani Thyroid Sugar and Hormones Clinic", "source": "OpenGovernmentData", "website": "http://www.sanjeevanitshclinic.com/"}}, {"type": "node", "id": 6811749088, "lat": 17.5314158, "lon": 78.4875009, "tags": {"addr:district": "Hyderabad", "addr:full": "H.No: 3-63/4a, Main Road, NH 7, Near Cine Planet, Beside Croma, Komapally", "addr:state": "Telangana", "amenity": "hospital", "contact:mobile": "8096104104", "contact:phone": "040 68180000", "name": "Srikara Hospital", "operator:type": "Private", "source": "OpenGovernmentData"}}, {"type": "node", "id": 6811749107, "lat": 17.541046, "lon": 78.486899, "tags": {"addr:district": "Medchal Malkajgiri", "addr:full": "Doolapally Road, Srinivas Nagar, Kompally", "addr:postcode": "500100", "addr:state": "Telangana", "amenity": "clinic", "contact:mobile": "9963551920", "name": "Shree Krushna Clinic", "source": "OpenGovernmentData"}}, {"type": "node", "id": 6811749115, "lat": 17.5330429, "lon": 78.4823216, "tags": {"addr:district": "Medchal Malkajgiri", "addr:full": "Daredia Road, Jaibery Colony, Kompally", "addr:postcode": "500014", "addr:state": "Telangana", "amenity": "clinic", "contact:mobile": "9515351130", "name": "Mysha Clinic & Diagnostics", "source": "OpenGovernmentData"}}, {"type": "node", "id": 6811749183, "lat": 17.526613, "lon": 78.4824036, "tags": {"addr:district": "Medchal Malkajgiri", "addr:full": "Sujeet's Cricket Academy Lane, Satyam Enclave, Kompally", "addr:postcode": "500014", "addr:state": "Telangana", "amenity": "clinic", "contact:mobile": "9701679773", "name": "Apple Poly Clinic", "source": "OpenGovernmentData"}}, {"type": "node", "id": 6822126540, "lat": 17.540988, "lon": 78.487159, "tags": {"amenity": "bank", "name": "Punjab National Bank", "source": "survey"}}, {"type": "node", "id": 6822126553, "lat": 17.533254, "lon": 78.481648, "tags": {"amenity": "place_of_worship", "name": "Peniel Church", "religion": "christian", "source": "survey"}}, {"type": "node", "id": 6822126598, "lat": 17.531609, "lon": 78.48773, "tags": {"amenity": "restaurant", "name": "VENKATESHWARA TIFFINS CENTER", "source": "survey"}}, {"type": "node", "id": 6915065301, "lat": 17.5413134, "lon": 78.4707186}, {"type": "node", "id": 6915065302, "lat": 17.5411599, "lon": 78.4706542}, {"type": "node", "id": 6915065303, "lat": 17.5409758, "lon": 78.4719524}, {"type": "node", "id": 6915065304, "lat": 17.5411702, "lon": 78.4719524}, {"type": "node", "id": 6915071985, "lat": 17.5414055, "lon": 78.4737548}, {"type": "node", "id": 6915071986, "lat": 17.5413032, "lon": 78.4739587}, {"type": "node", "id": 6915071987, "lat": 17.5408837, "lon": 78.474935}, {"type": "node", "id": 6915071988, "lat": 17.5404336, "lon": 78.4747204}, {"type": "node", "id": 6915071989, "lat": 17.5409349, "lon": 78.4735403}, {"type": "node", "id": 7244059225, "lat": 17.5409214, "lon": 78.4873343, "tags": {"amenity": "bank"}}, {"type": "node", "id": 7244059226, "lat": 17.5428942, "lon": 78.4921156, "tags": {"amenity": "restaurant", "name": "nawabs dine"}}, {"type": "node", "id": 7244059229, "lat": 17.5422595, "lon": 78.474491, "tags": {"amenity": "hospital", "healthcare": "hospital"}}, {"type": "node", "id": 7244059280, "lat": 17.5420321, "lon": 78.4908431, "tags": {"amenity": "restaurant", "name": "gulf bakers"}}, {"type": "node", "id": 7244061124, "lat": 17.5371781, "lon": 78.4894002}, {"type": "node", "id": 7244061146, "lat": 17.5343237, "lon": 78.4889065}, {"type": "node", "id": 7244061147, "lat": 17.5343376, "lon": 78.4888149}, {"type": "node", "id": 7244061148, "lat": 17.5345779, "lon": 78.4888711}, {"type": "node", "id": 7244061149, "lat": 17.534568, "lon": 78.4889753}, {"type": "node", "id": 7244061153, "lat": 17.5421951, "lon": 78.4908778, "tags": {"amenity": "school", "name": "krishnaveni talent school"}}, {"type": "node", "id": 7244061154, "lat": 17.5282431, "lon": 78.4877687, "tags": {"amenity": "conference_centre", "name": "psr convention"}}, {"type": "node", "id": 7244273762, "lat": 17.5412345, "lon": 78.4844805}, {"type": "node", "id": 7244273763, "lat": 17.5411519, "lon": 78.4844973}, {"type": "node", "id": 7244273764, "lat": 17.5405786, "lon": 78.4843295}, {"type": "node", "id": 7244273765, "lat": 17.5405067, "lon": 78.4843015}, {"type": "node", "id": 7244273766, "lat": 17.5406853, "lon": 78.4837088}, {"type": "node", "id": 7244273767, "lat": 17.5408719, "lon": 78.4837283}, {"type": "node", "id": 7244273768, "lat": 17.5409012, "lon": 78.4836193}, {"type": "node", "id": 7244273769, "lat": 17.5409226, "lon": 78.4834655}, {"type": "node", "id": 7244273770, "lat": 17.5409892, "lon": 78.4834487}, {"type": "node", "id": 7244273771, "lat": 17.5410932, "lon": 78.4834823}, {"type": "node", "id": 7244273772, "lat": 17.5410345, "lon": 78.4835214}, {"type": "node", "id": 7244273773, "lat": 17.5410559, "lon": 78.4835941}, {"type": "node", "id": 7244273774, "lat": 17.5411305, "lon": 78.4836472}, {"type": "node", "id": 7244273775, "lat": 17.5411172, "lon": 78.4838681}, {"type": "node", "id": 7244273776, "lat": 17.5411865, "lon": 78.4839828}, {"type": "node", "id": 7244273777, "lat": 17.5412452, "lon": 78.4839828}, {"type": "node", "id": 7244273778, "lat": 17.5414478, "lon": 78.4841729}, {"type": "node", "id": 7244273779, "lat": 17.5415171, "lon": 78.4842512}, {"type": "node", "id": 7244273780, "lat": 17.5414131, "lon": 78.4844469}, {"type": "node", "id": 7244288114, "lat": 17.5285891, "lon": 78.4854382, "tags": {"amenity": "atm", "operator": "state bank of india atm"}}, {"type": "node", "id": 7244288116, "lat": 17.5274416, "lon": 78.4851062}, {"type": "node", "id": 7244288117, "lat": 17.5274903, "lon": 78.4851399}, {"type": "node", "id": 7244288118, "lat": 17.5275378, "lon": 78.4850539}, {"type": "node", "id": 7244288119, "lat": 17.5274879, "lon": 78.4850202}, {"type": "node", "id": 7802843548, "lat": 17.5476077, "lon": 78.4923123, "tags": {"amenity": "fuel", "brand": "Hindustan Petroleum", "fuel:diesel": "yes", "fuel:petrol": "yes", "name": "HP Pertol Bunk", "self_service": "no"}}, {"type": "node", "id": 8465492986, "lat": 17.5295765, "lon": 78.4858105, "tags": {"amenity": "theatre", "name": "cini planet multiplex"}}, {"type": "node", "id": 9669420010, "lat": 17.554098, "lon": 78.4933855, "tags": {"addr:street": "Gundlapochampally Road, Under Kompally Flyover, Sy no 35, Srinagar - Kanyakumari Hwy, Hyderabad, Telangana 500100", "amenity": "restaurant", "name": "Ahoy Restro", "opening_hours": "Mo-Th, Su 12:00-23:30; Fr, Sa 12:00-00:30", "phone": "+91 63037 67658"}}, {"type": "node", "id": 11507874262, "lat": 17.5416446, "lon": 78.4744401, "tags": {"amenity": "college", "name": "St.Martin's Engineering College Of Technology"}}, {"type": "way", "id": 355631303, "nodes": [3612181395, 3612181383, 3612181360, 3612181375, 3612181395], "tags": {"amenity": "bank", "brand": "Bank of India", "brand:wikidata": "Q2004439", "brand:wikipedia": "en:Bank of India", "building": "yes", "name": "Bank of India"}}, {"type": "way", "id": 355879266, "nodes": [3614186527, 3614186574, 3614186269, 3614186216, 3614186527], "tags": {"amenity": "restaurant", "building": "yes", "name": "new bawarchi restaurant"}}, {"type": "way", "id": 355950444, "nodes": [3614611174, 3614611185, 3614611182, 3614611173, 3614611174], "tags": {"amenity": "restaurant", "building": "yes", "name": "hotel california"}}, {"type": "way", "id": 355950491, "nodes": [3614611198, 3614611200, 3614611199, 3614611196, 3614611198], "tags": {"amenity": "restaurant", "building": "yes", "cuisine": "chinese", "name": "village china"}}, {"type": "way", "id": 359277162, "nodes": [3640293264, 7244061124, 3640293262, 3640293258, 3640293261, 3640293264], "tags": {"amenity": "fast_food", "brand": "Subway", "brand:pa": "\u0a38\u0a2c\u0a35\u0a47\u0a05", "brand:ur": "\u0633\u0628 \u0648\u06d2", "brand:wikidata": "Q244457", "brand:wikipedia": "en:Subway (restaurant)", "building": "yes", "cuisine": "sandwich", "name": "Subway", "name:pa": "\u0a38\u0a2c\u0a35\u0a47\u0a05", "name:ur": "\u0633\u0628 \u0648\u06d2", "takeaway": "yes"}}, {"type": "way", "id": 596476956, "nodes": [5682022053, 5682022054, 5682022055, 5682022056, 5682022057, 5682022059, 5682022053], "tags": {"amenity": "restaurant", "capacity": "40", "cuisine": "burger;regional;pizza;italian;chinese;mexican;american;sandwich;coffee_shop", "delivery": "no", "name": "thinespo", "opening_hours": "Mo-Su 08:00-22:00", "outdoor_seating": "yes", "smoking": "no", "takeaway": "yes"}}, {"type": "way", "id": 596476960, "nodes": [5682022060, 5682022061, 5682022062, 5682022063, 5682022064, 5682022065, 5682022066, 5682022067, 5682022060], "tags": {"amenity": "community_centre", "name": "rd convention"}}, {"type": "way", "id": 722762248, "nodes": [6779723331, 6779723332, 6779723333, 6779723334, 6779723331], "tags": {"amenity": "cinema", "building": "yes", "name": "cini planet multiplex", "opening_hours": "Mo-Su 08:00-22:00", "payment:cash": "yes", "payment:credit_cards": "yes", "payment:debit_cards": "yes", "screen": "4"}}, {"type": "way", "id": 722762249, "nodes": [6779723335, 6779723336, 6779723337, 6779723338, 6779723335], "tags": {"amenity": "conference_centre", "building": "yes", "internet_access": "no", "name": "sree convention", "operator": "private"}}, {"type": "way", "id": 738481661, "nodes": [6915071985, 6915071986, 6915071987, 6915071988, 6915071989, 6915071985], "tags": {"amenity": "college", "area": "yes", "name": "St. Martin's Engineering College"}}, {"type": "way", "id": 738481907, "nodes": [6915065301, 6915065302, 6915065303, 6915065304, 6915065301], "tags": {"amenity": "college", "area": "yes", "name": "Sri Chaitanya Junior College"}}, {"type": "way", "id": 776404550, "nodes": [7244061146, 7244061147, 7244061148, 7244061149, 7244061146], "tags": {"amenity": "restaurant", "building": "yes", "layer": "1", "name": "dr.ice cream"}}, {"type": "way", "id": 776431168, "nodes": [7244273762, 7244273763, 7244273764, 7244273765, 7244273766, 7244273767, 7244273768, 7244273769, 7244273770, 7244273771, 7244273772, 7244273773, 7244273774, 7244273775, 7244273776, 7244273777, 7244273778, 7244273779, 7244273780, 7244273762], "tags": {"amenity": "parking_space"}}, {"type": "way", "id": 776431172, "nodes": [7244288116, 7244288117, 7244288118, 7244288119, 7244288116], "tags": {"amenity": "car_wash", "building": "yes"}}]}