{"version": 0.6, "generator": "Overpass API 0.7.61.5 4133829e", "osm3s": {"timestamp_osm_base": "2024-02-21T13:18:15Z", "copyright": "The data included in this document is from www.openstreetmap.org. The data is made available under ODbL."}, "elements": [{"type": "node", "id": 1952054567, "lat": 17.6284526, "lon": 78.0857592, "tags": {"addr:housename": "C Ramchander Medical Stores", "addr:postcode": "502001", "addr:street": "Market Street", "amenity": "pharmacy", "dispensing": "yes", "name": "C Ramchander Medical Stores", "source": "Personal Visit"}}, {"type": "node", "id": 1952055186, "lat": 17.6277318, "lon": 78.0862742, "tags": {"amenity": "place_of_worship", "name": "Ram Mandir", "religion": "hindu"}}, {"type": "node", "id": 1952056325, "lat": 17.6285191, "lon": 78.0857673, "tags": {"amenity": "bank", "atm": "no", "name": "District Co-Operative Bank"}}, {"type": "node", "id": 1952056491, "lat": 17.6268984, "lon": 78.0860703, "tags": {"amenity": "bus_station", "name": "Sangareddy Old Bus Stand"}}, {"type": "node", "id": 1952057165, "lat": 17.6269368, "lon": 78.0869447, "tags": {"amenity": "fuel", "name": "Fuel Station"}}, {"type": "node", "id": 1952060595, "lat": 17.6260446, "lon": 78.0848097, "tags": {"amenity": "school", "name": "Govt. Boys School and Jr. College"}}, {"type": "node", "id": 1952062037, "lat": 17.6256126, "lon": 78.0828919, "tags": {"amenity": "pharmacy", "name": "Jyothi Medical Stores"}}, {"type": "node", "id": 1986290163, "lat": 17.6236778, "lon": 78.0814844, "tags": {"amenity": "library", "name": "Library"}}, {"type": "node", "id": 1986290198, "lat": 17.6251758, "lon": 78.0826323, "tags": {"amenity": "police", "name": "Sangareddy Police Station"}}, {"type": "node", "id": 1986290526, "lat": 17.6244114, "lon": 78.0864143, "tags": {"amenity": "cinema", "name": "Venkateshwara Theatre", "source": "personal visit"}}, {"type": "node", "id": 1986331472, "lat": 17.6275531, "lon": 78.0906521, "tags": {"amenity": "place_of_worship", "name": "Hanuman Mandir", "religion": "hindu"}}, {"type": "node", "id": 1986333564, "lat": 17.6205284, "lon": 78.081994, "tags": {"amenity": "school", "name": "Gandhi Centenary High School", "name:etymology:wikidata": "Q1001"}}, {"type": "node", "id": 1986333719, "lat": 17.6207175, "lon": 78.0804973, "tags": {"amenity": "bank", "atm": "yes", "brand": "SBI", "brand:wikidata": "Q1340361", "brand:wikipedia": "en:State Bank of India", "name": "State Bank of India", "short_name": "SBI"}}, {"type": "node", "id": 1986337939, "lat": 17.615344, "lon": 78.0817043, "tags": {"amenity": "bus_station", "name": "New Bus Station"}}, {"type": "node", "id": 1986338541, "lat": 17.614393, "lon": 78.0817258, "tags": {"amenity": "cinema", "name": "Nataraj Theatre"}}, {"type": "node", "id": 1986338649, "lat": 17.614894, "lon": 78.0789792, "tags": {"amenity": "cinema", "name": "Rukmini Theatre"}}, {"type": "node", "id": 1986338650, "lat": 17.619833, "lon": 78.0841988, "tags": {"amenity": "cinema", "name": "Sitara Theatre"}}, {"type": "node", "id": 1986339276, "lat": 17.6287699, "lon": 78.0852985, "tags": {"amenity": "place_of_worship", "name": "Hanuman Mandir", "religion": "hindu"}}, {"type": "node", "id": 1986339280, "lat": 17.6286702, "lon": 78.0847298, "tags": {"amenity": "place_of_worship", "name": "Masjid", "religion": "muslim"}}, {"type": "node", "id": 1986339312, "lat": 17.6290102, "lon": 78.0880745, "tags": {"amenity": "place_of_worship", "name": "Bhavani Mandir", "religion": "hindu"}}, {"type": "node", "id": 1986340205, "lat": 17.6243552, "lon": 78.0812456, "tags": {"amenity": "grave_yard"}}, {"type": "node", "id": 1986340206, "lat": 17.6244191, "lon": 78.0819859, "tags": {"amenity": "place_of_worship", "name": "Masjid", "religion": "muslim"}}, {"type": "node", "id": 1989272946, "lat": 17.625903, "lon": 78.0862503, "tags": {"amenity": "school", "name": "Govt. Girls High School"}}, {"type": "node", "id": 1989315387, "lat": 17.6032779, "lon": 78.0845852, "tags": {"amenity": "school", "name": "ITI (Industrial Training Institute)"}}, {"type": "node", "id": 1989316276, "lat": 17.6050059, "lon": 78.0837754, "tags": {"amenity": "bank", "atm": "yes", "brand": "HDFC", "brand:wikidata": "Q631047", "brand:wikipedia": "en:HDFC Bank", "name": "HDFC Bank", "short_name": "HDFC", "website": "https://www.hdfcbank.com"}}, {"type": "node", "id": 1989319222, "lat": 17.6072305, "lon": 78.0771547, "tags": {"amenity": "place_of_worship", "name": "Sri Shirdi Sai Baba Temple", "religion": "hindu"}}, {"type": "node", "id": 1989319538, "lat": 17.6062384, "lon": 78.0774666, "tags": {"amenity": "school", "name": "Tara Govt. Degree College"}}, {"type": "node", "id": 3174654053, "lat": 17.6255222, "lon": 78.0827274}, {"type": "node", "id": 3174654054, "lat": 17.6262022, "lon": 78.0826094}, {"type": "node", "id": 3174654055, "lat": 17.6269486, "lon": 78.0827864}, {"type": "node", "id": 3174654056, "lat": 17.6271685, "lon": 78.0825316}, {"type": "node", "id": 3174654057, "lat": 17.6271281, "lon": 78.0820236}, {"type": "node", "id": 3174654058, "lat": 17.626945, "lon": 78.0810498}, {"type": "node", "id": 3174654059, "lat": 17.6268209, "lon": 78.0808414}, {"type": "node", "id": 3174654060, "lat": 17.6264918, "lon": 78.0808316}, {"type": "node", "id": 3174658861, "lat": 17.6260635, "lon": 78.0802903}, {"type": "node", "id": 3174658862, "lat": 17.625427, "lon": 78.0806144}, {"type": "node", "id": 3174658863, "lat": 17.62545, "lon": 78.0818138}, {"type": "node", "id": 3174658864, "lat": 17.6250491, "lon": 78.0821001}, {"type": "node", "id": 3509906483, "lat": 17.6106413, "lon": 78.0823824}, {"type": "node", "id": 3509906484, "lat": 17.6105154, "lon": 78.0824027}, {"type": "node", "id": 3509906485, "lat": 17.6105425, "lon": 78.0824616}, {"type": "node", "id": 3509906486, "lat": 17.6105502, "lon": 78.082545}, {"type": "node", "id": 3509906487, "lat": 17.61068, "lon": 78.0825551}, {"type": "node", "id": 3510015959, "lat": 17.611485, "lon": 78.0791001}, {"type": "node", "id": 3510015960, "lat": 17.6115062, "lon": 78.0792655}, {"type": "node", "id": 3510015961, "lat": 17.6119606, "lon": 78.0792013}, {"type": "node", "id": 3510015962, "lat": 17.6119394, "lon": 78.0790359}, {"type": "node", "id": 3510067949, "lat": 17.614514, "lon": 78.0812398}, {"type": "node", "id": 3510067950, "lat": 17.6145085, "lon": 78.0813418}, {"type": "node", "id": 3510067951, "lat": 17.6143693, "lon": 78.0813335}, {"type": "node", "id": 3510067952, "lat": 17.6143748, "lon": 78.0812316}, {"type": "node", "id": 3518684669, "lat": 17.6093906, "lon": 78.0822435}, {"type": "node", "id": 3518684670, "lat": 17.6092165, "lon": 78.0822848}, {"type": "node", "id": 3518684671, "lat": 17.6092412, "lon": 78.082399}, {"type": "node", "id": 3518684672, "lat": 17.6094152, "lon": 78.0823577}, {"type": "node", "id": 3534992820, "lat": 17.6124424, "lon": 78.0780584, "tags": {"amenity": "place_of_worship", "name": "Hanuman Temple"}}, {"type": "node", "id": 5765769460, "lat": 17.6153755, "lon": 78.0811164}, {"type": "node", "id": 5765769461, "lat": 17.615387, "lon": 78.081274}, {"type": "node", "id": 5765769462, "lat": 17.6154803, "lon": 78.0812665}, {"type": "node", "id": 5765769463, "lat": 17.6154687, "lon": 78.0811089}, {"type": "node", "id": 6537097537, "lat": 17.6070976, "lon": 78.0836239, "tags": {"addr:district": "Medak", "addr:full": "Sanjeevanagar, Sangareddy, Medak,Opposite Vijaya Bank", "addr:postcode": "502001", "addr:state": "Telangana", "amenity": "hospital", "name": "Gokul Venkateshwara Multi Speciality Hospital", "source": "OpenGovernmentData"}}, {"type": "node", "id": 6537110302, "lat": 17.6063971, "lon": 78.0842368, "tags": {"addr:district": "Medak", "addr:full": "Near Karuna Convent Main Road, Sangareddy", "addr:postcode": "502001", "addr:state": "Telangana", "amenity": "hospital", "name": "Jyothi Mother And Child Hospital", "source": "OpenGovernmentData"}}, {"type": "node", "id": 6537307478, "lat": 17.6101789, "lon": 78.0848524, "tags": {"addr:district": "Medak", "addr:full": "Shanthi Nagar, Medak, Sangareddy", "addr:postcode": "502001", "addr:state": "Telangana", "amenity": "hospital", "fax": "08455 276292", "name": "Manasa Hospital", "source": "OpenGovernmentData"}}, {"type": "node", "id": 6537331570, "lat": 17.6198768, "lon": 78.081098, "tags": {"addr:district": "Medak", "addr:full": "Beside Court, Sangareddy", "addr:postcode": "502001", "addr:state": "Telangana", "amenity": "hospital", "name": "Sri Sai Ram Multi Speciality Hospital", "source": "OpenGovernmentData"}}, {"type": "node", "id": 6551983549, "lat": 17.6273783, "lon": 78.0838513, "tags": {"addr:district": "Sangareddy", "addr:place": "Sangareddy", "addr:state": "Telangana", "addr:street": "Nethaji Nagar", "addr:subdistrict": "Sangareddy", "amenity": "health_post", "healthcare": "yes", "name": "Subcentre Netaji Nagar", "operational_status": "operational", "operator:type": "government", "source": "OpenDataTelangana"}}, {"type": "node", "id": 6554636100, "lat": 17.6287836, "lon": 78.085366, "tags": {"addr:district": "Sangareddy", "addr:place": "Sangareddy", "addr:state": "Telangana", "addr:street": "Hanuman Nagar", "addr:subdistrict": "Sangareddy", "amenity": "health_post", "healthcare": "yes", "name": "SubCentre, Hanuman Nagar", "operational_status": "operational", "operator:type": "government", "source": "OpenDataTelangana"}}, {"type": "node", "id": 6557366390, "lat": 17.6286424, "lon": 78.091109, "tags": {"addr:district": "Medak", "addr:full": "SUB centre, SANGAREDDY, Near Hanuman Temple(Anganwadi Centre)", "addr:postcode": "502001", "addr:state": "Telangana", "addr:street": "Kindi Bazar", "addr:subdistrict": "Sangareddy", "amenity": "clinic", "fixme": "Please verify the accurate position of the hospital/health care centre as I have mapped the facility based on the coordinates provided in Open Government data", "healthcare": "centre", "name": "Sub Centre, Kindi Bazar", "source": "OpenGovernmentData"}}, {"type": "node", "id": 6830428479, "lat": 17.5958091, "lon": 78.0821617, "tags": {"addr:district": "Sangareddy", "addr:full": "ICICI Bank ATM, Krushi Nagar, Pothireddypally", "addr:postcode": "502001", "addr:state": "Telangana", "amenity": "hospital", "name": "Sunrise Hospital,Pothireddypally", "operator:type": "government", "source": "OpenGovernmentData"}}, {"type": "node", "id": 6830428480, "lat": 17.6091414, "lon": 78.0832908, "tags": {"addr:district": "Sangareddy", "addr:full": "Current Office Sangareddy, Telecom Colony, ShantiNagar", "addr:postcode": "502001", "addr:state": "Telangana", "amenity": "hospital", "name": "Sri Sai Ganesh Multi Speciality Hospital", "operator:type": "private", "source": "OpenGovernmentData"}}, {"type": "node", "id": 6830428481, "lat": 17.6072706, "lon": 78.0830731, "tags": {"addr:district": "Sangareddy", "addr:full": "SHAAM HOME APPLIANCES, Manjeera Nagar, Balaji Nagar, Ahmed Nagar", "addr:postcode": "502001", "addr:state": "Telangana", "amenity": "hospital", "name": "Sri Laxmi Balaji ENT & GENERAL HOSPITAL", "operator:type": "private", "source": "OpenGovernmentData"}}, {"type": "node", "id": 6830428482, "lat": 17.60852, "lon": 78.08257, "tags": {"addr:district": "Sangareddy", "addr:full": "Degloor - Hyderabad Rd, Manjeera Nagar, Balaji Nagar", "addr:postcode": "502001", "addr:state": "Telangana", "amenity": "hospital", "name": "Sri Krishna Childrens Hospital", "operator:type": "private", "source": "OpenGovernmentData"}}, {"type": "node", "id": 6830428483, "lat": 17.6000488, "lon": 78.0778679, "tags": {"addr:district": "Sangareddy", "addr:full": "Opp. LIC OFFICE, Sangareddy Bypass Rd, Revenue Colony, Balaji Nagar, Ahmed Nagar", "addr:postcode": "502001", "addr:state": "Telangana", "amenity": "hospital", "name": "Shishuraksha hospital", "operator:type": "private", "source": "OpenGovernmentData"}}, {"type": "node", "id": 6830428485, "lat": 17.6122744, "lon": 78.0822841, "tags": {"addr:district": "Sangareddy", "addr:full": "Manjeera Grameena Vikas Bank, Degloor - Hyderabad Rd, Shanthi Nagar,", "addr:postcode": "502001", "addr:state": "Telangana", "amenity": "hospital", "name": "Neehar Hospital", "operator:type": "private", "source": "OpenGovernmentData"}}, {"type": "node", "id": 6830428487, "lat": 17.606815, "lon": 78.0837331, "tags": {"addr:district": "Sangareddy", "addr:full": "Bharath Gas Agency, arepally, Balaji Nagar, Ahmed Nagar", "addr:postcode": "502001", "addr:state": "Telangana", "amenity": "hospital", "name": "City Super Speciality Hospital", "source": "OpenGovernmentData"}}, {"type": "node", "id": 6830428488, "lat": 17.6000097, "lon": 78.0779039, "tags": {"addr:district": "Sangareddy", "addr:full": "Opp. LIC OFFICE, Sangareddy Bypass Rd, Revenue Colony, Balaji Nagar, Ahmed Nagar", "addr:postcode": "502001", "addr:state": "Telangana", "amenity": "hospital", "name": "apex super speciality hospital", "source": "OpenGovernmentData"}}, {"type": "node", "id": 6840090506, "lat": 17.6082432, "lon": 78.0827525, "tags": {"amenity": "place_of_worship", "name": "Masjid-e-mustafa", "religion": "muslim", "source": "survey"}}, {"type": "node", "id": 6840090687, "lat": 17.5999307, "lon": 78.0772372, "tags": {"amenity": "place_of_worship", "name": "Hanuman Mandhir", "religion": "hindu", "source": "survey"}}, {"type": "node", "id": 6840090877, "lat": 17.622654, "lon": 78.086596, "tags": {"amenity": "pharmacy", "name": "Sree Vijaya Medical Services", "source": "survey"}}, {"type": "node", "id": 6840090915, "lat": 17.6120811, "lon": 78.0820972, "tags": {"amenity": "bank", "name": "Manjeera Grameena Vikas Bank", "source": "survey"}}, {"type": "node", "id": 6847212686, "lat": 17.6067691, "lon": 78.083363, "tags": {"amenity": "internet_cafe", "name": "Shaam Internet Services", "source": "survey"}}, {"type": "node", "id": 6847914762, "lat": 17.6006444, "lon": 78.0779272, "tags": {"amenity": "internet_cafe", "name": "Sri Venkateshwara Xerox & Net Center", "source": "survey"}}, {"type": "node", "id": 6853249775, "lat": 17.6256706, "lon": 78.0829064, "tags": {"addr:district": "Sangareddy", "addr:full": "Hospital Road, Sangareddy, Bhavani Nagar, Tadlapalle", "addr:postcode": "502001", "addr:state": "Telangana", "amenity": "clinic", "healthcare": "laboratory", "name": "Vijaya Diagnostics", "source": "OpenGovernmentData"}}, {"type": "node", "id": 6853251989, "lat": 17.623849, "lon": 78.086602, "tags": {"addr:district": "Sangareddy", "addr:full": "Shivaji Nagar, Sangareddy", "addr:postcode": "502001", "addr:state": "Telangana", "amenity": "hospital", "name": "Sri Hari Hospital", "source": "OpenGovernmentData"}}, {"type": "node", "id": 6853251990, "lat": 17.6156404, "lon": 78.0815965, "tags": {"addr:district": "Sangareddy", "addr:full": "New Bus Stand Complex, Main Road, Veerabhadra Nagar", "addr:postcode": "502001", "addr:state": "Telangana", "amenity": "clinic", "name": "Sri Guru Datta Clinic", "source": "OpenGovernmentData"}}, {"type": "node", "id": 6853251996, "lat": 17.6227633, "lon": 78.0865991, "tags": {"addr:district": "Sangareddy", "addr:full": "Someshwarwada, Nalsabgadda", "addr:postcode": "502001", "addr:state": "Telangana", "amenity": "hospital", "name": "Selection Medical & Hospital", "source": "OpenGovernmentData"}}, {"type": "node", "id": 6853252003, "lat": 17.6127314, "lon": 78.0747422, "tags": {"addr:district": "Sangareddy", "addr:full": "Ahmed Nagar, Sangareddy", "addr:postcode": "502001", "addr:state": "Telangana", "amenity": "hospital", "name": "Rukmini Clinic", "source": "OpenGovernmentData"}}, {"type": "node", "id": 6853252008, "lat": 17.6193804, "lon": 78.082298, "tags": {"addr:district": "Sangareddy", "addr:full": "Near Sahiti High school, Bismilla Masjid Lane, Veerabhadra Nagar", "addr:postcode": "502001", "addr:state": "Telangana", "amenity": "hospital", "name": "Psychriatist Hospital", "source": "OpenGovernmentData"}}, {"type": "node", "id": 6853252011, "lat": 17.6055719, "lon": 78.0840785, "tags": {"addr:district": "Sangareddy", "addr:full": "Beside United Bank of India, Opp. Redla's Inn, Sanjeev Nagar", "addr:postcode": "502001", "addr:state": "Telangana", "amenity": "dentist", "name": "Partha Dental Clinic, Sangareddy", "source": "OpenGovernmentData"}}, {"type": "node", "id": 6853252027, "lat": 17.6194373, "lon": 78.0823057, "tags": {"addr:district": "Sangareddy", "addr:full": "Sitara Theatre Road, Veerabhadra Nagar, Sangareddy", "addr:postcode": "502001", "addr:state": "Telangana", "amenity": "clinic", "name": "Dr Sravan Chitla Dermatologist", "source": "OpenGovernmentData"}}, {"type": "node", "id": 6853252035, "lat": 17.6193571, "lon": 78.0822976, "tags": {"addr:district": "Sangareddy", "addr:full": "Upper Bazar Main Road, Sangareddy, Veerabhadra Nagar", "addr:postcode": "502001", "addr:state": "Telangana", "amenity": "clinic", "name": "Bhavani Dental Clinic", "source": "OpenGovernmentData"}}, {"type": "node", "id": 6853252037, "lat": 17.6256252, "lon": 78.0828337, "tags": {"addr:district": "Sangareddy", "addr:full": "Medak-Sangareddy Road, Bhavani Nagar, Shivaji Nagar", "addr:postcode": "502001", "addr:state": "Telangana", "amenity": "hospital", "name": "Ayyappa Eye Care", "source": "OpenGovernmentData"}}, {"type": "node", "id": 7795178072, "lat": 17.6078602, "lon": 78.080267, "tags": {"addr:city": "Sangareddy", "addr:postcode": "502001", "addr:street": "Manjeera Nagar", "amenity": "school", "name": "Bharatiya Vidya Mandir School"}}, {"type": "node", "id": 7795212862, "lat": 17.610112, "lon": 78.0827026, "tags": {"amenity": "fuel"}}, {"type": "node", "id": 7795242693, "lat": 17.6069292, "lon": 78.0782593, "tags": {"addr:city": "Sangareddy", "addr:postcode": "502001", "addr:street": "Manjeera Nagar", "amenity": "place_of_worship", "name": "Sai Baba Temple"}}, {"type": "node", "id": 7795243845, "lat": 17.6099418, "lon": 78.0816388, "tags": {"addr:city": "Sangareddy", "addr:postcode": "502001", "addr:street": "Manjeera Nagar", "amenity": "school", "name": "Karuna High School"}}, {"type": "node", "id": 7795256066, "lat": 17.6109393, "lon": 78.0862564, "tags": {"addr:city": "Sangareddy", "addr:postcode": "502001", "addr:street": "Shanthi Nagar", "amenity": "school", "name": "St. Anthony's High School"}}, {"type": "node", "id": 7795266058, "lat": 17.6098072, "lon": 78.0825732, "tags": {"addr:city": "Sangareddy", "addr:postcode": "502001", "amenity": "place_of_worship", "name": "Hanuman Temple"}}, {"type": "node", "id": 7795951217, "lat": 17.6253146, "lon": 78.0647517}, {"type": "node", "id": 7795951218, "lat": 17.6252757, "lon": 78.06449}, {"type": "node", "id": 7795951219, "lat": 17.625461, "lon": 78.0646004}, {"type": "node", "id": 7795951220, "lat": 17.6253924, "lon": 78.0648046}, {"type": "node", "id": 8733361870, "lat": 17.6071411, "lon": 78.083113, "tags": {"addr:district": "Sangareddy", "addr:full": "Manjeera Nagar, Balaji Nagar", "addr:postcode": "502001", "addr:state": "Telangana", "amenity": "hospital", "name": "Sahasra Hospital", "source": "Local Knowledge"}}, {"type": "node", "id": 10960939310, "lat": 17.5958472, "lon": 78.0699004, "tags": {"addr:district": "Sangareddy", "addr:place": "Sangareddy", "addr:state": "Telangana", "addr:street": "BRUNDAVAN COLONY", "addr:subdistrict": "Sangareddy", "amenity": "health_post", "healthcare": "yes", "name": "Brundavan Colony", "operational_status": "operational", "operator:type": "government", "source": "OpenDataTelangana"}}, {"type": "node", "id": 11022143101, "lat": 17.5998188, "lon": 78.0817226}, {"type": "node", "id": 11022143102, "lat": 17.5998244, "lon": 78.08192}, {"type": "node", "id": 11022143103, "lat": 17.5994074, "lon": 78.081933}, {"type": "node", "id": 11022143104, "lat": 17.5994017, "lon": 78.0817356}, {"type": "node", "id": 11022148309, "lat": 17.6124758, "lon": 78.0788627}, {"type": "node", "id": 11022148310, "lat": 17.6122145, "lon": 78.0789035}, {"type": "node", "id": 11022148311, "lat": 17.6122069, "lon": 78.0788653}, {"type": "node", "id": 11022148312, "lat": 17.6124653, "lon": 78.0788094}, {"type": "node", "id": 11022148313, "lat": 17.612557, "lon": 78.0788451}, {"type": "node", "id": 11022148314, "lat": 17.6120893, "lon": 78.0789307}, {"type": "node", "id": 11022148315, "lat": 17.6120609, "lon": 78.0787865}, {"type": "node", "id": 11022148316, "lat": 17.6125256, "lon": 78.0786858}, {"type": "node", "id": 11025430423, "lat": 17.6166372, "lon": 78.0827898, "tags": {"amenity": "bench"}}, {"type": "node", "id": 11025430424, "lat": 17.6173172, "lon": 78.0824974, "tags": {"amenity": "bench"}}, {"type": "node", "id": 11025430425, "lat": 17.6173479, "lon": 78.0825001, "tags": {"amenity": "bench"}}, {"type": "node", "id": 11025430426, "lat": 17.6173862, "lon": 78.0825028, "tags": {"amenity": "bench"}}, {"type": "node", "id": 11025430427, "lat": 17.6174169, "lon": 78.0825081, "tags": {"amenity": "bench"}}, {"type": "node", "id": 11025430428, "lat": 17.6174194, "lon": 78.0828783, "tags": {"amenity": "bench"}}, {"type": "node", "id": 11025430441, "lat": 17.6164726, "lon": 78.0830004}, {"type": "node", "id": 11025430442, "lat": 17.6164495, "lon": 78.0830774}, {"type": "node", "id": 11025430443, "lat": 17.6165876, "lon": 78.083123}, {"type": "node", "id": 11025430444, "lat": 17.6166107, "lon": 78.083046}, {"type": "node", "id": 11025430464, "lat": 17.6169356, "lon": 78.0827477, "tags": {"amenity": "fountain"}}, {"type": "way", "id": 311746150, "nodes": [3174654053, 3174654054, 3174654055, 3174654056, 3174654057, 3174654058, 3174654059, 3174654060, 3174658861, 3174658862, 3174658863, 3174658864, 3174654053], "tags": {"addr:district": "Sangareddy", "addr:full": "Near Old Bus Stand, Opposite Police Station, Sangareddy", "addr:postcode": "502001", "addr:state": "Telangana", "amenity": "hospital", "emergency": "yes", "name": "Government hospital, Sangareddy", "operator": "Government", "source": "OpenGovernmentData", "wheelchair": "yes"}}, {"type": "way", "id": 344250093, "nodes": [3509906483, 3509906484, 3509906485, 3509906486, 3509906487, 3509906483], "tags": {"amenity": "clinic", "building": "yes", "name": "vijaya homeo clinic"}}, {"type": "way", "id": 344263794, "nodes": [3510015959, 3510015960, 3510015961, 3510015962, 3510015959], "tags": {"amenity": "school", "name": "Sri Gayatri school"}}, {"type": "way", "id": 344268156, "nodes": [3510067949, 3510067950, 3510067951, 3510067952, 3510067949], "tags": {"addr:city": "Sangareddy", "addr:postcode": "502001", "amenity": "restaurant", "building": "yes", "diet:vegetarian": "yes", "name": "Janapriya tiffin center", "opening_hours": "Mo-Su 08:00-22:00"}}, {"type": "way", "id": 345172532, "nodes": [3518684669, 3518684670, 3518684671, 3518684672, 3518684669], "tags": {"amenity": "cafe", "building": "yes", "cuisine": "cakes;burger;pizza;donut", "name": "karachi bakery"}}, {"type": "way", "id": 608624421, "nodes": [5765769463, 5765769462, 5765769461, 5765769460, 5765769463], "tags": {"addr:city": "Sangareddy", "addr:postcode": "502001", "amenity": "cafe", "building": "yes", "cuisine": "burger;pizza;sandwich;ice_cream", "internet_access": "no", "name": "Simla Bakery"}}, {"type": "way", "id": 835197971, "nodes": [7795951217, 7795951218, 7795951219, 7795951220, 7795951217], "tags": {"amenity": "place_of_worship", "building": "yes", "name": "Bhavani Mandir", "religion": "hindu"}}, {"type": "way", "id": 1186764484, "nodes": [11022143104, 11022143101, 11022143102, 11022143103, 11022143104], "tags": {"amenity": "place_of_worship", "name": "CSI-church", "religion": "christian"}}, {"type": "way", "id": 1186764486, "nodes": [11022148316, 11022148313, 11022148309, 11022148312, 11022148311, 11022148310, 11022148314, 11022148315, 11022148316], "tags": {"amenity": "college", "building": "yes", "name": "Nagarjuna junior college"}}, {"type": "way", "id": 1187270960, "nodes": [11025430444, 11025430443, 11025430442, 11025430441, 11025430444], "tags": {"amenity": "fountain"}}]}