{"version": 0.6, "generator": "Overpass API 0.7.61.5 4133829e", "osm3s": {"timestamp_osm_base": "2024-02-21T12:53:45Z", "copyright": "The data included in this document is from www.openstreetmap.org. The data is made available under ODbL."}, "elements": [{"type": "node", "id": 2429791368, "lat": 17.0675122, "lon": 78.2047735, "tags": {"amenity": "bus_station", "bus": "yes", "name": "Shadnagar Bus Stand", "public_transport": "station"}}, {"type": "node", "id": 4129793599, "lat": 17.0817943, "lon": 78.2097554}, {"type": "node", "id": 4535237991, "lat": 17.0773969, "lon": 78.2083244, "tags": {"addr:postcode": "509216", "addr:street": "Old NH 7 Hyderabad Road", "amenity": "community_centre", "name": "TTD Kalyana Mandapam", "name:en": "TTD Kalyana Mandapam"}}, {"type": "node", "id": 4535243899, "lat": 17.0682845, "lon": 78.2052869, "tags": {"addr:postcode": "509216", "addr:street": "Shadnagar Road", "amenity": "bank", "brand:wikidata": "Q2003476", "brand:wikipedia": "en:Andhra Bank", "name": "Andhra Bank", "name:en": "Andhra Bank", "website": "https://www.andhrabank.in"}}, {"type": "node", "id": 4535243900, "lat": 17.0703125, "lon": 78.2055722, "tags": {"addr:street": "Shadnagar Road", "amenity": "bank", "brand:wikidata": "Q2004439", "brand:wikipedia": "en:Bank of India", "name": "Bank of India", "name:en": "Bank of India", "short_name": "BoI", "website": "https://www.bankofindia.co.in/"}}, {"type": "node", "id": 4535250892, "lat": 17.0774045, "lon": 78.2069553, "tags": {"addr:postcode": "509216", "addr:street": "Old NH 7 Hyderabad Road", "amenity": "place_of_worship", "name": "Venkateshwara Swamy Temple", "name:en": "Venkateshwara Swamy Temple"}}, {"type": "node", "id": 4535252591, "lat": 17.0705818, "lon": 78.2056052, "tags": {"amenity": "atm", "operator": "Bank of India"}}, {"type": "node", "id": 4535252892, "lat": 17.0820486, "lon": 78.2082778, "tags": {"addr:postcode": "509216", "addr:street": "Old NH 7 Hyderabad Road", "amenity": "fuel", "name": "Bharath petrol bunk", "name:en": "Bharath petroleum bunk"}}, {"type": "node", "id": 4535252991, "lat": 17.0766425, "lon": 78.2053615, "tags": {"addr:postcode": "509216", "addr:street": "Mudhiraj street", "amenity": "place_of_worship", "name": "Anjaney Swamy temple", "name:en": "Anjaney Swamy temple", "religion": "hindu"}}, {"type": "node", "id": 5683878944, "lat": 17.0814539, "lon": 78.2011497}, {"type": "node", "id": 5683878945, "lat": 17.0827167, "lon": 78.2011576}, {"type": "node", "id": 5683878946, "lat": 17.0828619, "lon": 78.2014026}, {"type": "node", "id": 5683878947, "lat": 17.0829239, "lon": 78.2016834}, {"type": "node", "id": 5683878948, "lat": 17.0816764, "lon": 78.2009651}, {"type": "node", "id": 5683878949, "lat": 17.0819449, "lon": 78.2008682}, {"type": "node", "id": 5683878950, "lat": 17.0822289, "lon": 78.2008699}, {"type": "node", "id": 5683878951, "lat": 17.0824963, "lon": 78.2009702}, {"type": "node", "id": 5683878952, "lat": 17.0828962, "lon": 78.2019701}, {"type": "node", "id": 5683878953, "lat": 17.0827816, "lon": 78.2022322}, {"type": "node", "id": 5683878954, "lat": 17.0825925, "lon": 78.2024417}, {"type": "node", "id": 5683878955, "lat": 17.0823489, "lon": 78.2025763}, {"type": "node", "id": 5683878956, "lat": 17.0820768, "lon": 78.2026217}, {"type": "node", "id": 5683878957, "lat": 17.0818053, "lon": 78.2025729}, {"type": "node", "id": 5683878958, "lat": 17.0815633, "lon": 78.2024352}, {"type": "node", "id": 5683878959, "lat": 17.0813766, "lon": 78.2022234}, {"type": "node", "id": 5683878960, "lat": 17.081265, "lon": 78.2019598}, {"type": "node", "id": 5683878961, "lat": 17.0812406, "lon": 78.2016728}, {"type": "node", "id": 5683878962, "lat": 17.0813059, "lon": 78.2013928}, {"type": "node", "id": 6372236287, "lat": 17.0663394, "lon": 78.2041559, "tags": {"amenity": "theatre", "name": "sai raja theatre"}}, {"type": "node", "id": 6372443922, "lat": 17.071393, "lon": 78.2219707, "tags": {"amenity": "restaurant", "cuisine": "Biryani;barbecue;indian;regional;chinese;chicken;ice_cream;tea", "name:en": "Hotel Ashiana", "opening_hours": "08:00-02:00"}}, {"type": "node", "id": 6547496365, "lat": 17.0765076, "lon": 78.2068956, "tags": {"addr:district": "Mahbubnagar", "addr:full": "Near Government building, Farooqnagar.", "addr:state": "Telangana", "addr:street": "Main Road", "addr:subdistrict": "Farooqnagar", "amenity": "hospital", "healthcare": "midwife", "name": "Post Partum Unit (PPU), Shadnagar", "source": "OpenGovernmentData"}}, {"type": "node", "id": 6551948933, "lat": 17.0713335, "lon": 78.2051843, "tags": {"addr:district": "Rangareddy", "addr:place": "S/C Sdnr A", "addr:state": "Telangana", "addr:street": "SDNR A", "addr:subdistrict": "Farooqnagar", "amenity": "health_post", "healthcare": "yes", "name": "SubCentre, Shadnagar(A)", "operational_status": "operational", "operator:type": "government"}}, {"type": "node", "id": 6551975827, "lat": 17.0706386, "lon": 78.2101169, "tags": {"addr:district": "Rangareddy", "addr:place": "S/C Sdnr C", "addr:state": "Telangana", "addr:street": "SDNR C", "addr:subdistrict": "Farooqnagar", "amenity": "health_post", "healthcare": "yes", "name": "SubCentre, Shadnagar (C)", "operational_status": "operational", "operator:type": "government"}}, {"type": "node", "id": 6811749050, "lat": 17.0699205, "lon": 78.2050841, "tags": {"addr:district": "Ranga Reddy", "addr:full": "Opp. Venkateswara Park, Shadnagar, Hyderabad", "addr:postcode": "509216", "addr:state": "Telangana", "amenity": "hospital", "name": "Vijaya Jyothi Hospital", "source": "OpenGovernmentData"}}, {"type": "node", "id": 6822126614, "lat": 17.0693231, "lon": 78.205009, "tags": {"amenity": "restaurant", "name": "KARTHIKEYA VILAS & BIRYANI POINT", "source": "survey"}}, {"type": "node", "id": 6923761685, "lat": 17.0617697, "lon": 78.2044425, "tags": {"amenity": "restaurant", "cuisine": "indian", "name": "Sri Krishna Udupi Hotel", "survey:date": "2019-10-27"}}, {"type": "node", "id": 8110990997, "lat": 17.0679777, "lon": 78.2045028, "tags": {"addr:city": "shadnagar", "addr:postcode": "509216", "amenity": "fast_food", "name": "mobile shop"}}, {"type": "node", "id": 8110991000, "lat": 17.0628576, "lon": 78.2048623, "tags": {"amenity": "vending_machine", "name": "HP petrol bunk", "vending": "fuel"}}, {"type": "node", "id": 8113833373, "lat": 17.0791558, "lon": 78.2077128, "tags": {"amenity": "vending_machine", "name": "Bharat pertrol bunk", "vending": "fuel"}}, {"type": "node", "id": 8113833375, "lat": 17.0711862, "lon": 78.2060342, "tags": {"amenity": "bar", "name": "bhavani bar"}}, {"type": "node", "id": 8978165521, "lat": 17.0711809, "lon": 78.2219911, "tags": {"amenity": "parking"}}, {"type": "node", "id": 9075028058, "lat": 17.0596827, "lon": 78.2038786, "tags": {"amenity": "hospital", "name": "Viva Hospital"}}, {"type": "node", "id": 9075082641, "lat": 17.0596734, "lon": 78.2040157, "tags": {"amenity": "hospital", "name": "Viva Hospital"}}, {"type": "node", "id": 9075095526, "lat": 17.0592837, "lon": 78.2037696, "tags": {"amenity": "hospital", "name": "VIVA Hospital"}}, {"type": "node", "id": 9078451629, "lat": 17.0664134, "lon": 78.205437, "tags": {"amenity": "restaurant", "cuisine": "veg", "name": "Hotel Manorama"}}, {"type": "node", "id": 10764912469, "lat": 17.0793287, "lon": 78.2146166, "tags": {"addr:city": "Shadnagar", "addr:postcode": "509216", "addr:street": "MADHA HIGH SCHOOL", "amenity": "school", "name": "Medha high school shadnagar"}}, {"type": "node", "id": 10764912470, "lat": 17.0821125, "lon": 78.2075473}, {"type": "node", "id": 10764912471, "lat": 17.082056, "lon": 78.2078745}, {"type": "node", "id": 10764912472, "lat": 17.081574, "lon": 78.2078048}, {"type": "node", "id": 10764912473, "lat": 17.081651, "lon": 78.2074615}, {"type": "node", "id": 10764912474, "lat": 17.082034, "lon": 78.2098919}, {"type": "node", "id": 10764912475, "lat": 17.0818117, "lon": 78.2103101}, {"type": "node", "id": 10764912476, "lat": 17.0815575, "lon": 78.2101633}, {"type": "node", "id": 10764912477, "lat": 17.0860273, "lon": 78.2139706}, {"type": "node", "id": 10764912478, "lat": 17.0862327, "lon": 78.2135793}, {"type": "node", "id": 10764912479, "lat": 17.0866773, "lon": 78.2138615}, {"type": "node", "id": 10764912480, "lat": 17.0869409, "lon": 78.2140347}, {"type": "node", "id": 10764912481, "lat": 17.0866895, "lon": 78.2144517}, {"type": "node", "id": 10764912530, "lat": 17.0834979, "lon": 78.2117211, "tags": {"addr:city": "SHADNAGAR", "addr:postcode": "509216", "addr:street": "Old NH 7 Hyderabad Road", "amenity": "community_centre", "name": "A1 function hall"}}, {"type": "node", "id": 10764912531, "lat": 17.0835694, "lon": 78.2115771}, {"type": "node", "id": 10764912532, "lat": 17.0836197, "lon": 78.2115356}, {"type": "node", "id": 10764912533, "lat": 17.0837626, "lon": 78.2117377}, {"type": "node", "id": 10764912534, "lat": 17.0837097, "lon": 78.211782}, {"type": "node", "id": 10764912535, "lat": 17.0834529, "lon": 78.211998}, {"type": "node", "id": 10764912536, "lat": 17.0833497, "lon": 78.2118319}, {"type": "node", "id": 10764912537, "lat": 17.0834159, "lon": 78.2117876}, {"type": "node", "id": 10764912538, "lat": 17.0832888, "lon": 78.211602}, {"type": "node", "id": 10764912539, "lat": 17.0833232, "lon": 78.2114359}, {"type": "node", "id": 10764912540, "lat": 17.0834953, "lon": 78.2116519}, {"type": "node", "id": 10764912541, "lat": 17.084615, "lon": 78.2115867}, {"type": "node", "id": 10764912542, "lat": 17.084353, "lon": 78.2118083}, {"type": "node", "id": 10764912543, "lat": 17.0842047, "lon": 78.2116144}, {"type": "node", "id": 10764912544, "lat": 17.0843, "lon": 78.2114427}, {"type": "node", "id": 10764912545, "lat": 17.0844377, "lon": 78.2113458}, {"type": "node", "id": 10764912550, "lat": 17.0851829, "lon": 78.2126429}, {"type": "node", "id": 10764912551, "lat": 17.0852584, "lon": 78.2127552}, {"type": "node", "id": 10764912552, "lat": 17.0851428, "lon": 78.2128453}, {"type": "node", "id": 10764912553, "lat": 17.0850696, "lon": 78.2127231}, {"type": "node", "id": 10991444788, "lat": 17.0796638, "lon": 78.2008539, "tags": {"addr:district": "Rangareddy", "addr:place": "Farooque Nagar, Mandal", "addr:state": "Telangana", "addr:street": "Shadnagar", "addr:subdistrict": "Shamshabad", "amenity": "doctors", "healthcare": "doctor", "name": "Government Ayurveda Dispenary, Shadnagar (NRHM)", "operational_status": "operational", "operator:type": "government", "source": "OpenDataTelangana"}}, {"type": "way", "id": 596737473, "nodes": [5683878952, 5683878953, 5683878954, 5683878955, 5683878956, 5683878957, 5683878958, 5683878959, 5683878960, 5683878961, 5683878962, 5683878944, 5683878948, 5683878949, 5683878950, 5683878951, 5683878945, 5683878946, 5683878947, 5683878952], "tags": {"amenity": "studio", "building": "yes", "name": "rks studio"}}, {"type": "way", "id": 1157546714, "nodes": [10764912470, 10764912471, 10764912472, 10764912473, 10764912470], "tags": {"addr:city": "SHADNAGAR", "addr:postcode": "509216", "addr:street": "Old NH 7 Hyderabad Road", "amenity": "community_centre", "building": "yes", "name": "LN Garden", "opening_hours": "24/7"}}, {"type": "way", "id": 1157546715, "nodes": [10764912474, 10764912475, 10764912476, 4129793599, 10764912474], "tags": {"addr:city": "Shadnagar", "addr:postcode": "509216", "addr:street": "Old NH 7 Hyderabad Road", "amenity": "community_centre", "building": "yes", "layer": "1", "name": "King Palace"}}, {"type": "way", "id": 1157546716, "nodes": [10764912477, 10764912478, 10764912479, 10764912480, 10764912481, 10764912477], "tags": {"addr:city": "Shadnagar", "addr:postcode": "509216", "addr:street": "Old NH 7 Hyderabad Road", "amenity": "community_centre", "building": "yes", "name": "RED ROSE PALACE FUNCTION HALL", "opening_hours": "24/7"}}, {"type": "way", "id": 1157546729, "nodes": [10764912531, 10764912532, 10764912533, 10764912534, 10764912535, 10764912536, 10764912537, 10764912538, 10764912539, 10764912540, 10764912531], "tags": {"addr:city": "SHADNAGAR", "addr:postcode": "509216", "addr:street": "Old NH 7 Hyderabad Road", "amenity": "community_centre", "building": "yes", "name": "A1 function hall", "opening_hours": "24/7"}}, {"type": "way", "id": 1157546730, "nodes": [10764912541, 10764912542, 10764912543, 10764912544, 10764912545, 10764912541], "tags": {"addr:city": "SHADNAGAR", "addr:postcode": "509216", "addr:street": "Old NH 7 Hyderabad Road", "amenity": "community_centre", "building": "yes", "name": "LSN GARDEN", "opening_hours": "24/7"}}, {"type": "way", "id": 1157546732, "nodes": [10764912550, 10764912551, 10764912552, 10764912553, 10764912550], "tags": {"addr:city": "SHADNAGAR", "addr:postcode": "509216", "addr:street": "Old NH 7 Hyderabad Road", "amenity": "fuel", "building": "yes", "fuel:diesel": "yes", "fuel:petrol": "yes", "name": "RR HP Fuel Point"}}]}